state,county_name,municipality,precinct_id,name,address
RI,,BARRINGTON,0101,BARRINGTON HIGH SCHOOL,"220 LINCOLN AVE, BARRINGTON, RI 00000"
RI,,BARRINGTON,0102,MIDDLE SCHOOL,"261 MIDDLE HWY, BARRINGTON, RI 00000"
RI,,BARRINGTON,0103,NAYATT SCHOOL,"400 NAYATT RD, BARRINGTON, RI 00000"
RI,,BARRINGTON,0104,HAMPDEN MEADOWS SCHOOL,"297 NEW MEADOW RD, BARRINGTON, RI 00000"
RI,,BARRINGTON,0105,SOWAMS SCHOOL,"364 SOWAMS RD, BARRINGTON, RI 00000"
RI,,BARRINGTON,0106,TOWN HALL - LIMITED,"283 COUNTY RD, BARRINGTON, RI 00000"
RI,,BRISTOL,0201,ROCKWELL SCHOOL,"1225 HOPE ST, BRISTOL, RI 00000"
RI,,BRISTOL,0202,BURNSIDE BUILDING,"400 HOPE ST, BRISTOL, RI 00000"
RI,,BRISTOL,0203,QUINTA-GAMELIN CENTER,"101 ASYLUM RD, BRISTOL, RI 00000"
RI,,BRISTOL,0204,MOUNT HOPE HIGH SCHOOL,"199 CHESTNUT ST, BRISTOL, RI 00000"
RI,,BRISTOL,0205,FIRE DEPARTMENT HEADQUARTERS,"4 ANNAWAMSCUTT DR, BRISTOL, RI 00000"
RI,,BRISTOL,0206,RHODE ISLAND VETERANS HOME,"480 METACOM AVE, BRISTOL, RI 00000"
RI,,BRISTOL,0207,ROGER WILLIAMS UNIVERSITY NORTH DORMITORY,"1 OLD FERRY RD, BRISTOL, RI 00000"
RI,,BRISTOL,0208,FRANKLIN COURT,"150 FRANKLIN ST, BRISTOL, RI 00000"
RI,,BRISTOL,0209,ST. ELIZABETH AUDITORIUM,"577 WOOD ST, BRISTOL, RI 00000"
RI,,BRISTOL,0210,TOWN HALL - LIMITED,"10 COURT ST, BRISTOL, RI 00000"
RI,,BURRILLVILLE,0301,PASCOAG UTILITY DISTRICT,"253 PASCOAG MAIN ST, BURRILLVILLE, RI 00000"
RI,,BURRILLVILLE,0302,BECKWITH-BRUCKSHAW MEMORIAL LODGE,"50 LODGE RD, BURRILLVILLE, RI 00000"
RI,,BURRILLVILLE,0303,BURRILLVILLE HIGH SCHOOL,"425 EAST AVE, BURRILLVILLE, RI 00000"
RI,,BURRILLVILLE,0304,WILLIAM L CALLAHAN SCHOOL,"75 CALLAHAN SCHOOL ST, BURRILLVILLE, RI 00000"
RI,,BURRILLVILLE,0305,OAKLAND-MAPLEVILLE FIRE STATION,"46 OAKLAND SCHOOL ST, BURRILLVILLE, RI 00000"
RI,,BURRILLVILLE,0306,BURRILLVILLE MIDDLE SCHOOL,"2220 BRONCOS HWY, BURRILLVILLE, RI 00000"
RI,,BURRILLVILLE,0307,TOWN HALL - LIMITED,"105 HARRISVILLE MAIN ST, BURRILLVILLE, RI 00000"
RI,,CENTRAL FALLS,0401,CALCUTT MIDDLE SCHOOL - ROOM A,"112 WASHINGTON ST, CENTRAL FALLS, RI 00000"
RI,,CENTRAL FALLS,0402,M.I. ROBERTSON SCHOOL - ROOM A,"135 HUNT ST, CENTRAL FALLS, RI 00000"
RI,,CENTRAL FALLS,0403,CENTRAL FALLS HIGH SCHOOL,"24 SUMMER ST, CENTRAL FALLS, RI 00000"
RI,,CENTRAL FALLS,0404,VETERANS MEMORIAL ELEMENTARY SCHOOL,"150 FULLER AVE, CENTRAL FALLS, RI 00000"
RI,,CENTRAL FALLS,0405,CAPT. G.H. HUNT SCHOOL - ROOM A,"12 KENDALL ST, CENTRAL FALLS, RI 00000"
RI,,CENTRAL FALLS,0406,MADEIRENSE CLUB,"46 MADEIRA AVE, CENTRAL FALLS, RI 00000"
RI,,CENTRAL FALLS,0407,ELLA RISK SCHOOL,"949 DEXTER ST, CENTRAL FALLS, RI 00000"
RI,,CENTRAL FALLS,0408,KNIGHTS OF COLUMBUS,"20 CLAREMONT ST, CENTRAL FALLS, RI 00000"
RI,,CENTRAL FALLS,0410,CITY HALL - LIMITED,"580 BROAD ST, CENTRAL FALLS, RI 00000"
RI,,CHARLESTOWN,0501,CHARLESTOWN ELEMENTARY SCHOOL,"363 CAROLINA BACK RD, CHARLESTOWN, RI 00000"
RI,,CHARLESTOWN,0502,CHARLESTOWN TOWN HALL,"4540 S COUNTY TRL, CHARLESTOWN, RI 00000"
RI,,CHARLESTOWN,0503,QUONOCHONTAUG GRANGE HALL,"5662 POST RD, CHARLESTOWN, RI 00000"
RI,,CHARLESTOWN,0504,CHARLESTOWN AMBULANCE STATION,"4891 OLD POST RD, CHARLESTOWN, RI 00000"
RI,,CHARLESTOWN,0505,TOWN HALL - LIMITED,"4540 S COUNTY TRL, CHARLESTOWN, RI 00000"
RI,,COVENTRY,0601,MANCHESTER HALL,"585 WASHINGTON ST, COVENTRY, RI 00000"
RI,,COVENTRY,0602,OUR LADY OF CZENSTOCHOWA SCHOOL,"208 MACARTHUR BLVD, COVENTRY, RI 00000"
RI,,COVENTRY,0603,CLUB JOGUES,"184 BOSTON ST, COVENTRY, RI 00000"
RI,,COVENTRY,0604,TIOGUE SCHOOL,"170 EAST SHORE DR, COVENTRY, RI 00000"
RI,,COVENTRY,0605,ST. FRANCIS EPISCOPAL CHURCH,"132 PECKHAM LN, COVENTRY, RI 00000"
RI,,COVENTRY,0606,TOWN HALL - TOWN COUNCIL CHAMBERS,"1670 FLAT RIVER RD, COVENTRY, RI 00000"
RI,,COVENTRY,0607,COVENTRY COMMUNITY CENTER,"1277 MAIN ST, COVENTRY, RI 00000"
RI,,COVENTRY,0608,ASF MIDDLE SCHOOL,"9 FOSTER DR, COVENTRY, RI 00000"
RI,,COVENTRY,0609,MAPLE ROOT BAPTIST CHURCH,"150 HARKNEY HILL RD, COVENTRY, RI 00000"
RI,,COVENTRY,0610,KNOTTY OAK VILLAGE,"14 MANCHESTER CIR, COVENTRY, RI 00000"
RI,,COVENTRY,0611,WESTWOOD ESTATES CLUB HOUSE,"1 LIENA ROSE WAY, COVENTRY, RI 00000"
RI,,COVENTRY,0612,OAK HAVEN SCHOOL,"46 PETTINE ST, COVENTRY, RI 00000"
RI,,COVENTRY,0613,COVENTRY SENIOR CENTER,"50 WOOD ST, COVENTRY, RI 00000"
RI,,COVENTRY,0614,WOODLAND MANOR II,"20 WOODLAND DR, COVENTRY, RI 00000"
RI,,COVENTRY,0615,COVENTRY HIGH SCHOOL,"40 RESERVOIR RD, COVENTRY, RI 00000"
RI,,COVENTRY,0616,HOPKINS HILL SCHOOL,"95 JOHNSON BLVD, COVENTRY, RI 00000"
RI,,COVENTRY,0617,SUMMIT BAPTIST CHURCH,"1176 VICTORY HWY, COVENTRY, RI 00000"
RI,,COVENTRY,0618,WESTERN COVENTRY SCHOOL,"4588 FLAT RIVER RD, COVENTRY, RI 00000"
RI,,COVENTRY,0619,COVENTRY TOWN HALL - LIMITED BALLOTS,"1670 FLAT RIVER RD, COVENTRY, RI 00000"
RI,,CRANSTON,0701,ARLINGTON MANOR,"50 BIRCH ST, CRANSTON, RI 00000"
RI,,CRANSTON,0702,ARLINGTON SCHOOL - CAFETERIA,"155 PRINCESS AVE, CRANSTON, RI 00000"
RI,,CRANSTON,0703,SANTA MARIA DIPRATA SOCIETY,"29 WALNUT GROVE AVE, CRANSTON, RI 00000"
RI,,CRANSTON,0704,CRANSTON SENIOR CENTER,"1070 CRANSTON ST, CRANSTON, RI 00000"
RI,,CRANSTON,0705,STADIUM ELEMENTARY SCHOOL,"100 CRESCENT AVE, CRANSTON, RI 00000"
RI,,CRANSTON,0706,CRANSTON CHRISTIAN FELLOWSHIP CHURCH,"1114 SCITUATE AVE, CRANSTON, RI 00000"
RI,,CRANSTON,0707,HOPE HIGHLANDS ELEMENTARY SCHOOL (GYM),"300 HOPE RD, CRANSTON, RI 00000"
RI,,CRANSTON,0708,OAKLAWN SCHOOL (CAFETERIA - BACK LOWER LEVEL),"28 STONEHAM ST, CRANSTON, RI 00000"
RI,,CRANSTON,0709,SCHOFIELD ARMORY,"705 NEW LONDON AVE, CRANSTON, RI 00000"
RI,,CRANSTON,0710,DANIEL WATERMAN ELEMENTARY SCHOOL,"722 PONTIAC AVE, CRANSTON, RI 00000"
RI,,CRANSTON,0711,WESTERN HILLS MIDDLE SCHOOL,"400 PHENIX AVE, CRANSTON, RI 00000"
RI,,CRANSTON,0712,GLEN HILLS SCHOOL,"50 GLEN HILLS DR, CRANSTON, RI 00000"
RI,,CRANSTON,0713,GARDEN CITY SCHOOL,"70 PLANTATION DR, CRANSTON, RI 00000"
RI,,CRANSTON,0714,CRANSTON PORTUGUESE CLUB,"20 2ND AVE, CRANSTON, RI 00000"
RI,,CRANSTON,0715,BUDLONG MANOR - COMMUNITY ROOM,"100 ARTHUR ST, CRANSTON, RI 00000"
RI,,CRANSTON,0716,GEORGE J PETERS SCHOOL,"15 MAYBERRY ST, CRANSTON, RI 00000"
RI,,CRANSTON,0717,EDEN PARK SCHOOL - USE CHESTNUT ST ENTRANCE,"180 OAKLAND AVE, CRANSTON, RI 00000"
RI,,CRANSTON,0718,HORTON SCHOOL,"1196 PARK AVE, CRANSTON, RI 00000"
RI,,CRANSTON,0719,WOODRIDGE ELEMENTARY SCHOOL,"401 BUDLONG RD, CRANSTON, RI 00000"
RI,,CRANSTON,0720,ST DAVID'S ON THE HILL CHURCH,"200 MESHANTICUT VALLEY PKWY, CRANSTON, RI 00000"
RI,,CRANSTON,0721,CRANSTON HIGH SCHOOL EAST (GYM),"899 PARK AVE, CRANSTON, RI 00000"
RI,,CRANSTON,0722,HUGH B. BAIN SCHOOL - USE DUCKWORTH ST ENTRANCE,"135 GANSETT AVE, CRANSTON, RI 00000"
RI,,CRANSTON,0723,EDGEWOOD HIGHLAND ELEMENTARY SCHOOL,"160 PAWTUXET AVE, CRANSTON, RI 00000"
RI,,CRANSTON,0724,WILLIAM HALL LIBRARY,"1825 BROAD ST, CRANSTON, RI 00000"
RI,,CRANSTON,0725,PARK VIEW MIDDLE SCHOOL,"25 PARK VIEW BLVD, CRANSTON, RI 00000"
RI,,CRANSTON,0726,AMERICAN LEGION AUBURN POST 20,"7 LEGION WAY, CRANSTON, RI 00000"
RI,,CRANSTON,0727,SCOTTISH RITE MASONIC CENTER,"2115 BROAD ST, CRANSTON, RI 00000"
RI,,CRANSTON,0728,SCHOFIELD ARMORY,"705 NEW LONDON AVE, CRANSTON, RI 00000"
RI,,CRANSTON,0730,ORCHARD FARMS ELEMENTARY SCHOOL,"1555 SCITUATE AVE, CRANSTON, RI 00000"
RI,,CRANSTON,0731,KELLEY & GAZZERRO VFW POST,"1418 PLAINFIELD PIKE, CRANSTON, RI 00000"
RI,,CRANSTON,0732,CITY HALL - LIMITED,"869 PARK AVE, CRANSTON, RI 00000"
RI,,CUMBERLAND,0801,CHIMNEY HILL APARTMENTS,"2065 MENDON RD, CUMBERLAND, RI 00000"
RI,,CUMBERLAND,0802,CUMBERLAND HIGH SCHOOL,"2600 MENDON RD, CUMBERLAND, RI 00000"
RI,,CUMBERLAND,0803,JOHN J MCLAUGHLIN CUMBERLAND HILL SCHOOL,"205 MANVILLE HILL RD, CUMBERLAND, RI 00000"
RI,,CUMBERLAND,0804,MERCYMOUNT COUNTRY DAY SCHOOL,"35 WRENTHAM RD, CUMBERLAND, RI 00000"
RI,,CUMBERLAND,0805,JOSEPH L MCCOURT MIDDLE SCHOOL,"45 HIGHLAND AVE, CUMBERLAND, RI 00000"
RI,,CUMBERLAND,0806,BEAR HILL VILLAGE,"156 BEAR HILL RD, CUMBERLAND, RI 00000"
RI,,CUMBERLAND,0807,COMMUNITY SCHOOL,"15 ARNOLD MILLS RD, CUMBERLAND, RI 00000"
RI,,CUMBERLAND,0808,DIAMOND HILL SKI LODGE,"4125 DIAMOND HILL RD, CUMBERLAND, RI 00000"
RI,,CUMBERLAND,0809,EMMANUEL EPISCOPAL CHURCH-PARISH HALL,"120 NATE WHIPPLE HWY, CUMBERLAND, RI 00000"
RI,,CUMBERLAND,0810,FATIMA PARISH HALL,"1 FATIMA DR, CUMBERLAND, RI 00000"
RI,,CUMBERLAND,0811,ONE MENDON RD. HOUSING,"1 MENDON RD, CUMBERLAND, RI 00000"
RI,,CUMBERLAND,0812,CUMBERLAND LIBRARY - HAYDEN CENTER,"1464 DIAMOND HILL RD, CUMBERLAND, RI 00000"
RI,,CUMBERLAND,0813,CUMBERLAND HILL FIRE STATION,"3502 MENDON RD, CUMBERLAND, RI 00000"
RI,,CUMBERLAND,0814,TOWN HALL - LIMITED,"45 BROAD ST, CUMBERLAND, RI 00000"
RI,,EAST GREENWICH,0901,EAST GREENWICH HIGH SCHOOL,"300 AVENGER DR, EAST GREENWICH, RI 00000"
RI,,EAST GREENWICH,0902,GEORGE HANAFORD SCHOOL- GYM,"200 MIDDLE RD, EAST GREENWICH, RI 00000"
RI,,EAST GREENWICH,0903,SWIFT COMMUNITY CENTER,"121 PEIRCE ST, EAST GREENWICH, RI 00000"
RI,,EAST GREENWICH,0904,ARCHIE COLE JR. HIGH,"100 CEDAR AVE, EAST GREENWICH, RI 00000"
RI,,EAST GREENWICH,0905,FRENCHTOWN SCHOOL #0908-GYMNASIUM,"1100 FRENCHTOWN RD, EAST GREENWICH, RI 00000"
RI,,EAST GREENWICH,0906,TOWN HALL - LIMITED,"125 MAIN ST, EAST GREENWICH, RI 00000"
RI,,EAST PROVIDENCE,1001,FRANCIS SCHOOL,"64 BOURNE AVE, EAST PROVIDENCE, RI 00000"
RI,,EAST PROVIDENCE,1002,CITY VIEW MANOR,"99 GOLDSMITH AVE, EAST PROVIDENCE, RI 00000"
RI,,EAST PROVIDENCE,1003,WHITEKNACT SCHOOL,"261 GROSVENOR AVE, EAST PROVIDENCE, RI 00000"
RI,,EAST PROVIDENCE,1004,RUMFORD TOWERS,"95 NEWMAN AVE, EAST PROVIDENCE, RI 00000"
RI,,EAST PROVIDENCE,1005,FRANCIS SCHOOL,"64 BOURNE AVE, EAST PROVIDENCE, RI 00000"
RI,,EAST PROVIDENCE,1006,EAST PROVIDENCE HIGH SCHOOL,"2000 PAWTUCKET AVE, EAST PROVIDENCE, RI 00000"
RI,,EAST PROVIDENCE,1007,ST MARTHA'S CHURCH HALL,"2595 PAWTUCKET AVE, EAST PROVIDENCE, RI 00000"
RI,,EAST PROVIDENCE,1008,ST FRANCIS CHURCH HALL,"81 N CARPENTER ST, EAST PROVIDENCE, RI 00000"
RI,,EAST PROVIDENCE,1009,HENNESSEY SCHOOL,"75 FORT ST, EAST PROVIDENCE, RI 00000"
RI,,EAST PROVIDENCE,1010,MARTIN MIDDLE SCHOOL,"111 BROWN ST, EAST PROVIDENCE, RI 00000"
RI,,EAST PROVIDENCE,1011,KENT HEIGHTS SCHOOL,"2680 PAWTUCKET AVE, EAST PROVIDENCE, RI 00000"
RI,,EAST PROVIDENCE,1012,RIVERSIDE CONGREGATIONAL,"295 BULLOCKS POINT AVE, EAST PROVIDENCE, RI 00000"
RI,,EAST PROVIDENCE,1013,HARBOR VIEW MANOR,"3663 PAWTUCKET AVE, EAST PROVIDENCE, RI 00000"
RI,,EAST PROVIDENCE,1014,RIVERSIDE LIBRARY,"475 BULLOCKS POINT AVE, EAST PROVIDENCE, RI 00000"
RI,,EAST PROVIDENCE,1015,CRESCENT PARK MANOR,"243 CRESCENT VIEW AVE, EAST PROVIDENCE, RI 00000"
RI,,EAST PROVIDENCE,1016,WADDINGTON SCHOOL,"101 LEGION WAY, EAST PROVIDENCE, RI 00000"
RI,,EAST PROVIDENCE,1017,OLDHAM SCHOOL ( FORMERLY MEADOWCREST),"60 BART DR, EAST PROVIDENCE, RI 00000"
RI,,EAST PROVIDENCE,1018,CITY HALL - LIMITED,"145 TAUNTON AVE, EAST PROVIDENCE, RI 00000"
RI,,EXETER,1101,SAINT KATERI TEKAKWITH CHURCH,"84 EXETER RD, EXETER, RI 00000"
RI,,EXETER,1102,METCALF SCHOOL CAFETERIA,"30 NOOSENECK HILL RD, EXETER, RI 00000"
RI,,EXETER,1103,EXETER JOB CORPS ACADEMY,"162 MAIN ST, EXETER, RI 00000"
RI,,EXETER,1104,TOWN HALL - LIMITED,"675 TEN ROD RD, EXETER, RI 00000"
RI,,FOSTER,1201,CAPTAIN ISAAC PAINE SCHOOL,"160 FOSTER CENTER RD, FOSTER, RI 00000"
RI,,FOSTER,1202,WOODY LOWDEN RECREATIONAL CENTER,"16 HOWARD HILL RD, FOSTER, RI 00000"
RI,,FOSTER,1203,TOWN HALL - LIMITED,"181 HOWARD HILL RD, FOSTER, RI 00000"
RI,,GLOCESTER,1301,PONAGANSET MIDDLE SCHOOL,"7 RUSTIC HILL RD, GLOCESTER, RI 00000"
RI,,GLOCESTER,1302,WEST GLOCESTER ELEMENTARY SCHOOL,"111 REYNOLDS RD, GLOCESTER, RI 00000"
RI,,GLOCESTER,1303,GLOCESTER SENIOR CENTER,"1210 PUTNAM PIKE, GLOCESTER, RI 00000"
RI,,GLOCESTER,1304,FOGARTY ELEMENTARY SCHOOL,"736 SNAKE HILL RD, GLOCESTER, RI 00000"
RI,,GLOCESTER,1305,TOWN HALL - LIMITED,"1145 PUTNAM PIKE, GLOCESTER, RI 00000"
RI,,HOPKINTON,1401,ASHAWAY ELEMENTARY SCHOOL,"12 HILLSIDE AVE, HOPKINTON, RI 00000"
RI,,HOPKINTON,1402,HOPE VALLEY ELEMENTARY SCHOOL - CAFETERIA,"15 THELMA DR, HOPKINTON, RI 00000"
RI,,HOPKINTON,1403,ST. JOSEPH'S CHURCH,"1105 MAIN ST, HOPKINTON, RI 00000"
RI,,HOPKINTON,1404,TOWN HALL - LIMITED,"1 TOWNHOUSE RD, HOPKINTON, RI 00000"
RI,,JAMESTOWN,1501,JAMESTOWN RECREATION CENTER,"41 CONANICUS AVE, JAMESTOWN, RI 00000"
RI,,JAMESTOWN,1502,LAWN AVENUE SCHOOL,"55 LAWN AVE, JAMESTOWN, RI 00000"
RI,,JAMESTOWN,1503,TOWN HALL LIMITED,"93 NARRAGANSETT AVE, JAMESTOWN, RI 00000"
RI,,JOHNSTON,1601,WINSOR HILL SCHOOL,"100 THERESA AVE, JOHNSTON, RI 00000"
RI,,JOHNSTON,1602,SIMMONSVILLAGE COMMUNITY HALL,"339 SIMMONSVILLE AVE, JOHNSTON, RI 00000"
RI,,JOHNSTON,1603,CLAIBORNE PELL MANOR,"1609 PLAINFIELD PIKE, JOHNSTON, RI 00000"
RI,,JOHNSTON,1604,NICHOLAS FERRI MIDDLE SCHOOL - CAFETERIA,"10 MEMORIAL AVE, JOHNSTON, RI 00000"
RI,,JOHNSTON,1605,LOCAL 57 TRAINING FACILITY,"875 CENTRAL AVE, JOHNSTON, RI 00000"
RI,,JOHNSTON,1606,SARAH DYER BARNES- LIBRARY,"24 BARNES AVE, JOHNSTON, RI 00000"
RI,,JOHNSTON,1607,GEORGE CALEF SCHOOL,"7 WAVELAND ST, JOHNSTON, RI 00000"
RI,,JOHNSTON,1608,GEORGE C. CALEF SCHOOL - CAFETERIA,"7 WAVELAND ST, JOHNSTON, RI 00000"
RI,,JOHNSTON,1609,AIME J. FORAND HOUSING,"8 FORAND CIR, JOHNSTON, RI 00000"
RI,,JOHNSTON,1610,GRANITEVILLE SCHOOL - CAFETERIA,"6 COLLINS AVE, JOHNSTON, RI 00000"
RI,,JOHNSTON,1611,SARAH DYER BARNES - CAFETERIA,"24 BARNES AVE, JOHNSTON, RI 00000"
RI,,JOHNSTON,1612,JOHNSTON HIGH SCHOOL,"345 CHERRY HILL RD, JOHNSTON, RI 00000"
RI,,JOHNSTON,1613,BROWN AVE SCHOOL,"14 BROWN AVE, JOHNSTON, RI 00000"
RI,,JOHNSTON,1614,TOWN HALL - LIMITED,"1385 HARTFORD AVE, JOHNSTON, RI 00000"
RI,,LINCOLN,1701,LINCOLN MIDDLE SCHOOL,"152 JENCKES HILL RD, LINCOLN, RI 00000"
RI,,LINCOLN,1702,ALBION YOUTH CENTER,"35 SCHOOL ST, LINCOLN, RI 00000"
RI,,LINCOLN,1703,ST JAMES SCHOOL,"57 DIVISION ST, LINCOLN, RI 00000"
RI,,LINCOLN,1704,SAYLESVILLE SCHOOL,"50 WOODLAND ST, LINCOLN, RI 00000"
RI,,LINCOLN,1705,LONSDALE ELEMENTARY,"280 RIVER RD, LINCOLN, RI 00000"
RI,,LINCOLN,1706,KNIGHTS OF COLUMBUS,"171 JENCKES HILL RD, LINCOLN, RI 00000"
RI,,LINCOLN,1707,ST BASIL'S CHURCH,"15 SKYVIEW DR, LINCOLN, RI 00000"
RI,,LINCOLN,1708,CENTRAL ELEMENTARY,"1061 GREAT RD, LINCOLN, RI 00000"
RI,,LINCOLN,1709,LINCOLN HIGH SCHOOL NORTH GYM,"160 OLD RIVER RD, LINCOLN, RI 00000"
RI,,LINCOLN,1710,LINCOLN MANOR,"10 FRANKLIN ST, LINCOLN, RI 00000"
RI,,LINCOLN,1711,ST JUDES PARISH CENTER,"301 FRONT ST, LINCOLN, RI 00000"
RI,,LINCOLN,1712,TOWN HALL -LIMITED,"100 OLD RIVER RD, LINCOLN, RI 00000"
RI,,LITTLE COMPTON,1801,JOSEPHINE WILBUR - AUDITORIUM,"28 COMMONS, LITTLE COMPTON, RI 00000"
RI,,LITTLE COMPTON,1802,JF WILBUR MCMAHON SCHOOL - AUDITORIUM - LIMITED,"28 COMMONS, LITTLE COMPTON, RI 00000"
RI,,MIDDLETOWN,1901,FOP LODGE,"464 MITCHELL'S LN, MIDDLETOWN, RI 00000"
RI,,MIDDLETOWN,1902,JOSEPH H. GAUDET SCHOOL - GYM TURNER RD ENTERANCE,"1113 AQUIDNECK AVE, MIDDLETOWN, RI 00000"
RI,,MIDDLETOWN,1903,AQUIDNECK SCHOOL - CAFETERIA,"70 RESERVOIR RD, MIDDLETOWN, RI 00000"
RI,,MIDDLETOWN,1904,MIDDLETOWN HIGH SCHOOL -GYMNASIUM,"130 VALLEY RD, MIDDLETOWN, RI 00000"
RI,,MIDDLETOWN,1905,FOREST AVENUE SCHOOL - CAFETERIA,"315 FOREST AVE, MIDDLETOWN, RI 00000"
RI,,MIDDLETOWN,1906,TOWN HALL - LIMITED,"350 E MAIN RD, MIDDLETOWN, RI 00000"
RI,,NARRAGANSETT,2001,NORTH BEACH CLUBHOUSE,"79 BOSTON NECK RD, NARRAGANSETT, RI 00000"
RI,,NARRAGANSETT,2002,METTATUXET YACHT CLUB,"30 S RIVER DR, NARRAGANSETT, RI 00000"
RI,,NARRAGANSETT,2003,ST VERONICA'S CHURCH,"1035 BOSTON NECK RD, NARRAGANSETT, RI 00000"
RI,,NARRAGANSETT,2004,NARRAGANSETT PIER SCHOOL,"235 S PIER RD, NARRAGANSETT, RI 00000"
RI,,NARRAGANSETT,2005,ST. MARY'S STAR OF THE SEA CHURCH,"866 POINT JUDITH RD, NARRAGANSETT, RI 00000"
RI,,NARRAGANSETT,2006,TOWN HALL-LIMITED,"25 5TH AVE, NARRAGANSETT, RI 00000"
RI,,NEW SHOREHAM,2201,BLOCK ISLAND TOWN HALL,"16 OLD TOWN RD, NEW SHOREHAM, RI 00000"
RI,,NEW SHOREHAM,2202,BLOCK ISLAND TOWN HALL,"16 OLD TOWN RD, NEW SHOREHAM, RI 00000"
RI,,NEWPORT,2101,FENNER HALL,"15 FENNER AVE, NEWPORT, RI 00000"
RI,,NEWPORT,2102,PELL ELEMENTARY SCHOOL,"35 DEXTER ST, NEWPORT, RI 00000"
RI,,NEWPORT,2103,ST. PETER'S CHURCH (ENT. IN BACK OF BLDG.),"525 BROADWAY, NEWPORT, RI 00000"
RI,,NEWPORT,2104,ST. JOHN'S CHURCH HALL-ENTRANCE ON WILLOW ST,"61 POPLAR ST, NEWPORT, RI 00000"
RI,,NEWPORT,2105,WILLIAM J. DONOVAN MANOR,"19 CHAPEL ST, NEWPORT, RI 00000"
RI,,NEWPORT,2106,NEWPORT PUBLIC LIBRARY,"300 SPRING ST, NEWPORT, RI 00000"
RI,,NEWPORT,2107,ROGER'S HIGH SCHOOL,"15 WICKHAM RD, NEWPORT, RI 00000"
RI,,NEWPORT,2108,THOMPSON MIDDLE SCHOOL,"55 BROADWAY, NEWPORT, RI 00000"
RI,,NEWPORT,2109,NEWPORT CITY HALL LIMITED BALLOTS,"43 BROADWAY, NEWPORT, RI 00000"
RI,,NORTH KINGSTOWN,2301,N K MASONIC LODGE,"1515 TEN ROD RD, NORTH KINGSTOWN, RI 00000"
RI,,NORTH KINGSTOWN,2302,STONY LANE SCHOOL,"825 STONY LN, NORTH KINGSTOWN, RI 00000"
RI,,NORTH KINGSTOWN,2303,QUIDNESSET ELEMENTARY SCHOOL,"166 MARK DR, NORTH KINGSTOWN, RI 00000"
RI,,NORTH KINGSTOWN,2304,DAVISVILLE MIDDLE SCHOOL,"200 SCHOOL ST, NORTH KINGSTOWN, RI 00000"
RI,,NORTH KINGSTOWN,2305,SLOCUM GRANGE HALL,"86 SLOCUM RD, NORTH KINGSTOWN, RI 00000"
RI,,NORTH KINGSTOWN,2306,NORTH KINGSTOWN SENIOR HIGH SCHOOL,"150 FAIRWAY DR, NORTH KINGSTOWN, RI 00000"
RI,,NORTH KINGSTOWN,2307,COLD SPRING COMMUNITY CENTER,"36 BEACH ST, NORTH KINGSTOWN, RI 00000"
RI,,NORTH KINGSTOWN,2308,HAMILTON ELEMENTARY SCHOOL,"25 SALISBURY AVE, NORTH KINGSTOWN, RI 00000"
RI,,NORTH KINGSTOWN,2309,WICKFORD MIDDLE SCHOOL,"250 TOWER HILL RD, NORTH KINGSTOWN, RI 00000"
RI,,NORTH KINGSTOWN,2310,TOWN HALL-LIMITED,"80 BOSTON NECK RD, NORTH KINGSTOWN, RI 00000"
RI,,NORTH PROVIDENCE,2401,FRUIT HILL FIRE STATION #2,"369 FRUIT HILL AVE, NORTH PROVIDENCE, RI 00000"
RI,,NORTH PROVIDENCE,2402,LYMANSVILLE VFW POST #10011,"354 FRUIT HILL AVE, NORTH PROVIDENCE, RI 00000"
RI,,NORTH PROVIDENCE,2403,SPRING VILLA APARTMENTS,"20 MCGUIRE RD, NORTH PROVIDENCE, RI 00000"
RI,,NORTH PROVIDENCE,2404,JAMES L. MCGUIRE SCHOOL - GYM,"55 CENTRAL AVE, NORTH PROVIDENCE, RI 00000"
RI,,NORTH PROVIDENCE,2405,NORTH PROVIDENCE HIGH SCHOOL -  GYM,"1828 MINERAL SPRING AVE, NORTH PROVIDENCE, RI 00000"
RI,,NORTH PROVIDENCE,2406,DR. EDWARD RICCI SCHOOL - GYM,"55 INTERVALE AVE, NORTH PROVIDENCE, RI 00000"
RI,,NORTH PROVIDENCE,2407,GREYSTONE SCHOOL - GYM,"100 MORGAN AVE, NORTH PROVIDENCE, RI 00000"
RI,,NORTH PROVIDENCE,2408,CENTREDALE SCHOOL - GYM,"41 ANGELL AVE, NORTH PROVIDENCE, RI 00000"
RI,,NORTH PROVIDENCE,2409,CENTREDALE MANOR - COMMUNITY ROOM,"2074 SMITH ST, NORTH PROVIDENCE, RI 00000"
RI,,NORTH PROVIDENCE,2410,ST. LAWRENCE COLUMBUS CLUB,"1835 MINERAL SPRING AVE, NORTH PROVIDENCE, RI 00000"
RI,,NORTH PROVIDENCE,2411,BIRCHWOOD SCHOOL - GYM,"10 BIRCHWOOD DR, NORTH PROVIDENCE, RI 00000"
RI,,NORTH PROVIDENCE,2412,DR. JOSEPH WHELAN SCHOOL - GYM,"1440 MINERAL SPRING AVE, NORTH PROVIDENCE, RI 00000"
RI,,NORTH PROVIDENCE,2413,ST. ANTHONY'S KNIGHTS OF COLUMBUS,"1 VOLTURNO ST, NORTH PROVIDENCE, RI 00000"
RI,,NORTH PROVIDENCE,2414,STEPHEN OLNEY SCHOOL - GYM,"1378 DOUGLAS AVE, NORTH PROVIDENCE, RI 00000"
RI,,NORTH PROVIDENCE,2415,REV. I.J. BOUFFARD COUNCIL - 1ST FLOOR DINING ROOM,"15 BASSETT ST, NORTH PROVIDENCE, RI 00000"
RI,,NORTH PROVIDENCE,2416,MARIEVILLE SCHOOL - GYM,"1135 MINERAL SPRING AVE, NORTH PROVIDENCE, RI 00000"
RI,,NORTH PROVIDENCE,2417,TOWN HALL-LIMITED,"2000 SMITH ST, NORTH PROVIDENCE, RI 00000"
RI,,NORTH SMITHFIELD,2501,NORTH SMITHFIELD ELEMENTARY SCHOOL,"2214  PROVIDENCE PIKE, NORTH SMITHFIELD, RI 00000"
RI,,NORTH SMITHFIELD,2502,NORTH SMITHFIELD FIRE & RESCUE SERVICE STATION 2,"1470 PROVIDENCE PIKE, NORTH SMITHFIELD, RI 00000"
RI,,NORTH SMITHFIELD,2503,SCOUTERS HALL,"13 MAIN ST, NORTH SMITHFIELD, RI 00000"
RI,,NORTH SMITHFIELD,2504,NORTH SMITHFIELD FIRE & RESCUE SERVICE STATION 1,"675 SAINT PAUL ST, NORTH SMITHFIELD, RI 00000"
RI,,NORTH SMITHFIELD,2505,VILLA AT ST. ANTONE,"400 MENDON RD, NORTH SMITHFIELD, RI 00000"
RI,,NORTH SMITHFIELD,2506,TOWN HALL-LIMITED,"575 SMITHFIELD RD, NORTH SMITHFIELD, RI 00000"
RI,,PAWTUCKET,2601,SMITHFIELD AVENUE FIRE STATION,"287 SMITHFIELD AVE, PAWTUCKET, RI 00000"
RI,,PAWTUCKET,2602,BALDWIN SCHOOL - GYM,"50 WHITMAN ST, PAWTUCKET, RI 00000"
RI,,PAWTUCKET,2603,EUART POST - LEFT SIDE,"55 OVERLAND AVE, PAWTUCKET, RI 00000"
RI,,PAWTUCKET,2604,NAT. GREEN SCHOOL,"285 SMITHFIELD AVE, PAWTUCKET, RI 00000"
RI,,PAWTUCKET,2605,ST. GERMAIN MANOR -RIGHT SIDE,"401 MINERAL SPRING AVE, PAWTUCKET, RI 00000"
RI,,PAWTUCKET,2606,WOODLAWN BAPTIST CHURCH,"337 LONSDALE AVE, PAWTUCKET, RI 00000"
RI,,PAWTUCKET,2607,VARIEUR SCHOOL - GYM,"486 PLEASANT ST, PAWTUCKET, RI 00000"
RI,,PAWTUCKET,2608,GENEVA PLAZA,"150 DARTMOUTH ST, PAWTUCKET, RI 00000"
RI,,PAWTUCKET,2609,LEO MATTHEW SENIOR CENTER,"420 MAIN ST, PAWTUCKET, RI 00000"
RI,,PAWTUCKET,2610,WOODLAWN COMMUNITY CENTER - LEFT SIDE,"210 WEST AVE, PAWTUCKET, RI 00000"
RI,,PAWTUCKET,2611,KENNEDY HOUSING - HALL,"175 BROAD ST, PAWTUCKET, RI 00000"
RI,,PAWTUCKET,2612,CURVIN MCCABE SCHOOL,"466 COTTAGE ST, PAWTUCKET, RI 00000"
RI,,PAWTUCKET,2613,HENRY WINTERS SCHOOL,"481 BROADWAY, PAWTUCKET, RI 00000"
RI,,PAWTUCKET,2614,BURNS MANOR - HALL - LEFT SIDE,"95 PARK ST, PAWTUCKET, RI 00000"
RI,,PAWTUCKET,2615,GREEK ORTHODOX CHURCH,"97 WALCOTT ST, PAWTUCKET, RI 00000"
RI,,PAWTUCKET,2616,COTTAGE STREET FIRE STATION,"375 COTTAGE ST, PAWTUCKET, RI 00000"
RI,,PAWTUCKET,2617,PAWTUCKET PUBLIC WORKS COMPLEX,"250 ARMISTICE BLVD, PAWTUCKET, RI 00000"
RI,,PAWTUCKET,2618,CURTIS SCHOOL,"582 BENEFIT ST, PAWTUCKET, RI 00000"
RI,,PAWTUCKET,2619,GOFF JR. HIGH SCHOOL - LIBRARY,"974 NEWPORT AVE, PAWTUCKET, RI 00000"
RI,,PAWTUCKET,2620,ST CECILIA'S CHURCH,"1253 NEWPORT AVE, PAWTUCKET, RI 00000"
RI,,PAWTUCKET,2621,ST. MATTHEW'S CHURCH - # 2,"690 NEWPORT AVE, PAWTUCKET, RI 00000"
RI,,PAWTUCKET,2622,JENKS JR. HIGH SCHOOL - HALL NEAR AUDITORIUM,"250 DIVISION ST, PAWTUCKET, RI 00000"
RI,,PAWTUCKET,2623,ST. MATTHEW'S CHURCH-# 1,"690 NEWPORT AVE, PAWTUCKET, RI 00000"
RI,,PAWTUCKET,2624,SLATER PARK BOATHOUSE - LOWER LEVEL,"701 ARMISTICE BLVD, PAWTUCKET, RI 00000"
RI,,PAWTUCKET,2625,AGNES LITTLE SCHOOL,"60 S BEND ST, PAWTUCKET, RI 00000"
RI,,PAWTUCKET,2626,COLUMBUS AVENUE FIRE STATION,"2 COLUMBUS AVE, PAWTUCKET, RI 00000"
RI,,PAWTUCKET,2627,PORTUGUESE SOCIAL CLUB,"131 SCHOOL ST, PAWTUCKET, RI 00000"
RI,,PAWTUCKET,2628,ST. THERESA'S HALL - BASEMENT,"358 NEWPORT AVE, PAWTUCKET, RI 00000"
RI,,PAWTUCKET,2629,FALLON SCHOOL - GYM,"62 LINCOLN AVE, PAWTUCKET, RI 00000"
RI,,PAWTUCKET,2630,INDEPENDENCE SQUARE - GYM,"500 PROSPECT ST, PAWTUCKET, RI 00000"
RI,,PAWTUCKET,2631,WEST AVENUE FIRE STATION,"394 WEST AVE, PAWTUCKET, RI 00000"
RI,,PAWTUCKET,2632,CITY HALL-LIMITED,"137 ROOSEVELT AVE, PAWTUCKET, RI 00000"
RI,,PORTSMOUTH,2701,PRUDENCE ISLAND FIRE STATION,"115 NARRAGANSETT AVE, PORTSMOUTH, RI 00000"
RI,,PORTSMOUTH,2702,PORTSMOUTH MULTIPUPOSE SENIOR CENTER,"110 BRISTOL FERRY RD, PORTSMOUTH, RI 00000"
RI,,PORTSMOUTH,2703,CFP COMMUNITY IMPROVEMENT ASSOC. COMMUNITY HALL,"933 ANTHONY RD, PORTSMOUTH, RI 00000"
RI,,PORTSMOUTH,2704,PORTSMOUTH HIGH SCHOOL,"120 EDUCATION LN, PORTSMOUTH, RI 00000"
RI,,PORTSMOUTH,2705,MELVILLE SCHOOL CAFETERIA,"1351 W MAIN RD, PORTSMOUTH, RI 00000"
RI,,PORTSMOUTH,2706,PORTSMOUTH TOWN HALL COUNCIL CHAMBERS,"2200 E MAIN RD, PORTSMOUTH, RI 00000"
RI,,PORTSMOUTH,2707,ST. BARNABAS CHURCH PARISH HALL,"1697 E MAIN RD, PORTSMOUTH, RI 00000"
RI,,PORTSMOUTH,2708,PORTSMOUTH MIDDLE SCHOOL GYMNASIUM,"125 JEPSON LN, PORTSMOUTH, RI 00000"
RI,,PORTSMOUTH,2709,TOWN HALL-LIMITED,"2200 E MAIN RD, PORTSMOUTH, RI 00000"
RI,,PROVIDENCE,2801,CARROLL TOWERS - A LEFT,"243 SMITH ST, PROVIDENCE, RI 00000"
RI,,PROVIDENCE,2802,FOX POINT BOYS & GIRLS CLUB GYM,"550 WICKENDEN ST, PROVIDENCE, RI 00000"
RI,,PROVIDENCE,2803,HOPE HIGH SCHOOL CAFETERIA,"324 HOPE ST, PROVIDENCE, RI 00000"
RI,,PROVIDENCE,2804,SALOMON CENTER - BROWN UNIVERSITY MAIN GREEN,"75 WATERMAN ST, PROVIDENCE, RI 00000"
RI,,PROVIDENCE,2805,TEMPLE BETH EL SILVERSTEIN HALL,"70 ORCHARD AVE, PROVIDENCE, RI 00000"
RI,,PROVIDENCE,2806,FIRST UNITARIAN CHURCH OF PROVIDENCE - 2ND FLR AUDITORIUM  - A,"1 BENEVOLENT ST, PROVIDENCE, RI 00000"
RI,,PROVIDENCE,2807,FIRST UNITARIAN CHURCH OF PROVIDENCE - 2ND FLR AUDITORIUM - B,"1 BENEVOLENT ST, PROVIDENCE, RI 00000"
RI,,PROVIDENCE,2808,SALVATION ARMY - FREEDOM HALL,"201 PITMAN ST, PROVIDENCE, RI 00000"
RI,,PROVIDENCE,2809,VARTAN GREGORIAN SCHOOL - GYM - A,"421 WICKENDEN ST, PROVIDENCE, RI 00000"
RI,,PROVIDENCE,2810,VARTAN GREGORIAN SCHOOL - CAFETERIA - B,"421 WICKENDEN ST, PROVIDENCE, RI 00000"
RI,,PROVIDENCE,2811,RUDOLPH TAVARES COMMUNITY CENTER,"263 CHAD BROWN ST, PROVIDENCE, RI 00000"
RI,,PROVIDENCE,2812,CHARLES PLACE,"460 CHARLES ST, PROVIDENCE, RI 00000"
RI,,PROVIDENCE,2813,KIZIRIAN ELEMENTARY SCHOOL - A CAFETERIA REAR ENTRANCE ON DANFORTH ST OFF SMITH ST,"60 CAMDEN AVE, PROVIDENCE, RI 00000"
RI,,PROVIDENCE,2814,RI SCHOOL FOR THE DEAF,"1 CORLISS PK, PROVIDENCE, RI 00000"
RI,,PROVIDENCE,2815,LAUREL MEADE - ODEON ROOM,"355 BLACKSTONE BLVD, PROVIDENCE, RI 00000"
RI,,PROVIDENCE,2816,SUMMIT COMMONS RECREATION AND DINING ROOM,"99 HILLSIDE AVE, PROVIDENCE, RI 00000"
RI,,PROVIDENCE,2817,NATHAN BISHOP MIDDLE SCHOOL - CAFETERIA,"101 SESSIONS ST, PROVIDENCE, RI 00000"
RI,,PROVIDENCE,2818,MARTIN LUTHER KING SCHOOL,"35 CAMP ST, PROVIDENCE, RI 00000"
RI,,PROVIDENCE,2819,DAVINCI CENTER,"470 CHARLES ST, PROVIDENCE, RI 00000"
RI,,PROVIDENCE,2820,E-CUBED ACADEMY - GYM,"812 BRANCH AVE, PROVIDENCE, RI 00000"
RI,,PROVIDENCE,2821,VEAZIE STREET SCHOOL - GYM,"211 VEAZIE ST, PROVIDENCE, RI 00000"
RI,,PROVIDENCE,2822,TRINITY ACADEMY FOR THE PERFORMING ARTS - DOOR 10,"158 MESSER ST, PROVIDENCE, RI 00000"
RI,,PROVIDENCE,2823,KILMARTIN PLAZA,"160 BENEDICT ST, PROVIDENCE, RI 00000"
RI,,PROVIDENCE,2824,DR JORGE ALVAREZ SCHOOL AT ADELAIDE AVE,"375 ADELAIDE AVE, PROVIDENCE, RI 00000"
RI,,PROVIDENCE,2825,EBENEZER BAPTIST CHURCH,"475 CRANSTON ST, PROVIDENCE, RI 00000"
RI,,PROVIDENCE,2826,ALGONQUIN HOUSE,"807 BROAD ST, PROVIDENCE, RI 00000"
RI,,PROVIDENCE,2827,ELMWOOD COMMUNITY CENTER,"155 NIAGARA ST, PROVIDENCE, RI 00000"
RI,,PROVIDENCE,2828,CENTER FOR SOUTHEAST ASIANS,"270 ELMWOOD AVE, PROVIDENCE, RI 00000"
RI,,PROVIDENCE,2829,ROGER WILLIAMS PARK BOTANICAL CENTER - ROGER WILLIAMS PARK - GREENHOUSE # 3,"1000 ELMWOOD AVE, PROVIDENCE, RI 00000"
RI,,PROVIDENCE,2830,PARKIS PLACE,"9 PARKIS AVE, PROVIDENCE, RI 00000"
RI,,PROVIDENCE,2831,JUANITA SANCHEZ COMPLEX,"182 THURBERS AVE, PROVIDENCE, RI 00000"
RI,,PROVIDENCE,2832,WASHINGTON PARK COMMUNITY CENTER - A,"42 JILLSON ST, PROVIDENCE, RI 00000"
RI,,PROVIDENCE,2833,THE MET - FITNESS CENTER,"325 PUBLIC ST, PROVIDENCE, RI 00000"
RI,,PROVIDENCE,2834,WASHINGTON PARK COMMUNITY CENTER - B,"42 JILLSON ST, PROVIDENCE, RI 00000"
RI,,PROVIDENCE,2835,CARROLL TOWERS - B,"243 SMITH ST, PROVIDENCE, RI 00000"
RI,,PROVIDENCE,2836,SAINT SAHAG & MESROB - A,"70 JEFFERSON ST, PROVIDENCE, RI 00000"
RI,,PROVIDENCE,2837,SAINT SAHAG & MESROB - B,"70 JEFFERSON ST, PROVIDENCE, RI 00000"
RI,,PROVIDENCE,2838,UNIVERSITY OF RHODE ISLAND - PAFF AUDITORIUM,"80 WASHINGTON ST, PROVIDENCE, RI 00000"
RI,,PROVIDENCE,2839,DEXTER MANOR,"100 BROAD ST, PROVIDENCE, RI 00000"
RI,,PROVIDENCE,2840,ST ELIZABETH'S PLACE,"700 WESTMINSTER ST, PROVIDENCE, RI 00000"
RI,,PROVIDENCE,2841,KIZIRIAN ELEMENTARY SCHOOL - B,"60 CAMDEN AVE, PROVIDENCE, RI 00000"
RI,,PROVIDENCE,2842,NATHANAEL GREENE SCHOOL - ENTRANCE ON HIGGINS AVE-A- GYM,"721 CHALKSTONE AVE, PROVIDENCE, RI 00000"
RI,,PROVIDENCE,2843,ST PIUS CHURCH BASEMENT,"55 ELMHURST AVE, PROVIDENCE, RI 00000"
RI,,PROVIDENCE,2844,"PROV COLLEGE, SCHNEIDER ARENA","1 HUXLEY AVE, PROVIDENCE, RI 00000"
RI,,PROVIDENCE,2845,LASALLE ACADEMY FIELD HOUSE,"612 ACADEMY AVE, PROVIDENCE, RI 00000"
RI,,PROVIDENCE,2846,"KENNEDY SCHOOL ,ROOM 113, ENTRANCE AT MODULAR SCHOOL","195 NELSON ST, PROVIDENCE, RI 00000"
RI,,PROVIDENCE,2847,MANTON MANAGEMENT,"31 SALMON ST, PROVIDENCE, RI 00000"
RI,,PROVIDENCE,2848,F.O.P,"40 SHERIDAN ST, PROVIDENCE, RI 00000"
RI,,PROVIDENCE,2849,MT PLEASANT HIGH SCHOOL,"434 MOUNT PLEASANT AVE, PROVIDENCE, RI 00000"
RI,,PROVIDENCE,2850,PLEASANT VIEW SCHOOL,"50 OBEDIAH BROWN RD, PROVIDENCE, RI 00000"
RI,,PROVIDENCE,2851,CAPITOL RIDGE,"700 SMITH ST, PROVIDENCE, RI 00000"
RI,,PROVIDENCE,2852,"GEORGE J WEST SCHOOL, ENTRANCE ON ROANOKE - ROOM M4 - A","145 BEAUFORT ST, PROVIDENCE, RI 00000"
RI,,PROVIDENCE,2853,NATHANAEL GREENE SCHOOL- ENTRANCE ON HIGGINS AVE -B - GYM,"721 CHALKSTONE AVE, PROVIDENCE, RI 00000"
RI,,PROVIDENCE,2854,PROVIDENCE WATER SUPPLY BOARD,"552 ACADEMY AVE, PROVIDENCE, RI 00000"
RI,,PROVIDENCE,2855,GEORGE J WEST SCHOOL - ENTRANCE ON ROANOKE - CAFETERIA - C,"145 BEAUFORT ST, PROVIDENCE, RI 00000"
RI,,PROVIDENCE,2856,PROVIDENCE LIFE CENTER - A,"11 TURNER ST, PROVIDENCE, RI 00000"
RI,,PROVIDENCE,2857,"GEORGE J WEST SCHOOL, ENTRANCE ON ROANOKE - ROOM M3 - B","145 BEAUFORT ST, PROVIDENCE, RI 00000"
RI,,PROVIDENCE,2858,PROVIDENCE LIFE CENTER - B,"11 TURNER ST, PROVIDENCE, RI 00000"
RI,,PROVIDENCE,2859,THE STEEL YARD - STUDIO,"27 SIMS AVE, PROVIDENCE, RI 00000"
RI,,PROVIDENCE,2860,JOSLIN RECREATION CENTER,"17 HYAT ST, PROVIDENCE, RI 00000"
RI,,PROVIDENCE,2861,PARENTI VILLA,"25 TOBEY ST, PROVIDENCE, RI 00000"
RI,,PROVIDENCE,2862,DOMINICA MANOR,"100 ATWELLS AVE, PROVIDENCE, RI 00000"
RI,,PROVIDENCE,2863,VALLEY APARTMENTS,"1 VALLEY ST, PROVIDENCE, RI 00000"
RI,,PROVIDENCE,2864,MARVIN GARDENS - A,"21 MARVIN ST, PROVIDENCE, RI 00000"
RI,,PROVIDENCE,2865,HARTFORD PARK HIGHRISE,"335 HARTFORD AVE, PROVIDENCE, RI 00000"
RI,,PROVIDENCE,2866,AARON BRIGGS APARTMENTS,"301 CRANSTON ST, PROVIDENCE, RI 00000"
RI,,PROVIDENCE,2867,WILLIAM D'ABATE SCHOOL - CAFETERIA,"60 KOSSUTH ST, PROVIDENCE, RI 00000"
RI,,PROVIDENCE,2868,ST MARTIN DEPORRES,"160 CRANSTON ST, PROVIDENCE, RI 00000"
RI,,PROVIDENCE,2869,BOYS & GIRLS CLUB - HARTFORD PARK,"50 LAUREL HILL AVE, PROVIDENCE, RI 00000"
RI,,PROVIDENCE,2870,POCASSET MANOR ASSOC,"20 KELLEY ST, PROVIDENCE, RI 00000"
RI,,PROVIDENCE,2871,CASINO-ROGER WILLIAMS PARK,"1000 ELMWOOD AVE, PROVIDENCE, RI 00000"
RI,,PROVIDENCE,2872,ROGER WILLIAMS PARK BOTANICAL CENTER - BLOCK HOUSE CLASSROOM,"1000 ELMWOOD AVE, PROVIDENCE, RI 00000"
RI,,PROVIDENCE,2873,MARVIN GARDENS - B,"21 MARVIN ST, PROVIDENCE, RI 00000"
RI,,PROVIDENCE,2874,ANTHONY CARNEVALE SCHOOL,"50 SPRINGFIELD ST, PROVIDENCE, RI 00000"
RI,,PROVIDENCE,2875,NEUTACONKANUT RECREATION CENTER,"675 PLAINFIELD ST, PROVIDENCE, RI 00000"
RI,,PROVIDENCE,2876,WEBSTER AVENUE SCHOOL - A - GYM,"191 WEBSTER AVE, PROVIDENCE, RI 00000"
RI,,PROVIDENCE,2877,ROSARIO HALL,"17 ROSARIO DR, PROVIDENCE, RI 00000"
RI,,PROVIDENCE,2878,WEBSTER AVENUE SCHOOL - B - ROOM 108,"191 WEBSTER AVE, PROVIDENCE, RI 00000"
RI,,PROVIDENCE,2879,MARY FOGARTY SCHOOL - GYM,"199 OXFORD ST, PROVIDENCE, RI 00000"
RI,,PROVIDENCE,2880,CHURCH OF THE REDEEMER - ENTRANCE ON SAVOY ST,"655 HOPE ST, PROVIDENCE, RI 00000"
RI,,PROVIDENCE,2881,CITY HALL - LIMITED DIST. 1,"25 DORRANCE ST, PROVIDENCE, RI 00000"
RI,,PROVIDENCE,2882,CITY HALL - LIMITED DIST. 2,"25 DORRANCE ST, PROVIDENCE, RI 00000"
RI,,RICHMOND,2901,RICHMOND ELEMENTARY SCHOOL,"190 KINGSTOWN RD, RICHMOND, RI 00000"
RI,,RICHMOND,2902,CHARIHO MIDDLE SCHOOL - GYM,"455 SWITCH RD, RICHMOND, RI 00000"
RI,,RICHMOND,2903,TOWN HALL-LIMITED,"5 RICHMOND TOWNHOUSE RD, RICHMOND, RI 00000"
RI,,SCITUATE,3001,SCITUATE HIGH SCHOOL - GYM,"94 TRIMTOWN RD, SCITUATE, RI 00000"
RI,,SCITUATE,3002,HOPE ELEMENTARY SCHOOL,"391 NORTH RD, SCITUATE, RI 00000"
RI,,SCITUATE,3003,CHOPMIST HILL COMMUNITY CENTER,"1315 CHOPMIST HILL RD, SCITUATE, RI 00000"
RI,,SCITUATE,3004,TOWN HALL-LIMITED,"195 DANIELSON PIKE, SCITUATE, RI 00000"
RI,,SMITHFIELD,3101,RAYMOND C. LAPERCHE SCHOOL -CAFETERIA-RIGHT SIDE,"11 LIMEROCK RD, SMITHFIELD, RI 00000"
RI,,SMITHFIELD,3102,OLD COUNTY ROAD ELEMENTARY SCHOOL-GYM-RIGHT SIDE,"200 OLD COUNTY RD, SMITHFIELD, RI 00000"
RI,,SMITHFIELD,3103,ANNA MCCABE SCHOOL - CAFETERIA - LEFT SIDE,"100 PLEASANT VIEW AVE, SMITHFIELD, RI 00000"
RI,,SMITHFIELD,3104,GALLAGHER JR. HIGH SCHOOL - CAFETERIA,"10 INDIAN RUN TRL, SMITHFIELD, RI 00000"
RI,,SMITHFIELD,3105,SMITHFIELD SENIOR HIGH SCHOOL - GYM - LEFT SIDE,"90 PLEASANT VIEW AVE, SMITHFIELD, RI 00000"
RI,,SMITHFIELD,3106,ELK'S LODGE #2359,"326 FARNUM PIKE, SMITHFIELD, RI 00000"
RI,,SMITHFIELD,3107,SMITHFIELD TOWN HALL LIMITED BALLOT,"64 FARNUM PIKE, SMITHFIELD, RI 00000"
RI,,SOUTH KINGSTOWN,3201,PUBLIC SAFETY COMPLEX CONFERENCE ROOM,"1791 KINGSTOWN RD, SOUTH KINGSTOWN, RI 00000"
RI,,SOUTH KINGSTOWN,3202,BROAD ROCK MIDDLE SCHOOL,"351 BROAD ROCK RD, SOUTH KINGSTOWN, RI 00000"
RI,,SOUTH KINGSTOWN,3203,CURTIS CORNER MIDDLE SCHOOL,"301 CURTIS CORNER RD, SOUTH KINGSTOWN, RI 00000"
RI,,SOUTH KINGSTOWN,3204,SOUTH KINGSTOWN HIGH SCHOOL,"215 COLUMBIA ST, SOUTH KINGSTOWN, RI 00000"
RI,,SOUTH KINGSTOWN,3205,WAKEFIELD ELEMENTARY SCHOOL,"101 HIGH ST, SOUTH KINGSTOWN, RI 00000"
RI,,SOUTH KINGSTOWN,3206,BRADFORD R. BOSS ARENA,"1 KEANEY RD, SOUTH KINGSTOWN, RI 00000"
RI,,SOUTH KINGSTOWN,3207,WEST KINGSTON ELEMENTARY SCHOOL,"3119 MINISTERIAL RD, SOUTH KINGSTOWN, RI 00000"
RI,,SOUTH KINGSTOWN,3208,NEW LIFE ASSEMBLY,"251 POST RD, SOUTH KINGSTOWN, RI 00000"
RI,,SOUTH KINGSTOWN,3209,MATUNUCK ELEMENTARY SCHOOL CAFETERIA,"380 MATUNUCK BEACH RD, SOUTH KINGSTOWN, RI 00000"
RI,,SOUTH KINGSTOWN,3210,MATUNUCK ELEMENTARY SCHOOL ALL-PURPOSE ROOM,"380 MATUNUCK BEACH RD, SOUTH KINGSTOWN, RI 00000"
RI,,SOUTH KINGSTOWN,3211,TOWN HALL-LIMITED,"180 HIGH ST, SOUTH KINGSTOWN, RI 00000"
RI,,TIVERTON,3301,POCASSETT SCHOOL - GYM,"242 MAIN RD, TIVERTON, RI 00000"
RI,,TIVERTON,3302,VFW,"134 SHOVE ST, TIVERTON, RI 00000"
RI,,TIVERTON,3303,COUNTRYVIEW ESTATES-COMMUNITY ROOM,"325 HURST LN, TIVERTON, RI 00000"
RI,,TIVERTON,3304,RANGER SCHOOL-CAFETERIA,"278 N BRAYTON RD, TIVERTON, RI 00000"
RI,,TIVERTON,3305,SANDYWOOD FARMS COMMUNITY CENTER,"43 MUSE WAY, TIVERTON, RI 00000"
RI,,TIVERTON,3306,TIVERTON HIGH SCHOOL-GYM,"100 N BRAYTON RD, TIVERTON, RI 00000"
RI,,TIVERTON,3307,AMICABLE CONGREGATIONAL CHURCH,"3736 MAIN RD, TIVERTON, RI 00000"
RI,,TIVERTON,3308,TOWN HALL-LIMITED,"343 HIGHLAND RD, TIVERTON, RI 00000"
RI,,WARREN,3401,KICKEMUIT VILLAGE,"20 LIBBY LN, WARREN, RI 00000"
RI,,WARREN,3402,KICKEMUIT MIDDLE SCHOOL,"525 CHILD ST, WARREN, RI 00000"
RI,,WARREN,3403,ST.MARY'S OF THE BAY,"645 MAIN ST, WARREN, RI 00000"
RI,,WARREN,3404,TOWN HALL-LIMITED,"514 MAIN ST, WARREN, RI 00000"
RI,,WARWICK,3501,WYMAN SCHOOL - GYM,"1 COLUMBIA AVE, WARWICK, RI 00000"
RI,,WARWICK,3502,JOHN BROWN FRANCIS SCHOOL - ALL PURPOSE ROOM,"325 MIANTONOMO DR, WARWICK, RI 00000"
RI,,WARWICK,3503,HOLLIMAN SCHOOL - ALL PURPOSE ROOM,"70 DEBORAH RD, WARWICK, RI 00000"
RI,,WARWICK,3504,ASPRAY BOAT HOUSE,"2 E VIEW ST, WARWICK, RI 00000"
RI,,WARWICK,3505,ALDRICH JR. HIGH SCHOOL,"789 POST RD, WARWICK, RI 00000"
RI,,WARWICK,3506,GREENWOOD VOLUNTEER FIRE COMPANY,"45 KERNICK ST, WARWICK, RI 00000"
RI,,WARWICK,3507,ST. BARNABUS PARISH HALL,"3257 POST RD, WARWICK, RI 00000"
RI,,WARWICK,3508,NORWOOD SCHOOL - CAFETERIA,"268 NORWOOD AVE, WARWICK, RI 00000"
RI,,WARWICK,3509,GREENWOOD PRESBYTERIAN CHURCH RIGHT SIDE,"805 MAIN AVE, WARWICK, RI 00000"
RI,,WARWICK,3510,GREENWOOD SCHOOL - MULTI PURPOSE ROOM,"93 SHARON ST, WARWICK, RI 00000"
RI,,WARWICK,3511,SHALOM APARTMENTS,"1 SHALOM DR, WARWICK, RI 00000"
RI,,WARWICK,3512,PILGRIM SENIOR CENTER - ARTS/CRAFTS,"27 PILGRIM PKWY, WARWICK, RI 00000"
RI,,WARWICK,3513,RI NATIONAL GUARD ARMORY,"541 AIRPORT RD, WARWICK, RI 00000"
RI,,WARWICK,3514,RANDALL HOLDEN SCHOOL - ALL PURPOSE ROOM,"61 HOXSIE AVE, WARWICK, RI 00000"
RI,,WARWICK,3515,WILLIAM SHIELDS POST,"622 W SHORE RD, WARWICK, RI 00000"
RI,,WARWICK,3516,COTTRELL HOXSIE SCHOOL - AUDITORIUM,"55 GLENWOOD DR, WARWICK, RI 00000"
RI,,WARWICK,3517,WARREN SHERMAN SCHOOL - ALL PURPOSE ROOM,"120 KILLEY AVE, WARWICK, RI 00000"
RI,,WARWICK,3518,HERITAGE CHRISTIAN FELLOWSHIP,"358 WARWICK NECK AVE, WARWICK, RI 00000"
RI,,WARWICK,3519,WARWICK NECK SCHOOL,"150 LENNOX AVE, WARWICK, RI 00000"
RI,,WARWICK,3520,OAKLAND BEACH SCHOOL,"383 OAKLAND BEACH AVE, WARWICK, RI 00000"
RI,,WARWICK,3521,LIPPITT SCHOOL - MULTI PURPOSE ROOM,"20 ALMY ST, WARWICK, RI 00000"
RI,,WARWICK,3522,VETERANS MEMORIAL HIGH SCHOOL - GIRLS GYM,"2401 W SHORE RD, WARWICK, RI 00000"
RI,,WARWICK,3523,PARK SCHOOL - MULTI PURPOSE ROOM,"40 ASYLUM RD, WARWICK, RI 00000"
RI,,WARWICK,3524,BUTTONWOODS SENIOR CENTER,"3027 W SHORE RD, WARWICK, RI 00000"
RI,,WARWICK,3525,ROBERTSON SCHOOL - GYM,"70 NAUSAUKET RD, WARWICK, RI 00000"
RI,,WARWICK,3526,CEDAR HILL SCHOOL - LIBRARY,"35 RED CHIMNEY DR, WARWICK, RI 00000"
RI,,WARWICK,3527,POTOWOMUT GOLF CLUB,"439 IVES RD, WARWICK, RI 00000"
RI,,WARWICK,3528,WARWICK POLICE DEPARTMENT - COMMUNITY ROOM,"99 VETERANS MEMORIAL DR, WARWICK, RI 00000"
RI,,WARWICK,3529,SPARROW POINT III - COMMUNITY ROOM,"355 HARDIG RD, WARWICK, RI 00000"
RI,,WARWICK,3530,FIRST BAPTIST CHURCH,"550 COWESETT RD, WARWICK, RI 00000"
RI,,WARWICK,3531,SAINT GREGORY'S CHURCH,"360 COWESETT RD, WARWICK, RI 00000"
RI,,WARWICK,3532,EAST NATICK VETS CLUB - UPPER LEVEL MEETING ROOM,"17 BAKER ST, WARWICK, RI 00000"
RI,,WARWICK,3533,SCOTT SCHOOL - ALL PURPOSE ROOM,"833 CENTERVILLE RD, WARWICK, RI 00000"
RI,,WARWICK,3534,WARWICK CITY HALL LIMITED,"3275 POST RD, WARWICK, RI 00000"
RI,,WEST GREENWICH,3701,HIANLOLAND FIRE COMPANY,"270 VICTORY HWY, WEST GREENWICH, RI 00000"
RI,,WEST GREENWICH,3702,COVENTRY-WEST GREENWICH ELKS LODGE 2285 UPPER LEVEL,"42 NOOSENECK HILL RD, WEST GREENWICH, RI 00000"
RI,,WEST GREENWICH,3703,ELSIE OLTEDALE COMMUNITY CENTER,"274 VICTORY HWY, WEST GREENWICH, RI 00000"
RI,,WEST GREENWICH,3704,EXETER-WEST GREENWICH JR/SR HIGH SCHOOL- JR HI GYMNASIUM,"930 NOOSENECK HILL RD, WEST GREENWICH, RI 00000"
RI,,WEST GREENWICH,3705,TOWN HALL-LIMITED,"280 VICTORY HWY, WEST GREENWICH, RI 00000"
RI,,WEST WARWICK,3801,CLYDE TOWERS,"1021 MAIN ST, WEST WARWICK, RI 00000"
RI,,WEST WARWICK,3802,WEST WARWICK MANOR,"62 ROBERTS ST, WEST WARWICK, RI 00000"
RI,,WEST WARWICK,3803,MAISIE QUINN SCHOOL,"1 BROWN ST, WEST WARWICK, RI 00000"
RI,,WEST WARWICK,3804,WAKEFIELD HILLS SCHOOL,"505 WAKEFIELD ST, WEST WARWICK, RI 00000"
RI,,WEST WARWICK,3805,HOLY GHOST SOCIETY,"11 VENTURA ST, WEST WARWICK, RI 00000"
RI,,WEST WARWICK,3806,MSGR. DEANGELIS MANOR II,"845 WAKEFIELD ST, WEST WARWICK, RI 00000"
RI,,WEST WARWICK,3807,THE VILLA,"272 COWESETT AVE, WEST WARWICK, RI 00000"
RI,,WEST WARWICK,3808,GREENBUSH SCHOOL,"127 GREENBUSH RD, WEST WARWICK, RI 00000"
RI,,WEST WARWICK,3809,CARDI'S FURNITURE,"1681 QUAKER LN, WEST WARWICK, RI 00000"
RI,,WEST WARWICK,3810,CHRIST THE KING CHURCH,"120 LEGRIS AVE, WEST WARWICK, RI 00000"
RI,,WEST WARWICK,3811,TOWN HALL-LIMITED,"1170 MAIN ST, WEST WARWICK, RI 00000"
RI,,WESTERLY,3601,BRADFORD CITIZENS CLUB,"124 WOODY HILL RD, WESTERLY, RI 00000"
RI,,WESTERLY,3602,WESTERLY HIGH SCHOOL - GYMNASIUM,"23 WARD AVE, WESTERLY, RI 00000"
RI,,WESTERLY,3603,STATE STREET SCHOOL,"35 STATE ST, WESTERLY, RI 00000"
RI,,WESTERLY,3604,VENICE RESTAURANT,"165 SHORE RD, WESTERLY, RI 00000"
RI,,WESTERLY,3605,WESTERLY MIDDLE SCHOOL - CAFETERIA,"10 SANDY HILL RD, WESTERLY, RI 00000"
RI,,WESTERLY,3606,SPRINGBROOK ELEMENTARY SCHOOL - GYMNASIUM,"43 SPRINGBROOK RD, WESTERLY, RI 00000"
RI,,WESTERLY,3607,BRADFORD SCHOOL - GYM,"15 CHURCH ST, WESTERLY, RI 00000"
RI,,WESTERLY,3608,TOWN HALL-LIMITED,"45 BROAD ST, WESTERLY, RI 00000"
RI,,WWONSOCKET,3901,MIDDLE SCHOOL AT HAMLET,"60 FLORENCE DR, WWONSOCKET, RI 00000"
RI,,WWONSOCKET,3902,JOHN F. KENNEDY MANOR,"547 CLINTON ST, WWONSOCKET, RI 00000"
RI,,WWONSOCKET,3903,PARK VIEW MANOR,"218 POND ST, WWONSOCKET, RI 00000"
RI,,WWONSOCKET,3904,FAIRMONT HEIGHTS,"525 2ND AVE, WWONSOCKET, RI 00000"
RI,,WWONSOCKET,3905,CREPEAU COURT,"100 FRONT ST, WWONSOCKET, RI 00000"
RI,,WWONSOCKET,3906,GLOBE PARK ELEMENTARY SCHOOL,"192 AVENUE A, WWONSOCKET, RI 00000"
RI,,WWONSOCKET,3907,OUR LADY QUEEN OF MARTYRS - SCHOOL HALL,"1371 PARK AVE, WWONSOCKET, RI 00000"
RI,,WWONSOCKET,3908,BERNON HEIGHTS ELEMENTARY SCHOOL,"657 LOGEE ST, WWONSOCKET, RI 00000"
RI,,WWONSOCKET,3909,LEO A. SAVOIE SCHOOL-CAFETERIA,"990 MENDON RD, WWONSOCKET, RI 00000"
RI,,WWONSOCKET,3910,WOONSOCKET SENIOR HIGH SCHOOL,"777 CASS AVE, WWONSOCKET, RI 00000"
RI,,WWONSOCKET,3911,GOVERNOR POTHIER SCHOOL,"420 ROBINSON ST, WWONSOCKET, RI 00000"
RI,,WWONSOCKET,3912,HARRIS ELEMENTARY SCHOOL,"60 HIGH SCHOOL ST, WWONSOCKET, RI 00000"
RI,,WWONSOCKET,3913,CITY HALL-LIMITED,"169 MAIN ST, WWONSOCKET, RI 00000"
