state,jurisdiction_type,county_name,municipality,precinct_id,name,address
ME,county,Piscataquis,ABBOT ,1-1,Abbot Town Hall ,"133 Main Road, Abbot "
ME,county,York,ACTON,1-1,Acton Town Hall ,"35 H Road, Acton "
ME,county,Washington,ADDISON,1-1,Addison Town Hall ,"334 Water Street, Addison "
ME,county,Oxford,ALBANY TWP ,1-1,Albany Twp. Town House,"1581 Hunts Corner Road, Albany Twp "
ME,county,Kennebec,ALBION,1-1,Besse Building ,"22 Main Street, Albion "
ME,county,Washington,ALEXANDER,1-1,Alexander Municipal Building ,"50 Cooper Road, Alexander "
ME,county,York,ALFRED,All,Conant Chapel ,"8 Kennebunk Road, Alfred "
ME,county,Aroostook,ALLAGASH,1-1,Allagash Community Center,"1063 Allagash Road, Allagash"
ME,county,Lincoln,ALNA,1-1,Alna Fire Station,"1579 Alna Road, Alna "
ME,county,Penobscot,ALTON,1-1,Alton Municipal Building ,"3352 Bennoch Road, Alton "
ME,county,Hancock,AMHERST,1-1,Amherst Town Hall ,"572 Airline Road, Amherst "
ME,county,Aroostook,AMITY,1-1,Amity Town Office ,"1143 US Route 1, Amity "
ME,county,Oxford,ANDOVER,1-1,Andover Town Hall ,"24 Elm Street, Andover "
ME,county,Somerset,ANSON,1-1,Anson Town Hall ,"62 Main Street, Anson "
ME,county,Knox,APPLETON,1-1,Appleton Town Hall ,"2915 Sennebec Road, Appleton "
ME,county,Sagadahoc,ARROWSIC,1-1,Arrowsic Town Hall ,"340 Arrowsic Road, Arrowsic "
ME,county,York,ARUNDEL,1-1,Arundel Fire Station ,"468 Limerick Road, Arundel "
ME,county,Aroostook,ASHLAND,1-1,Ashland Municipal Building,"17 Bridgham Street, Ashland "
ME,county,Somerset,ATHENS,1-1,Somerset Academy Building,"26 Academy Street, Athens"
ME,county,Piscataquis,ATKINSON ,1-1,Atkinson Town Hall ,"102 No. Stagecoach Road, Atkinson "
ME,county,Androscoggin,AUBURN,1-1,Washburn School ,"35 Lake Auburn Avenue, Auburn "
ME,county,Androscoggin,AUBURN,2-1,Auburn Middle School ,"38 Falcon Drive, Auburn "
ME,county,Androscoggin,AUBURN,3-1,Auburn Hall ,"60 Court Street, Auburn "
ME,county,Androscoggin,AUBURN,4-1,Fairview School ,"397 Minot Avenue, Auburn "
ME,county,Androscoggin,AUBURN,5-1,Sherwood Heights School ,"32 Sherwood Drive, Auburn "
ME,county,Kennebec,AUGUSTA,1-1,Augusta Armory,"179 Western Avenue, Augusta "
ME,county,Kennebec,AUGUSTA,2-1,Augusta City Center,"16 Cony Street, Augusta "
ME,county,Kennebec,AUGUSTA,3-1,Augusta Civic Center,"76 Community Drive, Augusta "
ME,county,Kennebec,AUGUSTA,4-1,Cony High School,"60 Pierce Drive, Augusta "
ME,county,Hancock,AURORA,1-1,Aurora Town Hall ,"Old Route 9, Aurora "
ME,county,Franklin,AVON,1-1,Avon Municipal Building ,"1116 Rangeley Road, Avon "
ME,county,Washington,BAILEYVILLE,1-1,F. Doug Jones Memorial Municipal Building ,"63 Broadway Street, Baileyville "
ME,county,Cumberland,BALDWIN,1-1,Baldwin Consolidated School ,"536 Pequawket Trail, West Baldwin "
ME,county,Aroostook,BANCROFT ,1-1,Bancroft Town Office ,"18 Schoolhouse Road, Bancroft "
ME,county,Penobscot,BANGOR,All,Cross Insurance Center Arena,"515 Main Street, Bangor "
ME,county,Hancock,BAR HARBOR,1-1,Municipal Building Auditorium ,"93 Cottage Street, Bar Harbor "
ME,county,Washington,BARING PLT,1-1,Baring Baptist Church ,"47 Front Street, Baring Plt "
ME,county,Sagadahoc,BATH,All,Bath Middle School ,"6 Old Brunswick Road, Bath "
ME,county,Washington,BEALS ,1-1,Beals Town Office ,"11 Big Pond Road, Beals "
ME,county,Piscataquis,BEAVER COVE,1-1,Beaver Cove Town Office,"795 Lily Bay Road, Beaver Cove"
ME,county,Washington,BEDDINGTON,1-1,Beddington Community Building ,"1982 State Highway 193, Beddington "
ME,county,Waldo,BELFAST,"1-1, 2-1, 3-1, 4-1",Belfast Boathouse ,"34 Commercial Street, Belfast "
ME,county,Waldo,BELFAST,5-1,United Methodist Church ,"23 Mill Lane, Belfast "
ME,county,Kennebec,BELGRADE,1-1,Center For All Seasons ,"1 Center Drive, Belgrade "
ME,county,Waldo,BELMONT,1-1,Belmont Community Building ,"613 Back Belmont Road, Belmont "
ME,county,Aroostook,BENEDICTA TWP (with Sherman),1-1,Sherman Town Office ,"36 School Street, Sherman"
ME,county,Kennebec,BENTON,All,Benton Town Office ,"1279 Clinton Avenue, Benton "
ME,county,York,BERWICK,All,Berwick Town Hall ,"11 Sullivan Square, Berwick "
ME,county,Oxford,BETHEL,1-1,Crescent Park School Gymnasium,"19 Crescent Lane, Bethel "
ME,county,York,BIDDEFORD,All,Tiger Gym Biddeford High School,"10-20 Maplewood Avenue, Biddeford "
ME,county,Washington,BIG LAKE TWP (with Princeton),1-1,Princeton Town Office ,"15 Depot Street, Princeton "
ME,county,Somerset,BINGHAM,1-1,Quimby Middle School Gymnasium ,"263 Main Street, Bingham "
ME,county,Aroostook,BLAINE,1-1,Blaine Town Office ,"52 Military Road, Blaine "
ME,county,Hancock,BLUE HILL,1-1,Blue Hill Town Hall ,"18 Union Street, Blue Hill "
ME,county,Lincoln,BOOTHBAY ,1-1,Boothbay Town Office ,"1011 Wiscasset Road, Boothbay "
ME,county,Lincoln,BOOTHBAY HARBOR,1-1,Boothbay Harbor Municipal Building,"11 Howard Street, Boothbay Harbor "
ME,county,Sagadahoc,BOWDOIN ,1-1,Bowdoin Central School ,"1460 Main Street, Bowdoin "
ME,county,Sagadahoc,BOWDOINHAM,1-1,Bowdoinham Town Hall ,"13 School Street, Bowdoinham "
ME,county,Piscataquis,BOWERBANK ,1-1,Bowerbank Fire Station,"650 Bowerbank Road, Bowerbank"
ME,county,Penobscot,BRADFORD,1-1,Bradford Town Office ,"345 East Road, Bradford"
ME,county,Penobscot,BRADLEY,1-1,Bradley Municipal Building ,"165B Main Street, Bradley "
ME,county,Lincoln,BREMEN,1-1,Bremen Town Center ,"208 Waldoboro Road, Bremen "
ME,county,Penobscot,BREWER,All,Brewer Auditorium ,"203 State Street, Brewer "
ME,county,Aroostook,BRIDGEWATER,1-1,Bridgewater Town Office ,"11 Bootfoot Road, Bridgewater "
ME,county,Cumberland,BRIDGTON,1-1,Bridgton Town Hall ,"26 North High Street, Bridgton "
ME,county,Somerset,BRIGHTON PLT ,1-1,Brighton Town Office,"Stagecoach Road, Brighton Plt"
ME,county,Lincoln,BRISTOL,1-1,Bristol Town Hall,"1268 Bristol Road, Bristol"
ME,county,Hancock,BROOKLIN,1-1,Brooklin Town Office ,"23 Bay Road, Brooklin "
ME,county,Waldo,BROOKS,1-1,Brooks Fire House,"19 Purple Heart Highway, Brooks "
ME,county,Hancock,BROOKSVILLE,1-1,Brooksville Municipal Building,"1 Townhouse Road, Brooksville "
ME,county,Washington,BROOKTON TWP (with Danforth),1-1,Danforth Town Hall ,"52 Depot Street, Brookton Twp w/ Danforth"
ME,county,Oxford,BROWNFIELD ,1-1,Brownfield Municipal Building ,"82 Main Street, Brownfield "
ME,county,Piscataquis,BROWNVILLE,1-1,Brownville Elementary School ,"774 Main Road, Brownville "
ME,county,Cumberland,BRUNSWICK,All,Brunswick Junior High School,"65 Columbia Avenue, Brunswick "
ME,county,Oxford,BUCKFIELD,1-1,Buckfield Municipal Center ,"34 Turner Street, Buckfield "
ME,county,Hancock,BUCKSPORT,1-1,G. H. Jewett School Gymnasium,"66 Bridge Street, Bucksport "
ME,county,Penobscot,BURLINGTON,1-1,Burlington Municipal Building ,"1523 Long Ridge Road, Burlington "
ME,county,Waldo,BURNHAM,1-1,Reynolds Corner Municipal Building,"247 South Horseback Road, Burnham"
ME,county,York,BUXTON,All,Buxton Municipal Complex/Town Hall ,"185 Portland Road, Buxton "
ME,county,Oxford,BYRON,1-1,Byron Town Hall ,"1 Byron Village Road, Byron "
ME,county,Washington,CALAIS,1-1,Calais Elementary School,"53 Garfield Street, Calais "
ME,county,Somerset,CAMBRIDGE,1-1,Cambridge Municipal Building ,"202 Ripley Road, Cambridge "
ME,county,Knox,CAMDEN,1-1,Camden Public Safety Building ,"31 Washington Street, Camden "
ME,county,Somerset,CANAAN,1-1,Canaan Town Office ,"277 Main Street, Canaan "
ME,county,Oxford,CANTON,1-1,Canton Town Office,"9 Staples Hill Road, Canton"
ME,county,Cumberland,CAPE ELIZABETH,All,Cape Elizabeth High School Gymnasium,"Ocean House Road, Cape Elizabeth "
ME,county,Somerset,CARATUNK,1-1,Caratunk Town Office ,"11 School Street, Caratunk "
ME,county,Aroostook,CARIBOU,1-1,Caribou Wellness & Recreation Center ,"55 Bennett Drive, Caribou "
ME,county,Penobscot,CARMEL ,1-1,Golden Harvest Grange Hall,"928 Main Road, Carmel"
ME,county,Franklin,CARRABASSETT VALLEY,1-1,Carrabassett Valley Town Office ,"1001 Carriage Road, Carrabassett Valley "
ME,county,Penobscot,CARROLL PLT ,1-1,Carroll Plantation Office ,"644 Brown Road, Carroll Plt "
ME,county,Franklin,CARTHAGE,1-1,Carthage Town Office ,"703A Carthage Road, Carthage "
ME,county,Aroostook,CARY PLT  ,1-1,Town Clerk's Office,"1846 US Highway 1, Cary Plantation"
ME,county,Cumberland,CASCO ,All,Casco Community Center,"940 Meadow Road, Casco "
ME,county,Hancock,CASTINE,1-1,Emerson Hall ,"67 Court Street, Castine "
ME,county,Aroostook,CASTLE HILL,1-1,Castle Hill Grange Hall ,"1953 State Road, Castle Hill "
ME,county,Aroostook,CASWELL,1-1,Dawn F. Barnes Elementary ,"1025 Van Buren Road, Caswell "
ME,county,Aroostook,CHAPMAN,1-1,Chapman Ridge Runners Snowmobile Club,"94 Town Hall Road, Chapman"
ME,county,Penobscot,CHARLESTON,1-1,Charleston Community Center ,"125 School Road, Charleston "
ME,county,Washington,CHARLOTTE,1-1,Charlotte Town Hall,"1092 Ayers Junction Road, Charlotte"
ME,county,Cumberland,CHEBEAGUE ISLAND,1-1,Chebeague Island Hall & Community Center ,"247 South Road, Chebeague Island "
ME,county,Kennebec,CHELSEA,1-1,Chelsea Elementary School,"566 Togus Road, Chelsea "
ME,county,Washington,CHERRYFIELD ,1-1,Cherryfield Town Office Meeting Room ,"12 Municipal Way, Cherryfield "
ME,county,Penobscot,CHESTER,1-1,Marianne Municipal Building ,"43 South Chester Road, Chester "
ME,county,Franklin,CHESTERVILLE,1-1,Chesterville Town Hall ,"409 Dutch Gap Road, Chesterville "
ME,county,Kennebec,CHINA,1-1,China Middle School,"773 Lakeview Drive, China "
ME,county,Penobscot,CLIFTON,1-1,Clifton Municipal Building,"135 Airline Road, Clifton "
ME,county,Kennebec,CLINTON,1-1,Clinton Town Office (Banquet Hall),"27 Baker Street, Clinton "
ME,county,Washington,CODYVILLE PLT (with Topsfield),1-1,Topsfield Municipal Building ,"48 North Road, Topsfield "
ME,county,Washington,COLUMBIA,1-1,Columbia Town Hall ,"106 Epping Road, Columbia "
ME,county,Washington,COLUMBIA FALLS,1-1,Columbia Falls Municipal Building,"8 Point Street, Columbia Falls "
ME,county,Aroostook,CONNOR TWP,1-1,Caribou Wellness & Recreation Center ,"55 Bennett Drive, Caribou "
ME,county,Washington,COOPER ,1-1,Cathance Grange Hall,"Route 191-Cooper Highway, Cooper"
ME,county,Franklin,COPLIN PLT ,1-1,Town Office ,"5 Currie Street, Coplin Plt"
ME,county,Penobscot,CORINNA,1-1,Corinna Fire Annex ,"37 Exeter Road, Corinna "
ME,county,Penobscot,CORINTH,1-1,Corinth Town Office Conference Room,"31 Exeter Road, Corinth "
ME,county,York,CORNISH,1-1,Pike Memorial Hall,"17 Maple Street, Cornish "
ME,county,Somerset,CORNVILLE,1-1,Cornville Town Hall ,"493 West Ridge Road, Cornville "
ME,county,Hancock,CRANBERRY ISLES,1-1,Great Cranberry Island Community Center ,"191 Cranberry Road, Cranberry Isles "
ME,county,Hancock,CRANBERRY ISLES,2-1,Islesford Neighborhood House ,"10 Mosswood Road, Cranberry Isles "
ME,county,Washington,CRAWFORD,1-1,Crawford Town Hall ,"3190 Airline Road, Crawford "
ME,county,Aroostook,CROSS LAKE TWP (with New Canada),1-1,New Canada Community Center ,"1809 Caribou Road, New Canada "
ME,county,Aroostook,CRYSTAL ,1-1,Crystal Town Office ,"272 Crystal Road, Crystal "
ME,county,Cumberland,CUMBERLAND,1-1,Cumberland Town Hall ,"290 Tuttle Road, Cumberland "
ME,county,Knox,CUSHING,1-1,Cushing Community Center ,"39 Cross Road, Cushing "
ME,county,Washington,CUTLER,1-1,Cutler Town Office-Library ,"2655 Cutler Road, Cutler "
ME,county,Aroostook,CYR PLT,1-1,Governor Brann School House ,"218 Caribou Road, Rt #1, Cyr Plt"
ME,county,Franklin,DALLAS PLT,1-1,Dallas Plantation Townhouse,"436 Dallas Hill Road, Rangeley"
ME,county,Lincoln,DAMARISCOTTA,1-1,Damariscotta Town Hall ,"21 School Street, Damariscotta "
ME,county,Washington,DANFORTH (and Brookton Twp),1-1,Danforth Town Hall ,"52 Depot Street, Danforth (and Brookton Twp)"
ME,county,York,DAYTON,1-1,Dayton Town Office ,"33 Clarks Mills Road, Dayton "
ME,county,Washington,DEBLOIS,1-1,Deblois Town Hall,"8 Lane Road, Deblois"
ME,county,Hancock,DEDHAM,1-1,Dedham Fire Station ,"8 Bald Mountain Road, Dedham "
ME,county,Hancock,DEER ISLE,1-1,Deer Isle Municipal Building,"70 Church Street, Deer Isle "
ME,county,Oxford,DENMARK,1-1,Denmark Municipal Building,"62 East Main Street, Denmark "
ME,county,Somerset,DENNISTOWN PLT,1-1,Moose River Town Office ,"705 Main Street, Dennistown Plt"
ME,county,Washington,DENNYSVILLE (and Edmunds Twp),1-1,Town Office/Community Center,"2 Main Street, Dennysville "
ME,county,Somerset,DETROIT,1-1,DRCS Town Hall ,"35 South Main Street, Detroit "
ME,county,Penobscot,DEXTER,1-1,Dexter Town Hall ,"10 Hall Street, Dexter "
ME,county,Oxford,DIXFIELD ,1-1,American Legion,"8 River Lane, Dixfield "
ME,county,Penobscot,DIXMONT,1-1,Dixmont Town Office ,"758 Western Avenue, Dixmont "
ME,county,Piscataquis,DOVER-FOXCROFT,1-1,Dover-Foxcroft Municipal Gymnasium,"48 Morton Avenue, Dover-Foxcroft "
ME,county,Lincoln,DRESDEN ,1-1,Pownalborough Hall ,"314 Patterson Road, Dresden "
ME,county,Penobscot,DREW PLT ,1-1,Drew Plt. Fire Building/ Town Hall ,"65 Center Street, Drew Plt"
ME,county,Androscoggin,DURHAM,1-1,Durham Community School ,"654 Hallowell Road, Durham "
ME,county,Aroostook,DYER BROOK,1-1,Dyer Brook Town Office ,"864 Dyer Brook Road, Dyer Brook "
ME,county,Aroostook,EAGLE LAKE,1-1,Eagle Lake Municipal Building ,"36 Devoe Brook Road, Eagle Lake "
ME,county,Washington,EAST MACHIAS,1-1,East Machias Municipal Building ,"571 Main Street, East Machias "
ME,county,Penobscot,EAST MILLINOCKET ,1-1,East Millinocket Municipal Building ,"53 Main Street, East Millinocket "
ME,county,Hancock,EASTBROOK,1-1,Eastbrook Community Center,"959 Eastbrook Road, Eastbrook "
ME,county,Aroostook,EASTON,1-1,Easton Town Office ,"3 Station Road, Easton "
ME,county,Washington,EASTPORT,1-1,Shead High School ,"89 High Street, Eastport "
ME,county,Penobscot,EDDINGTON,1-1,Eddington Municipal Building-Meeting Room,"906 Main Road, Eddington "
ME,county,Lincoln,EDGECOMB,1-1,Edgecomb Town Hall ,"16 Town Hall Road, Edgecomb "
ME,county,Penobscot,EDINBURG,1-1,Edinburg Town Building,"595 Edinburg Road, Edinburg "
ME,county,York,ELIOT,1-1,Marshwood Middle School ,"626 Harold L. Dow Highway, Eliot "
ME,county,Hancock,ELLSWORTH,1-1,Ellsworth City Hall Auditorium ,"1 City Hall Plaza, Ellsworth "
ME,county,Hancock,ELLSWORTH,2-1,Your Place Community Center ,"4 Old Mill Road, Ellsworth "
ME,county,Hancock,ELLSWORTH,3-1,Maine Coast Baptist Church Gymnasium ,"867 Bangor Road, Ellsworth "
ME,county,Hancock,ELLSWORTH,4-1,Ellsworth City Hall - Council Chambers ,"1 City Hall Plaza, Ellsworth "
ME,county,Somerset,EMBDEN,1-1,Embden Town Office ,"809 Embden Pond Road, Embden "
ME,county,Penobscot,ENFIELD,1-1,Cole Memorial Building,"789 Hammett Road, Enfield "
ME,county,Penobscot,ETNA ,All,Etna Community Hall ,"17 Shadow Lane, Etna"
ME,county,Franklin,EUSTIS,1-1,Eustis Town Office ,"88 Main Street, Eustis"
ME,county,Penobscot,EXETER,1-1,Exeter Town Office ,"1221 Stetson Road, Exeter "
ME,county,Somerset,FAIRFIELD,1-1,Fairfield Community Center ,"61 Water Street, Fairfield "
ME,county,Cumberland,FALMOUTH ,All,Falmouth High School ,"74 Woodville Road, Falmouth "
ME,county,Kennebec,FARMINGDALE ,1-1,Hall-Dale Middle School Gymnasium,"111 Maple Street, Farmingdale "
ME,county,Franklin,FARMINGTON,1-1,Farmington Community Center ,"127 Middle Street, Farmington"
ME,county,Kennebec,FAYETTE,1-1,Starling Grange Hall ,"2769 Main Street, Fayette "
ME,county,Aroostook,FORT FAIRFIELD,1-1,Fort Fairfield Community Center ,"18 Community Center Drive, Fort Fairfield "
ME,county,Aroostook,FORT KENT,All,Fort Kent Town Office ,"416 West Main Street, Fort Kent "
ME,county,Waldo,FRANKFORT,1-1,Frankfort Elementary School ,"112 North Searsport Road, Frankfort "
ME,county,Hancock,FRANKLIN,1-1,Franklin Community Center-Meeting Room ,"34 Main Street, Franklin "
ME,county,Waldo,FREEDOM ,1-1,Freedom Town Office-Election Hall,"71 Pleasant Street, Freedom "
ME,county,Cumberland,FREEPORT,1-1,Freeport High School Gymnasium ,"Holbrook Street, Freeport "
ME,county,Hancock,FRENCHBORO,1-1,Frenchboro Community Building,"1 Executive Drive, Frenchboro"
ME,county,Aroostook,FRENCHVILLE,1-1,Frenchville Community Center ,"343-A US Route 1, Frenchville "
ME,county,Knox,FRIENDSHIP,1-1,Friendship Town Office ,"6 Harbor Road, Friendship "
ME,county,Cumberland,FRYE ISLAND,1-1,Ferry Office,"7 Ferry Landing Road, Raymond, Frye Island"
ME,county,Oxford,FRYEBURG,1-1,American Legion Building,"Bradley Street, Fryeburg "
ME,county,Kennebec,GARDINER,All,Boys & Girls Club ,"14 Pray Street, Gardiner "
ME,county,Aroostook,GARFIELD PLT,1-1,Garfield Town Garage,"8 Cross Road, Garfield Plt"
ME,county,Penobscot,GARLAND,1-1,Garland Town Office ,"5 Dexter Road, Garland "
ME,county,Sagadahoc,GEORGETOWN ,1-1,Georgetown Central School ,"52 Bay Point Road, Georgetown "
ME,county,Oxford,GILEAD,1-1,Gilead Town Hall ,"10 Depot Street, Gilead "
ME,county,Penobscot,GLENBURN,1-1,Glenburn Municipal Building ,"144 Lakeview Road, Glenburn "
ME,county,Cumberland,GORHAM,1-1,Gorham Middle School ,"106 Weeks Road, Gorham "
ME,county,Cumberland,GORHAM,2-1,Gorham Municipal Center - Shaw Gymnasium,"75 South Street, Gorham "
ME,county,Hancock,GOULDSBORO,1-1,Gouldsboro Community Center Gymnasium,"679 Pond Road, Gouldsboro "
ME,county,Aroostook,GRAND ISLE ,1-1,Grand Isle Town Office- Meeting Room,"366 Main Street, Grand Isle "
ME,county,Washington,GRAND LAKE STREAM PLT ,1-1,James Brite Schoolhouse ,"15 Water Street, Grand Lake Stream Plt"
ME,county,Cumberland,GRAY,All,Newbegin Gym,"22 Main Street, Gray "
ME,county,Hancock,GREAT POND,1-1,Great Pond Town Hall ,"1235 Great Pond Road, Great Pond "
ME,county,Penobscot,GREENBUSH,1-1,Greenbush Town Hall ,"132 Military Road, Greenbush "
ME,county,Androscoggin,GREENE ,1-1,Greene Town Office,"220 Main Street, Greene "
ME,county,Piscataquis,GREENVILLE,1-1,Greenville Town Hall ,"7 Minden Street, Greenville "
ME,county,Oxford,GREENWOOD,1-1,American Legion Hall ,"595 Gore Road, Greenwood "
ME,county,Piscataquis,GUILFORD (and Kingsbury Plt),1-1,Guilford Fire Station ,"4 School Street, Guilford "
ME,county,Kennebec,HALLOWELL,All,Hall Dale Elementary School ,"26 Garden Lane, Hallowell "
ME,county,Aroostook,HAMLIN,1-1,Roosevelt School ,"588 Hamlin Road, Hamlin "
ME,county,Aroostook,HAMMOND,1-1,Hammond School House,"13 Burnt Brow Road, Hammond"
ME,county,Penobscot,HAMPDEN,1-1,Municipal Building Community Room ,"106 Western Avenue, Hampden "
ME,county,Hancock,HANCOCK,1-1,Hancock Town Hall ,"18 Point Road, Hancock "
ME,county,Oxford,HANOVER,1-1,Hanover Town Office ,"21 Ferry Road, Hanover "
ME,county,Somerset,HARMONY,1-1,Harmony Elementary School,"18 Main Street, Harmony"
ME,county,Cumberland,HARPSWELL,1-1,Merriconeag Grange Hall ,"529 Harpswell Neck Road, Harpswell "
ME,county,Cumberland,HARPSWELL,2-1,Cundy's Harbor Community Building ,"837 Cundy's Harbor Road, Harpswell "
ME,county,Cumberland,HARPSWELL,3-1,Old Orr's Island School House ,"1594 Harpswell Islands Road, Harpswell "
ME,county,Washington,HARRINGTON,1-1,Harrington Town Office ,"114 East Main Street, Harrington "
ME,county,Cumberland,HARRISON,1-1,Harrison Town Office Meeting Room,"20 Front Street, Harrison "
ME,county,Oxford,HARTFORD,1-1,Hartford Town Hall ,"1190 Main Street, Hartford "
ME,county,Somerset,HARTLAND,1-1,Hartland Town Hall ,"21 Academy Street, Hartland "
ME,county,Aroostook,HAYNESVILLE,1-1,Haynesville Town Office ,"16 Danforth Road, Haynesville "
ME,county,Oxford,HEBRON,1-1,Hebron Town Office ,"351 Paris Road, Hebron "
ME,county,Penobscot,HERMON,1-1,Hermon Elementary School Gymnasium,"235 Billings Road, Hermon "
ME,county,Aroostook,HERSEY,1-1,Patten Fire Station,"27 Dearborn Street, Hersey"
ME,county,Somerset,HIGHLAND PLT ,1-1,Town House ,"Long Falls Dam Road, Highland Plt"
ME,county,Oxford,HIRAM,1-1,Hiram Town Office ,"25 Allard Circle, Hiram "
ME,county,Aroostook,HODGDON,1-1,Hodgdon Town Office ,"179 Hodgdon Mills Road, Hodgdon "
ME,county,Penobscot,HOLDEN,1-1,Holden Municipal Building ,"570 Main Road, Holden "
ME,county,York,HOLLIS,1-1,Hollis Fire Station #2 ,"405 Plains Road, Hollis "
ME,county,Knox,HOPE,1-1,Hope Town Office ,"441 Camden Road, Hope "
ME,county,Aroostook,HOULTON,1-1,Gentle Memorial Building ,"128 Main Street, Houlton "
ME,county,Penobscot,HOWLAND,1-1,Howland Town Office,"8 Main Street, Howland "
ME,county,Penobscot,HUDSON ,1-1,Hudson Town Hall ,"2334 Hudson Road, Hudson "
ME,county,Washington,INDIAN TOWNSHIP ,1-1,Indian Twp Tribal Office,"8 Kennabasis Road, Indian Twp"
ME,county,Franklin,INDUSTRY,1-1,Industry Town Hall ,"1033 Industry Road, Industry "
ME,county,Aroostook,ISLAND FALLS,1-1,Island Falls Municipal Office ,"68 Houlton Road, Island Falls "
ME,county,Knox,ISLE AU HAUT,1-1,Revere Memorial Hall,"1 Main Street, Isle Au Haut"
ME,county,Waldo,ISLESBORO,1-1,Islesboro Public Safety Meeting Room,"150 Main Road, Islesboro "
ME,county,Somerset,JACKMAN,All,Jackman Municipal Conference Room,"369 Main Street, Jackman "
ME,county,Waldo,JACKSON,1-1,Jackson Town Office ,"730 Moosehead Trail, Jackson "
ME,county,Franklin,JAY,1-1,Jay Community Building ,"13 Community Drive, Jay "
ME,county,Lincoln,JEFFERSON,1-1,Jefferson Fire Station ,"204 Waldoboro Road, Jefferson "
ME,county,Washington,JONESBORO,1-1,Keith H. Schoppee Municipal Building,"23 Station Road, Jonesboro "
ME,county,Washington,JONESPORT,1-1,Jonesport Town Office,"70 Snare Creek Lane, Jonesport"
ME,county,Penobscot,KENDUSKEAG,1-1,Kenduskeag Town Office ,"4010 Broadway, Kenduskeag "
ME,county,York,KENNEBUNK,All,Edward C. Winston Auditorium ,"1 Summer Street, Kennebunk "
ME,county,York,KENNEBUNKPORT,1-1,Village Fire Station ,"32 North Street, Kennebunkport "
ME,county,Franklin,KINGFIELD,1-1,Webster Hall ,"38 School Street, Kingfield "
ME,county,York,KITTERY,All,Kittery Community Center,"120 Rogers Road, Kittery "
ME,county,Waldo,KNOX,1-1,Knox Town Office ,"10 Abbott Road, Knox "
ME,county,Penobscot,LAGRANGE ,1-1,Lagrange Town Office ,"5791 Bennoch Road, Lagrange "
ME,county,Piscataquis,LAKE VIEW PLT,1-1,Lake View Town Office,"27 Church Street, Brownville "
ME,county,Penobscot,LAKEVILLE,1-1,Lakeville Town Office (McKinley School House),"828 Bottle Lake Road, Lakeville "
ME,county,Hancock,LAMOINE,1-1,Lamoine Town Office ,"606 Douglas Highway, Lamoine "
ME,county,York,LEBANON,1-1,Lebanon Elementary School ,"65 Upper Guinea Road, Lebanon "
ME,county,Penobscot,LEE,1-1,Eula Ham Municipal Building ,"29 Winn Road, Lee "
ME,county,Androscoggin,LEEDS,1-1,Leeds Town Office ,"8 Community Drive, Leeds "
ME,county,Penobscot,LEVANT,1-1,Levant Town Office,"691 Townhouse Road, Levant "
ME,county,Androscoggin,LEWISTON ,"1-1, 3-1",Lewiston Memorial Armory,"65 Central Avenue, Lewiston "
ME,county,Androscoggin,LEWISTON ,2-1,Montello School,"407 East Avenue, Lewiston "
ME,county,Androscoggin,LEWISTON ,"4-1, 5-1,7-1",Longley Elementary School,"145 Birch Street, Lewiston "
ME,county,Androscoggin,LEWISTON ,6-1,The Green Ladle (at High School),"156 East Avenue, Lewiston "
ME,county,Waldo,LIBERTY ,1-1,Liberty Town Office-Overlock Room ,"7 Water Street, Liberty "
ME,county,York,LIMERICK,All,Limerick Municipal Building ,"55 Washington Street, Limerick "
ME,county,Aroostook,LIMESTONE,1-1,Limestone Municipal Building ,"93 Main Street, Limestone "
ME,county,York,LIMINGTON,1-1,Limington Municipal Complex ,"425 Sokokis Avenue, Limington "
ME,county,Penobscot,LINCOLN,1-1,Mattanawcook Academy Gymnasium,"33 Reed Drive, Lincoln "
ME,county,Oxford,LINCOLN PLT,1-1,Lincoln Plt Town Hall,"260 Wilsons Mills Road, Lincoln Plt"
ME,county,Waldo,LINCOLNVILLE,1-1,Lincolnville Central School ,"523 Hope Road, Lincolnville "
ME,county,Aroostook,LINNEUS,1-1,Linneus Town Office ,"1185 Hodgdon Mills Road, Linneus "
ME,county,Androscoggin,LISBON,1-1,Superintendent's Office Building Gymnasium ,"19 Gartley Street, Lisbon "
ME,county,Androscoggin,LISBON,2-1,MTM Center,"18 School Street, Lisbon "
ME,county,Aroostook,LITTLETON ,1-1,Littleton Town Office ,"1536 US Highway 1, Littleton "
ME,county,Androscoggin,LIVERMORE,1-1,Livermore Town Office ,"10 Crash Road, Livermore "
ME,county,Androscoggin,LIVERMORE FALLS,1-1,Livermore Falls Municipal Building ,"2 Main Street, Livermore Falls "
ME,county,Cumberland,LONG ISLAND,1-1,Long Island Town Hall ,"105 Wharf Street, Long Island "
ME,county,Oxford,LOVELL,All,Lovell Town Office ,"1133 Main Street, Lovell "
ME,county,Penobscot,LOWELL,1-1,Lowell Town Office ,"129 West Old Main Road, Lowell "
ME,county,Washington,LUBEC,1-1,Lubec Municipal Building,"40 School Street, Lubec "
ME,county,Aroostook,LUDLOW,1-1,Ludlow Town Office,"831 Ludlow Road, Ludlow"
ME,county,York,LYMAN,All,Lyman Town Hall ,"11 South Waterboro Road, Lyman "
ME,county,Washington,MACHIAS,1-1,Machias Town Office ,"7 Court Street, Suite 1, Machias "
ME,county,Washington,MACHIASPORT,All,Machiasport Municipal Complex ,"8 Unity Square, Machiasport "
ME,county,Aroostook,MACWAHOC PLT,1-1,Macwahoc Town Office ,"48 Kingman Road, Macwahoc Plt "
ME,county,Aroostook,MADAWASKA,1-1,Knights Of Columbus Hall ,"172 Fox Street, Madawaska "
ME,county,Aroostook,MADAWASKA LAKE TWP (with Stockholm),1-1,Stockholm Community Center,"62 School Street, Madawaska Lake Twp"
ME,county,Somerset,MADISON,All,Madison Fire Station,"26 Weston Avenue, Madison "
ME,county,Oxford,MAGALLOWAY PLT,1-1,Magalloway Town Hall ,"3682 Dam Road, Magalloway Plt "
ME,county,Kennebec,MANCHESTER,1-1,Manchester Fire Station ,"37 Readfield Road, Manchester "
ME,county,Aroostook,MAPLETON,All,Mapleton Fire Station ,"117 Pulcifur Road, Mapleton "
ME,county,Hancock,MARIAVILLE,1-1,Mariaville Town Office ,"1686 Mariaville Road, Mariaville "
ME,county,Aroostook,MARS HILL,1-1,Mars Hill Fire Station ,"12 Market Street, Mars Hill "
ME,county,Washington,MARSHFIELD ,1-1,Marshfield Town Office ,"187 Northfield Road, Marshfield "
ME,county,Aroostook,MASARDIS ,1-1,Masardis Municipal Building ,"26 School Street, Masardis "
ME,county,Knox,MATINICUS ISLE PLT ,1-1,Matinicus Town Office,"17 South Road, Matinicus Isle "
ME,county,Penobscot,MATTAWAMKEAG,1-1,Mattawamkeag Municipal Building ,"327 Main Street, Mattawamkeag "
ME,county,Penobscot,MAXFIELD,1-1,Maxfield Town Office ,"231 River Road, Maxfield "
ME,county,Androscoggin,MECHANIC FALLS,1-1,Municipal Town Office Gymnasium ,"108 Lewiston Street, Mechanic Falls "
ME,county,Washington,MEDDYBEMPS,1-1,Meddybemps Community Center ,"849 Main Street, Meddybemps "
ME,county,Piscataquis,MEDFORD,1-1,Medford Town Office ,"13 Trestle Road, Medford "
ME,county,Penobscot,MEDWAY ,1-1,Medway Fire Station,"23 Grindstone Road, Medway "
ME,county,Somerset,MERCER,1-1,Mercer Town Office ,"1015 Beech Hill Road, Mercer "
ME,county,Aroostook,MERRILL,1-1,Merrill Town Office ,"3391 Route 2, Merrill "
ME,county,Oxford,MEXICO,1-1,Calvin P. Lyons Hall ,"134 Main Street, Mexico "
ME,county,Washington,MILBRIDGE,1-1,Milbridge Complex (Fire Station),"14 School Street, Milbridge "
ME,county,Penobscot,MILFORD ,1-1,Milford Town Hall ,"62 Davenport Street, Milford "
ME,county,Penobscot,MILLINOCKET,All,Stearns High School ,"199 State Street, Millinocket "
ME,county,Piscataquis,MILO (and Orneville Twp),1-1,Milo Town Hall ,"6 Pleasant Street, Milo "
ME,county,Androscoggin,MINOT,1-1,Minot Town Office ,"329 Woodman Hill Road, Minot "
ME,county,Lincoln,MONHEGAN ISLAND PLT ,1-1,Monhegan Memorial Library ,"10 Monhegan Avenue, Monhegan "
ME,county,Kennebec,MONMOUTH,All,Cumston Hall-Lower Level,"796 Main Street, Monmouth "
ME,county,Waldo,MONROE,1-1,Monroe Town Hall ,"8 Swanlake Avenue, Monroe "
ME,county,Piscataquis,MONSON,1-1,Monson Town Office ,"10 Tenney Hill Road, Monson "
ME,county,Aroostook,MONTICELLO,1-1,Monticello Town Office ,"405 US Highway 1, Monticello "
ME,county,Waldo,MONTVILLE,1-1,Montville Town House (Town Hall),"418 Center Road, Montville "
ME,county,Somerset,MOOSE RIVER,1-1,Moose River Town Office ,"705 Main Street, Moose River "
ME,county,Aroostook,MORO PLT,1-1,Katahdin Lodge ,"626 Aroostook Scenic Highway, Moro Plt"
ME,county,Waldo,MORRILL,1-1,Morrill Community Center ,"4 North Main Street, Morrill "
ME,county,Somerset,MOSCOW,1-1,Moscow Town Hall,"110 Canada Road, Moscow"
ME,county,Penobscot,MOUNT CHASE,1-1,Mount Chase Town Office ,"1094 Shin Pond Road, Mount Chase "
ME,county,Hancock,MOUNT DESERT,1-1,Somesville Fire Station ,"1157 Main Street, Mount Desert "
ME,county,Kennebec,MOUNT VERNON,1-1,Mount Vernon Comunity Center ,"2 Main Street, Mount Vernon "
ME,county,Cumberland,NAPLES,1-1,Naples Municipal Office Gymnasium,"15 Village Green Lane, Naples "
ME,county,Aroostook,NEW CANADA (and Cross Lake Twp),1-1,New Canada Town Office,"1809 Caribou Road, New Canada "
ME,county,Cumberland,NEW GLOUCESTER,1-1,New Gloucester Fire Station,"611 Lewiston Road, New Gloucester "
ME,county,Aroostook,NEW LIMERICK,1-1,New Limerick Town Office ,"11 Old Station Road, New Limerick "
ME,county,Somerset,NEW PORTLAND ,1-1,"New Portland Fire Station, Community Room ","911 River Road, New Portland "
ME,county,Franklin,NEW SHARON,1-1,New Sharon Town Office ,"11 School Lane, New Sharon"
ME,county,Aroostook,NEW SWEDEN ,1-1,New Sweden Town Office,"50 Station Road, New Sweden "
ME,county,Franklin,NEW VINEYARD,1-1,Smith Memorial Hall,"1680 New Vineyard Road, New Vineyard "
ME,county,Penobscot,NEWBURGH,1-1,Newburgh Town Office (former Elementary School),"2220 Western Avenue, Newburgh "
ME,county,Lincoln,NEWCASTLE,1-1,Community Meeting Room in Fire Station,"86 River Road, Newcastle "
ME,county,York,NEWFIELD,1-1,Newfield Public Safety Building,"85 Water Street, Newfield "
ME,county,Penobscot,NEWPORT,1-1,Newport Recreation,"81 North Street, Newport "
ME,county,Oxford,NEWRY,1-1,Raymond C. Foster Municipal Building,"422 Bear River Road, Newry "
ME,county,Lincoln,NOBLEBORO,All,Nobleboro Town Office Meeting Room,"192 US Highway 1, Nobleboro "
ME,county,Somerset,NORRIDGEWOCK,1-1,Mill Stream School ,"26 Mercer Road, Norridgewock "
ME,county,York,NORTH BERWICK,All,North Berwick Primary School ,"25 Varney Road, North Berwick "
ME,county,Knox,NORTH HAVEN ,1-1,North Haven Town Office,"16 Town Office Square, North Haven "
ME,county,Cumberland,NORTH YARMOUTH,1-1,LDS Church,"247 Walnut Hill Road, North Yarmouth "
ME,county,Washington,NORTHFIELD,1-1,Northfield Town Hall ,"1940 Northfield Road, Northfield "
ME,county,Waldo,NORTHPORT,1-1,Northport Town Office ,"16 Beech Hill Road, Northport "
ME,county,Oxford,NORWAY,1-1,Norway Fire Station ,"19 Danforth Street, Norway "
ME,county,Aroostook,OAKFIELD,1-1,Oakfield Town Office ,"80 School Street, Oakfield "
ME,county,Kennebec,OAKLAND,All,Williams Elementary School ,"55 Pleasant Street, Oakland "
ME,county,York,OGUNQUIT,1-1,Dunaway Community Center ,"23 School Street, Ogunquit "
ME,county,York,OLD ORCHARD BEACH,1-1,Old Orchard Beach High School ,"40 E Emerson Cummings Boulevard, Old Orchard Beach "
ME,county,Penobscot,OLD TOWN (and Argyle Twp),All,Knights Of Columbus Hall ,"5 Gilman Falls Avenue, Old Town "
ME,county,Aroostook,ORIENT ,1-1,Orient Town Office,"82 School House Road, Orient"
ME,county,Hancock,ORLAND,1-1,Orland Community Center,"21 School House Road, Orland "
ME,county,Penobscot,ORONO,"1-1, 1-3",Orono Middle School Gym  ,"14 Goodridge Drive, Orono "
ME,county,Penobscot,ORONO,1-2,University of Maine,"5748 Memorial Union-Multipurpose Room, Orono "
ME,county,Penobscot,ORRINGTON,1-1,Orrington Town Office,"29 Center Drive, Orrington "
ME,county,Hancock,OSBORN ,1-1,Emery L. Jordan Community Building,"197 Moosehill Road, Osborn"
ME,county,Hancock,OTIS,1-1,Otis Town Office,"132 Otis Road, Otis "
ME,county,Oxford,OTISFIELD ,1-1,Otisfield Town Office ,"403 State Route 121, Otisfield "
ME,county,Knox,OWLS HEAD,1-1,Owls Head Community Building ,"224 Ash Point Drive, Owls Head "
ME,county,Aroostook,OXBOW PLT ,1-1,Oxbow Plt Municipal Builidng,"685 Oxbow Road, Oxbow Plt"
ME,county,Oxford,OXFORD,1-1,Oxford Public Safety Building ,"701 Main Street, Oxford "
ME,county,Waldo,PALERMO,1-1,Palermo Town Office,"45 North Palermo Road, Palermo"
ME,county,Somerset,PALMYRA,1-1,Town Office and Community Center,"4 Madawaska Road, Palmyra "
ME,county,Oxford,PARIS,1-1,Paris Fire Department ,"137 Western Avenue, Paris "
ME,county,Piscataquis,PARKMAN,1-1,Parkman Town Office -Lower Level,"771 State Highway 150, Parkman "
ME,county,York,PARSONSFIELD ,All,Parsonsfield Town Office,"634 North Road, Parsonsfield "
ME,county,Penobscot,PASSADUMKEAG,1-1,Passadumkeag Town Offfice ,"34 Pleasant Street, Passadumkeag "
ME,county,Penobscot,PATTEN,1-1,Patten Fire Station,"27 Dearborn Street, Patten "
ME,county,Washington,PEMBROKE,1-1,Pembroke Municipal Building,"48 Old County Road, Pembroke "
ME,county,Hancock,PENOBSCOT,1-1,Penobscot  Community School Gym,"66 North Penobscot Road, Penobscot "
ME,county,Penobscot,PENOBSCOT NATION VOTING DISTRICT,1-1,Penobscot Nation Community Building-Conference Room,"12 Wabanaki Way, Penobscot Nation "
ME,county,Aroostook,PERHAM,1-1,Perham Town Office ,"206 High Meadow Road, Perham "
ME,county,Washington,PERRY,1-1,Perry Municipal Building,"898 US Route 1, Perry "
ME,county,Oxford,PERU,1-1,Peru Town Office ,"26 Main Street, Peru "
ME,county,Franklin,PHILLIPS (and Madrid),1-1,Phillips Municipal Building (former Primary School) ,"15 Russell Street, Phillips "
ME,county,Sagadahoc,PHIPPSBURG,All,Phippsburg Elementary School,"1047 Main Road, Phippsburg "
ME,county,Somerset,PITTSFIELD,1-1,Pittsfield Town Office ,"112 Somerset Avenue, Pittsfield "
ME,county,Kennebec,PITTSTON,1-1,Pittston Town Office,"38 Whitefield Road, Pittston "
ME,county,Washington,PLEASANT POINT VOTING DISTRICT,1-1,Tribal Office Building ,"9 Sakom Road, Pleasant Point "
ME,county,Somerset,PLEASANT RIDGE PLT ,1-1,Pleasant Ridge Plantation Town Office ,"343 Rowe Pond Road, Pleasant Ridge Plt "
ME,county,Penobscot,PLYMOUTH,1-1,Plymouth Grange Hall ,"1927 Moosehead Trail, Plymouth "
ME,county,Androscoggin,POLAND,1-1,Poland Town Hall ,"1223 Maine Street, Poland "
ME,county,Aroostook,PORTAGE LAKE (and Nashville Plt) ,1-1,Portage Lake Municipal Building ,"20 School Street, Portage Lake "
ME,county,Oxford,PORTER,1-1,Porter Town Hall,"71 Main Street, Porter "
ME,county,Cumberland,PORTLAND,1-1,East End Elementary School ,"195 North Street, Portland "
ME,county,Cumberland,PORTLAND,"1-2,1-45",Merrill Auditorium Rehearsal Hall ,"20 Myrtle Street, Portland "
ME,county,Cumberland,PORTLAND,1-3,Peaks Island Community Hall ,"Peaks Island, Peaks Island "
ME,county,Cumberland,PORTLAND,2-1,Reiche Elementary School ,"166 Brackett Street, Portland "
ME,county,Cumberland,PORTLAND,2-2,Exposition Building ,"239 Park Avenue, Portland "
ME,county,Cumberland,PORTLAND,3-1,Woodfords Congregational Church ,"202 Woodford Street, Portland "
ME,county,Cumberland,PORTLAND,3-2,Italian Heritage Center ,"40 Westland Avenue, Portland "
ME,county,Cumberland,PORTLAND,4-1,St. Pius Church ,"492 Ocean Avenue, Portland "
ME,county,Cumberland,PORTLAND,4-2,First Baptist Church ,"360 Canco Road, Portland "
ME,county,Cumberland,PORTLAND,5-1,Stevens Avenue Armory,"772 Stevens Avenue, Portland "
ME,county,Cumberland,PORTLAND,5-2,Grace Baptist Church ,"476 Summit Street, Portland "
ME,county,Cumberland,POWNAL ,All,Mallett Hall ,"429 Hallowell Road, Pownal "
ME,county,Aroostook,PRESQUE ISLE,All,William V Haskell Community Center ,"270 Main Street, Presque Isle "
ME,county,Washington,PRINCETON (and Big Lake Twp),1-1,Princeton Town Office ,"15 Depot Street, Princeton "
ME,county,Waldo,PROSPECT,1-1,Prospect Municipal Office ,"958 Bangor Road, Prospect "
ME,county,Kennebec,RANDOLPH,1-1,Randolph Town Office ,"121 Kinderhook Street, Randolph "
ME,county,Franklin,RANGELEY,1-1,Rangeley Town Office ,"15 School Street, Rangeley "
ME,county,Franklin,RANGELEY PLT,1-1,Rangeley Plt School House (Town Hall),"293 South Shore Drive, Rangeley Plt"
ME,county,Cumberland,RAYMOND,All,Jordan Small Middle School ,"423 Webbs Mills Road, Raymond "
ME,county,Kennebec,READFIELD,1-1,"Readfield Town Hall, 2nd Floor ","8 Old Kents Hill Road, Readfield "
ME,county,Aroostook,REED PLT ,1-1,School House (Town Office Building),"8 Springer Road, Reed Plt"
ME,county,Sagadahoc,RICHMOND,All,Richmond Jr/Sr High School Gymnasium,"132 Main Street, Richmond "
ME,county,Somerset,RIPLEY,1-1,Courser Memorial School,"47 West Ripley Road, Ripley"
ME,county,Washington,ROBBINSTON,1-1,Robbinston Fire Station ,"886 US Route 1, Robbinston"
ME,county,Knox,ROCKLAND ,1-1,Rockland Community Building ,"61 Limerock Street, Rockland "
ME,county,Knox,ROCKPORT ,1-1,Rockport Town Office ,"101 Main Street, Rockport "
ME,county,Somerset,ROCKWOOD STRIP TWP,1-1,Rockwood Community Center ,"3638 Rockwood Road (to Education Lane), Rockwood Strip Twp "
ME,county,Kennebec,ROME,1-1,Rome Town Office/ Community Center ,"8 Mercer Road, Rome "
ME,county,Washington,ROQUE BLUFFS,1-1,Roque Bluffs Town Hall ,"3 Roque Bluffs Road, Roque Bluffs "
ME,county,Oxford,ROXBURY ,1-1,Town Hall,"1095 Roxbury Road, Roxbury"
ME,county,Oxford,RUMFORD,1-1,American Legion Post 24 ,"184 Congress Street, Rumford "
ME,county,Androscoggin,SABATTUS,1-1,Sabattus Town Office ,"190 Middle Road, Sabattus "
ME,county,York,SACO,All,Saco Community Center ,"75 Franklin Street, Saco "
ME,county,Aroostook,SAINT AGATHA,1-1,Saint Agatha Town Office ,"419 Main Street, St. Agatha "
ME,county,Somerset,SAINT ALBANS,1-1,Saint Albans Town Hall ,"7 Water Street, St. Albans "
ME,county,Aroostook,SAINT FRANCIS,1-1,Saint Francis Town Office ,"873 Main Street, St. Francis "
ME,county,Knox,SAINT GEORGE,1-1,"Tenant's Harbor Fire Station, Meeting Room","3 School Street, St. George "
ME,county,Aroostook,SAINT JOHN PLT,1-1,Saint John Plt Community Center ,"1774 St. John Road, St. John Plt"
ME,county,Franklin,SANDY RIVER PLT,1-1,Sandy River Plt Town Office,"33 Townhall Road, Sandy River Plt "
ME,county,York,SANFORD,1-1,Nasson Community Center,"457 Main Street, Sanford "
ME,county,York,SANFORD,2-1,St Ignatius Hall ,"25 Riverside Avenue, Sanford "
ME,county,York,SANFORD,3-1,Curtis Lake Christian Church ,"38 Westview Drive, Sanford "
ME,county,Piscataquis,SANGERVILLE ,1-1,Sangerville Town Hall Community Room,"1 Town Hall Avenue, Sangerville "
ME,county,Cumberland,SCARBOROUGH,All,Scarborough High School - Plummer's Gymnasium ,"11 Municipal Drive, Scarborough "
ME,county,Waldo,SEARSMONT,1-1,Searsmont Community Center ,"37 Main Street South, Searsmont "
ME,county,Waldo,SEARSPORT,1-1,Searsport Public Safety Building ,"3 Union Street, Searsport "
ME,county,Cumberland,SEBAGO,1-1,Sebago Town Office ,"406 Bridgton Road, Sebago "
ME,county,Piscataquis,SEBEC,1-1,Harland Ladd Municipal Building ,"29 North Road, Sebec "
ME,county,Penobscot,SEBOEIS PLT,1-1,Kenneth B. Brown Community Building ,"1144 Seboeis Road, Seboeis Plt "
ME,county,Hancock,SEDGWICK ,1-1,Sedgwick Town House ,"574 North Sedgwick Road, Sedgwick "
ME,county,York,SHAPLEIGH,All,Shapleigh Town Hall ,"22 Back Road, Shapleigh "
ME,county,Aroostook,SHERMAN,1-1,Sherman Town Office ,"36 School Street, Sherman "
ME,county,Piscataquis,SHIRLEY,1-1,Shirley Town Hall,"25 West Road, Shirley "
ME,county,Kennebec,SIDNEY,1-1,Sidney Town Office ,"2986 Middle Road, Sidney "
ME,county,Somerset,SKOWHEGAN,1-1,Skowhegan Municipal Building,"225 Water Street, Skowhegan"
ME,county,Somerset,SMITHFIELD,1-1,Smithfield Municipal Building ,"926 Village Road, Smithfield "
ME,county,Aroostook,SMYRNA,1-1,Smyrna Town Office ,"3391 Route 2, Smyrna "
ME,county,Somerset,SOLON,1-1,Solon Town Office ,"121 South Main Street, Solon "
ME,county,Lincoln,SOMERVILLE,1-1,Somerville Town Office,"72 Sand Hill Road, Somerville "
ME,county,Hancock,SORRENTO,1-1,Sorrento Community Building ,"81 Pomola Avenue, Sorrento "
ME,county,York,SOUTH BERWICK,All,"South Berwick Town Hall, 3rd Floor ","180 Main Street, South Berwick "
ME,county,Lincoln,SOUTH BRISTOL ,All,South Bristol School ,"2024 State Route 129, South Bristol "
ME,county,Cumberland,SOUTH PORTLAND,1-1,South Portland Boys & Girls Club ,"169 Broadway, South Portland "
ME,county,Cumberland,SOUTH PORTLAND,2-1,American Legion Hall ,"413 Broadway, South Portland "
ME,county,Cumberland,SOUTH PORTLAND,"3-1, 4-1",South Portland Community Center ,"21 Nelson Road, South Portland "
ME,county,Cumberland,SOUTH PORTLAND,5-1,Redbank Community Center ,"Macarthur Circle West, South Portland "
ME,county,Knox,SOUTH THOMASTON,1-1,South Thomaston Municipal Building ,"125 Spruce Head Road, South Thomaston "
ME,county,Lincoln,SOUTHPORT,1-1,Southport Town Hall ,"361 Hendricks Hill Road, Southport "
ME,county,Hancock,SOUTHWEST HARBOR,1-1,Southwest Harbor Fire Station ,"250 Main Street, Southwest Harbor "
ME,county,Penobscot,SPRINGFIELD,1-1,Springfield Town Office ,"13 Park Street, Springfield "
ME,county,Penobscot,STACYVILLE,1-1,Stacyville Town Office,"414 Station Road, Stacyville "
ME,county,Cumberland,STANDISH,All,Standish Municipal Center ,"175 Northeast Road, Standish "
ME,county,Somerset,STARKS,1-1,Starks Town Office ,"57 Anson Road, Starks "
ME,county,Penobscot,STETSON,1-1,Stetson Meeting House,"7 Wolfboro Road, Stetson"
ME,county,Washington,STEUBEN,1-1,Steuben Town Office ,"294 US Route 1, Steuben "
ME,county,Aroostook,STOCKHOLM,1-1,Stockholm Community Center,"62 School Street, Stockholm "
ME,county,Waldo,STOCKTON SPRINGS,1-1,Stockton Springs Town Office ,"217 Main Street, Stockton Springs "
ME,county,Oxford,STONEHAM,1-1,Stoneham Fire Station ,"22 Butters Hill Road, Stoneham "
ME,county,Hancock,STONINGTON ,1-1,"Stonington Town Hall, 2nd Floor Meeting Room","32 Main Street, Stonington "
ME,county,Oxford,STOW,1-1,Stow Municipal Office ,"710 Stow Road, Stow "
ME,county,Franklin,STRONG,1-1,Forster Memorial Building ,"14 South Main Street, Strong "
ME,county,Hancock,SULLIVAN,1-1,Sullivan Town Office ,"1888 US Highway 1, Sullivan "
ME,county,Oxford,SUMNER,1-1,Bisbee-Dyer Municipal Center (Town Office),"633 Main Street, Sumner "
ME,county,Hancock,SURRY,1-1,Surry Town Office ,"741 North Bend Road, Surry "
ME,county,Hancock,SWANS ISLAND,1-1,Swans Island Town Office ,"125 Harbor Road, Swan's Island "
ME,county,Waldo,SWANVILLE,1-1,Swanville Town Office ,"6 Town House Road, Swanville "
ME,county,Oxford,SWEDEN,1-1,Sweden Town Office,"147 Bridgton Road, Sweden "
ME,county,Washington,TALMADGE ,1-1,Ladies Aid Building ,"Old Mill Road, Talmadge"
ME,county,Franklin,TEMPLE,1-1,Temple Town Hall ,"258 Temple Road, Temple "
ME,county,Somerset,THE FORKS PLT,1-1,The Forks Town Hall ,"215 US Route 201, The Forks Plt "
ME,county,Knox,THOMASTON,1-1,American Legion Hall ,"10 Watts Lane, Thomaston "
ME,county,Waldo,THORNDIKE,1-1,Thorndike Town Office ,"125 Mount View Road, Thorndike "
ME,county,Washington,TOPSFIELD,1-1,Topsfield Municipal Building ,"48 North Road, Topsfield "
ME,county,Sagadahoc,TOPSHAM ,1-1,Topsham Fairgrounds Exhibition Building ,"54 Elm Street, Topsham "
ME,county,Hancock,TREMONT,1-1,Tremont Town Office-Harvey Kelley Meeting Room,"20 Harbor Drive, Tremont "
ME,county,Hancock,TRENTON,1-1,Trenton Town Office ,"59 Oak Point Road, Trenton "
ME,county,Waldo,TROY,1-1,Troy Town Office ,"129 Rogers Road, Troy "
ME,county,Androscoggin,TURNER,1-1,Turner Town Office ,"11 Turner Center Road, Turner "
ME,county,Knox,UNION,All,William Pullen Municipal Building ,"567 Common Road, Union "
ME,county,Waldo,UNITY,1-1,Unity Town Office,"74 School Street, Unity "
ME,county,Oxford,UPTON ,1-1,Ladies Aid Building ,"23 Mill Road, Upton "
ME,county,Aroostook,VAN BUREN ,1-1,Van Buren Community Center ,"130 Champlain Street, Van Buren "
ME,county,Washington,VANCEBORO,1-1,Vanceboro Fire Station ,"Shaw Street, Vanceboro "
ME,county,Kennebec,VASSALBORO,1-1,Vassalboro Town Office ,"682 Main Street, Vassalboro "
ME,county,Penobscot,VEAZIE,1-1,"Veazie Municipal Building, Council Chambers ","1084 Main Street, Veazie "
ME,county,Hancock,VERONA ISLAND,1-1,Verona Town Hall ,"16 School Street, Verona Island "
ME,county,Kennebec,VIENNA ,1-1,Vienna Community Building ,"34 Kimball Pond Road, Vienna "
ME,county,Knox,VINALHAVEN,1-1,Vinalhaven Town Office,"19 Washington School Road, Vinalhaven "
ME,county,Aroostook,WADE,1-1,Wade Town office-Washburn,"6 Victoria Street, Wade"
ME,county,Washington,WAITE,1-1,Ladies Aid Building ,"10 Old Mill Road, Talmadge"
ME,county,Waldo,WALDO,1-1,Waldo Town Office ,"629 Waldo Station Road, Waldo "
ME,county,Lincoln,WALDOBORO,1-1,Waldoboro Municipal Building,"1600 Atlantic Highway, Waldoboro "
ME,county,Androscoggin,WALES,1-1,Wales Municipal Center,"175 Centre Road, Wales"
ME,county,Aroostook,WALLAGRASS,1-1,Wallagrass Town Office,"1080 Aroostook Road Apt. # 2, Wallagrass "
ME,county,Hancock,WALTHAM ,1-1,Waltham Town Office,"1520 Waltham Road, Waltham "
ME,county,Knox,WARREN,1-1,Masonic Hall,"105 Camden Road, Warren "
ME,county,Aroostook,WASHBURN,1-1,Washburn Civic Center/Town Office ,"1287 Main Street, Washburn "
ME,county,Knox,WASHINGTON,1-1,Bryant Room - Gibbs Library,"40 Old Union Road, Washington "
ME,county,York,WATERBORO,1-1,Massabesic East School,"84 West Road, Waterboro "
ME,county,Oxford,WATERFORD,1-1,Waterford Municipal Building ,"366 Valley Road, Waterford "
ME,county,Kennebec,WATERVILLE,All,Bourque-Lanigan Post #5 American Legion ,"21 College Avenue, Waterville "
ME,county,Kennebec,WAYNE,1-1,Ladd Recreation Center ,"26 Gott Road, Wayne "
ME,county,Penobscot,WEBSTER PLT ,1-1,Webster Plt Town Office ,"583 Tucker Ridge Road, Webster Plt "
ME,county,Franklin,WELD ,1-1,Multi-Purpose Room ,"23 Mill Street, Weld "
ME,county,Piscataquis,WELLINGTON,1-1,Wellington Town Office,"13 Harmony Road, Wellington"
ME,county,York,WELLS,All,Wells Junior High School,"1470 Post Road, Wells "
ME,county,Washington,WESLEY,1-1,Wesley Elementary School,"2 Whining Pines Drive, Wesley"
ME,county,Sagadahoc,WEST BATH,1-1,West Bath Fire Hall ,"192 State Road, West Bath "
ME,county,Somerset,WEST FORKS PLT,1-1,West Forks Town Hall ,"2955 US Route 201, West Forks Plt"
ME,county,Kennebec,WEST GARDINER,1-1,West Gardiner Town Hall/Fire Department ,"322 Spears Corner Road, West Gardiner "
ME,county,Oxford,WEST PARIS,1-1,West Paris Town Office-Meeting Room ,"25 Kingsbury Street, West Paris "
ME,county,Cumberland,WESTBROOK,"1-1, 4-1",Wescott Community Building,"426 Bridge Street, Westbrook "
ME,county,Cumberland,WESTBROOK,"2-1, 3-1",Westbrook Armory ,"120 Stroudwater Street, Westbrook "
ME,county,Cumberland,WESTBROOK,5-1,Pride's Corner Congregational Church ,"235 Pride Street, Westbrook "
ME,county,Aroostook,WESTFIELD,1-1,Westfield Town Office ,"6 Main Street, Westfield "
ME,county,Aroostook,WESTMANLAND ,1-1,Westmanland Town Hall,"Westmanland Road, Westmanland"
ME,county,Aroostook,WESTON,1-1,Weston Town Office ,"5 Church Lane, Weston "
ME,county,Lincoln,WESTPORT ISLAND ,1-1,Westport Island Old Town Hall ,"1217 Main Road, Westport Island "
ME,county,Lincoln,WHITEFIELD ,1-1,Whitefield Fire and Rescue,"26 Townhouse Road, Whitefield "
ME,county,Washington,WHITING ,1-1,Whiting Community Building ,"169 US Route 1, Whiting "
ME,county,Washington,WHITNEYVILLE,1-1,Hillgrove Community Building,"42 South Main Street, Whitneyville"
ME,county,Piscataquis,WILLIMANTIC,1-1,Willimantic Town Hall,"2360 Elliottsville Road, Willimantic"
ME,county,Franklin,WILTON,1-1,Wilton Town Office,"158 Weld Road, Wilton "
ME,county,Cumberland,WINDHAM,All,Windham High School- Main Gymnasium,"406 Gray Road, Windham "
ME,county,Kennebec,WINDSOR,1-1,Windsor Town Hall ,"523 Ridge Road, Windsor "
ME,county,Penobscot,WINN,1-1,Winn Community Hall (Town Office) ,"24 Main Street, Winn "
ME,county,Kennebec,WINSLOW,1-1,V F W ,"175 Veteran Drive, Winslow "
ME,county,Hancock,WINTER HARBOR,1-1,Municipal Building,"20 School Street, Winter Harbor"
ME,county,Waldo,WINTERPORT,1-1,Samuel L Wagner Middle School ,"19 Williams Way, Winterport "
ME,county,Aroostook,WINTERVILLE PLT,1-1,Winterville Town Office ,"391 Quimby Road, Winterville Plt"
ME,county,Kennebec,WINTHROP,1-1,Winthrop Town Office ,"17 Highland Avenue, Winthrop "
ME,county,Lincoln,WISCASSET,1-1,Wiscasset Community Center,"242 Gardiner Road, Wiscasset "
ME,county,Aroostook,WOODLAND ,1-1,Woodland Public Highway Garage,"843 Woodland Center Road, Woodland "
ME,county,Oxford,WOODSTOCK,1-1,Woodstock Town Office ,"26 Monk Avenue, Woodstock "
ME,county,Penobscot,WOODVILLE,1-1,South Woodville Schoolhouse ,"Woodville Road, Woodville "
ME,county,Sagadahoc,WOOLWICH,1-1,Woolwich Central School,"137 Nequasset Road, Woolwich "
ME,county,Cumberland,YARMOUTH,1-1,Robert W. Boyd Amvets Post #2 ,"148 North Road, Yarmouth "
ME,county,York,YORK,All,York High School-Robert E. Butler Gymnasium ,"1 Robert Stevens Drive, York "
