state,county_name,municipality,name,address,polling_place_type
SD,Aurora,Plankinton,Aurora County Ag Building,"1302 E 1st St, Plankinton",polling_place
SD,Aurora,Plankinton,Plankinton Fire Hall,"304 N Main St, Plankinton",polling_place
SD,Aurora,Stickney,Stickney Community Building,"400 Main St, Stickney",polling_place
SD,Aurora,White Lake,White Lake City Hall,"111 Main St, White Lake",polling_place
SD,Beadle,Huron,Byron Bible Camp,"40546 S Shore Road, Huron",polling_place
SD,Beadle,Cavour,Cavour Fire Hall,"250 Victor St, Cavour",polling_place
SD,Beadle,Huron,Huron Arena,"150 5th St SW, Huron",polling_place
SD,Beadle,Wolsey,Wolsey Community Center,"305 Commercial Ave SW, Wolsey",polling_place
SD,Bennett,Allen,American Horse School,"28451 Allen Rd, Allen",polling_place
SD,Bennett,Martin,Lacreek Electric Building,"121 N. Harold St, Martin",polling_place
SD,Bennett,Martin,Martin Community Room,"101 First Ave, Martin",polling_place
SD,Bennett,Vetal,Vetal Fire Hall,"23688 US Hwy 18, Vetal",polling_place
SD,Bon Homme,Avon,Avon Fire Hall,"E 1st Avenue, Avon",polling_place
SD,Bon Homme,Scotland,Scotland City Meeting Room,"530 Juniper Street, Scotland",polling_place
SD,Bon Homme,Springfield,Springfield Community Center,"807 8th Street, Springfield",polling_place
SD,Bon Homme,Tabor,Tabor Senior Citizens Center,"138 N Lidice St, Tabor",polling_place
SD,Bon Homme,Tyndall,Tyndall Community Center,"1609 Laurel St, Tyndall",polling_place
SD,Brookings,Brookings,1-1 Brookings Activity Center,"320 5th Ave., Brookings",vote_center
SD,Brookings,Volga,1-10 Volga Community Center,"109 Samara Ave., Volga",vote_center
SD,Brookings,Brookings,1-11 Holy Life Tabernacle,"241 Mustang Pass, Brookings",vote_center
SD,Brookings,Brookings,1-2 Bethel Baptist Church,"714 17th Ave. S., Brookings",vote_center
SD,Brookings,Brookings,1-3 Swiftel Center,"824 32nd Ave, Brookings",vote_center
SD,Brookings,Aurora,1-4 Aurora Little Hall,"Nicollett St., Aurora",vote_center
SD,Brookings,Elkton,1-5 Elkton Community Center,"109 Elk St. S., Elkton",vote_center
SD,Brookings,White,1-6 McKnight Hall,"228 W. Main St., White",vote_center
SD,Brookings,Bruce,1-7 Bruce City Hall,"507 Jay St., Bruce",vote_center
SD,Brookings,Arlington,1-8 Trinity Lutheran Church,"321 S. Main, Arlington",vote_center
SD,Brookings,Sinai,1-9 Sinai American Legion,"Main Ave., Sinai",vote_center
SD,Brown,Aberdeen,AmericInn Event Center,"301 Centennial Street, Aberdeen",vote_center
SD,Brown,Aberdeen,Best Western Ramkota Hotel and Convention Center,"1400 8th Ave NW, Aberdeen",vote_center
SD,Brown,Claremont,Claremont Fire Station,"505 6th St., Claremont",vote_center
SD,Brown,Columbia,Columbia American Legion,"102 N Broadway, Columbia",vote_center
SD,Brown,Aberdeen,Courthouse Community Room,"25 Market St., Aberdeen",vote_center
SD,Brown,Frederick,Frederick Community Center,"2nd Ave., Frederick",vote_center
SD,Brown,Groton,Groton Community Center,"109 N 3rd St, Groton",vote_center
SD,Brown,Hecla,Hecla Community Center,"206 Main St., Hecla",vote_center
SD,Brown,Stratford,Stratford Communty Center,"293 E Rondell Ave., Stratford",vote_center
SD,Brown,Warner,Warner Community Center,"Main St., Warner",vote_center
SD,Brown,Westport,Westport Community Center,"13 W Main St., Westport",vote_center
SD,Brule,Platte,Academy Fire Hall,"26886 SD Hwy 50, Platte",polling_place
SD,Brule,Pukwana,Brule County Ag Building,"200 County Rd 122, Pukwana",polling_place
SD,Brule,Chamberlain,Brule County Courthouse,"300 S Courtland, Chamberlain",polling_place
SD,Brule,Kimball,Kimball Legion Hall,"Main Street, Kimball",polling_place
SD,Brule,Chamberlain,Ola Church,"26096 349 Ave, Chamberlain",polling_place
SD,Buffalo,CCST Reservation,Crow Creek Housing Dist Recr. Bldg.,"210 A Avenue, CCST Reservation",polling_place
SD,Buffalo,Gann Valley,Elm Creek Election Bldg.,"35190 SD HWY 34, Gann Valley",polling_place
SD,Buffalo,Fort Thompson,St. Joseph Catholic Hall,"817 HWY 47, Fort Thompson",polling_place
SD,Butte,Nisland,American Legion Hall,"505 2nd Street, Nisland",polling_place
SD,Butte,Belle Fourche,Belle Fourche Community Hall,"508 6th Avenue, Belle Fourche",polling_place
SD,Butte,Newell,Castle Rock - Moreau River Hall,"16108 Old Hwy 79, Newell",polling_place
SD,Butte,Newell,Newell Community Hall,"108 3rd Street, Newell",polling_place
SD,Campbell,Mound City,Campbell County Courthouse/Court Room,"111 2nd St NE, Mound City",polling_place
SD,Campbell,Herreid,Herreid Senior Citizens Center,"202 Main St N, Herreid",polling_place
SD,Campbell,Pollock,Pollock Visitors Center,"119 Main St, Pollock",polling_place
SD,Charles Mix,Academy,Academy Fire Hall,"SD Hwy 44, Academy",polling_place
SD,Charles Mix,Dante,Dante Church,"103 Church Dr, Dante",polling_place
SD,Charles Mix,Marty,Ihanktonwan Community College,"200 S Main, Marty",polling_place
SD,Charles Mix,Lake Andes,Lake Andes 4-H Center,"100 School St, Lake Andes",polling_place
SD,Charles Mix,Geddes,Multi Purpose Center,"409 Michigan Ave, Geddes",polling_place
SD,Charles Mix,Pickstown,Pickstown Rainbow Room,"310 White Swan Dr, Pickstown",polling_place
SD,Charles Mix,Platte,Platte Community Bldg,"310 S Main St, Platte",polling_place
SD,Charles Mix,Ravinia,Ravinia Fire Hall,"Main St, Ravinia",polling_place
SD,Charles Mix,Wagner,Wagner Armory,"610 E SD Hwy 46, Wagner",polling_place
SD,Clark,Bradley,Bradley Community Center,"Main Street, Bradley",polling_place
SD,Clark,Carpenter,Carpenter Community Center,"524 415th Ave, Carpenter",polling_place
SD,Clark,Clark,Clark County Courthouse,"200 N. Commercial, Clark",polling_place
SD,Clark,Clark,Clark Senior Citizens - Ullyot Bldg,"100 N. Commercial, Clark",polling_place
SD,Clark,Garden City,Prairie Ridge Lodge,"110 1st St NE, Garden City",polling_place
SD,Clark,Raymond,Raymond Fire Hall,"201 Flower Street, Raymond",polling_place
SD,Clark,Vienna,Vienna Town Hall,"228 Main Street, Vienna",polling_place
SD,Clark,Willow Lake,Willow Lake Community Center,"213 Garfield Ave, Willow Lake",polling_place
SD,Clark,Willow Lake,Willow Lake Grace Lutheran Church,"610 3rd Street, Willow Lake",polling_place
SD,Clay,Vermillion,National Guard Armory,"603 Princeton St, Vermillion",polling_place
SD,Clay,Beresford,SESD Experimental Farm,"29974 University Rd, Beresford",polling_place
SD,Clay,Vermillion,Vermillion 4-H Center,"515 High St, Vermillion",polling_place
SD,Clay,Wakonda,Wakonda Senior Center,"119 Ohio St, Wakonda",polling_place
SD,Codington,Watertown,County Extension Complex,"1910 W Kemp Ave, Watertown",polling_place
SD,Codington,Watertown,Days Inn of Watertown,"2900 9 Ave SE, Watertown",polling_place
SD,Codington,Florence,Florence Community Center,"Main Street, Florence",polling_place
SD,Codington,Henry,Henry Town Hall,"Main Street, Henry",polling_place
SD,Codington,Kranzburg,Holy Rosary School Auditorium,"Minnesota Ave, Kranzburg",polling_place
SD,Codington,Watertown,Lincoln School,"1100 13 St NE, Watertown",polling_place
SD,Codington,South Shore,South Shore Community Center,"Main Street, South Shore",polling_place
SD,Codington,Wallace,Wallace Community Center,"Main Street, Wallace",polling_place
SD,Codington,Waverly,Waverly Community Center,"217 Central Ave, Waverly",polling_place
SD,Corson,Bullhead,Bullhead Community Center,"Bullhead Community Center, Bullhead",polling_place
SD,Corson,McIntosh,Corson County Courthouse,"108 First Street East, McIntosh",polling_place
SD,Corson,Timber Lake,Gary Pederson Residence,"BIA Road #4, Timber Lake",polling_place
SD,Corson,Keldron,Grand River Fire Hall,"21152 114th St, Keldron",polling_place
SD,Corson,Kenel,Kenel Community Hall,"Kenel Community Hall, Kenel",polling_place
SD,Corson,Little Eagle,Little Eagle District Office,"Little Eagle District Office, Little Eagle",polling_place
SD,Corson,McLaughlin,McLaughlin City Auditorium,"Main Street, McLaughlin",polling_place
SD,Corson,Morristown,Morristown Fire Hall,"100 2nd St E, Morristown",polling_place
SD,Corson,Trail City,Trail City Community Hall,"Hwy 20, Trail City",polling_place
SD,Corson,Wakpala,Wakpala Community Center,"Wakpala Community Center, Wakpala",polling_place
SD,Custer,Buffalo Gap,Buffalo Gap Community Center,"209 Main St, Buffalo Gap",polling_place
SD,Custer,Custer,Custer County Courthouse Annex,"447 Crook St, Custer",polling_place
SD,Custer,Custer,Custer County Highway Dept Bldg,"25365 US Hwy 385, Custer",polling_place
SD,Custer,Rural,Elk Mountain School,"10222 Valley Rd, Rural",polling_place
SD,Custer,Fairburn,Fairburn Community & Historical Center,"710 2nd St, Fairburn",polling_place
SD,Custer,Hermosa,Hermosa United Church of Christ,"102 2nd St N, Hermosa",polling_place
SD,Custer,Pringle,Pringle Fire Auxillary Hall,"436 Railway, Pringle",polling_place
SD,Davison,Mitchell,Corn Palace,"601 N Main St, Mitchell",polling_place
SD,Davison,Mitchell,Davison County Fairgrounds,"3200 W Havens, Mitchell",polling_place
SD,Davison,Ethan,Ethan Town Hall,"201 West Main, Ethan",polling_place
SD,Davison,Mitchell,MCTEA Building,"821 N. Capital, Mitchell",polling_place
SD,Davison,Mt. Vernon,Mt. Vernon Senior Citizens Center,,polling_place
SD,Day,Bristol,Bristol Community Center,"86 S Main St, Bristol",polling_place
SD,Day,Webster,Day County Courthouse Rm#101,"711 W. 1st St, Webster",polling_place
SD,Day,Webster,Day County Courthouse Rm#104,"711 W. 1st St, Webster",polling_place
SD,Day,Webster,Day County Courthouse Rm#205,"711 W. 1st St, Webster",polling_place
SD,Day,Pierpont,Pierpont Community Center,"101 W Main St, Pierpont",polling_place
SD,Day,Roslyn,Roslyn City Hall,"600 Main St, Roslyn",polling_place
SD,Day,Grenville,St. Joseph's Hall,"Main St, Grenville",polling_place
SD,Day,Waubay,Waubay Legion,"20 E. 2nd Ave, Waubay",polling_place
SD,Deuel,Astoria,Astoria Legion Hall,"341 Main Street, Astoria",polling_place
SD,Deuel,Brandt,Brandt Community Center,"102 Main St, Brandt",polling_place
SD,Deuel,Clear Lake,Clear Lake Community Center,"218 3rd Ave. S., Clear Lake",polling_place
SD,Deuel,Clear Lake,Dakota Ridge Lodge,"47743 172nd St, Clear Lake",polling_place
SD,Deuel,Gary,Gary Fire Hall,"114 1st Ave., Gary",polling_place
SD,Deuel,Goodwin,Goodwin Fire Hall,"125 N Bowdoin St., Goodwin",polling_place
SD,Deuel,Toronto,Toronto Community Rm. (FireHall),"460 Main Ave, Toronto",polling_place
SD,Dewey,Eagle Butte,CRST Senior Nutrition Site,"East Knott's Landing Rd, Eagle Butte",polling_place
SD,Dewey,Timber Lake,Dewey Co. Courthouse,"710 C St, Timber Lake",polling_place
SD,Dewey,Eagle Butte,Eagle Butte Volunteer Fire Hall,"Willow St, Eagle Butte",polling_place
SD,Dewey,Isabel,Isabel Senior Center,"412 N  Main, Isabel",polling_place
SD,Dewey,Eagle Butte,Lakota Wesleyan Chapel,"N Hwy 212, Eagle Butte",polling_place
SD,Dewey,Eagle Butte,Lakota Wesleyan Chapel,"N Hwy 212, Eagle Butte",polling_place
SD,Dewey,Eagle Butte,Landmark Hall,"south end of Main St east side of street, Eagle Butte",polling_place
SD,Dewey,Promise,St. Catherine Hall/Promise,"S 1806 and N of Promise townsite, Promise",polling_place
SD,Dewey,Timber Lake,Timber Lake Community Center,"700 Main Street, Timber Lake",polling_place
SD,Dewey,Trail City,Trail City Community Hall,"N Hwy 20, Trail City",polling_place
SD,Dewey,LaPlant,UCC Church Hall/LaPlant,"Virgin Creek Road, LaPlant",polling_place
SD,Dewey,White Horse,White Horse Community Center,"West Main Avenue, White Horse",polling_place
SD,Douglas,Armour,4-H Center- Armour,"39182 280th St., Armour",polling_place
SD,Douglas,Armour,Armour Fire Hall,"1103 Braddock Ave., Armour",polling_place
SD,Douglas,Corsica,Community Building- Corsica,"335 East Main St., Corsica",polling_place
SD,Douglas,Delmont,Community Center-Delmont,"105 West Main St., Delmont",polling_place
SD,Douglas,Harrison,Harrison Community Church,"390 Lecocq St., Harrison",polling_place
SD,Edmunds,Ipswich,4-H Building Ipswich,"515 7th St, Ipswich",polling_place
SD,Edmunds,Bowdle,Bowdle Multi-Purpose Center,"8001 W 5th St, Bowdle",polling_place
SD,Edmunds,Hosmer,Hosmer Fire Hall,"315 S Chapman Ave, Hosmer",polling_place
SD,Edmunds,Ipswich,Ipswich 4-H Building,"515 7th St, Ipswich",polling_place
SD,Edmunds,Roscoe,Roscoe Fire Hall,"208 N Mitchell St, Roscoe",polling_place
SD,Edmunds,Mina,The M Station,"800 Nesbitt Drive, Mina",polling_place
SD,Fall River,Hot Springs,Cascade Fire Hall,"27974 Cascade Rd, Hot Springs",polling_place
SD,Fall River,Hot Springs,Mueller Center,"801 S 6th, Hot Springs",polling_place
SD,Fall River,Oelrichs,Oelrichs Community Center,"108 E 6th St, Oelrichs",polling_place
SD,Fall River,Oral,Oral School,"27600 W Oral Rd, Oral",polling_place
SD,Fall River,Edgemont,St. James Parish Center,"306 3rd Ave, Edgemont",polling_place
SD,Faulk,Cresbard,Cresbard Community Ctr,"204 Main St, Cresbard",polling_place
SD,Faulk,Faulkton,Faulkton Community Center,,polling_place
SD,Faulk,Wecota,Freedom Farmers Union Local 974,"Wecota Ave, Wecota",polling_place
SD,Faulk,Orient,Orient Community Ctr.,"Main St, Orient",polling_place
SD,Faulk,Rockham,Rockham Community Ctr,"116 S Broadway, Rockham",polling_place
SD,Faulk,Seneca,Seneca Community Center,"Pine St, Seneca",polling_place
SD,Grant,Big Stone City,Big Stone City Community Room,"400 Washington St, Big Stone City",polling_place
SD,Grant,LaBolt,LaBolt Mini Mall,"140 Main St, LaBolt",polling_place
SD,Grant,Marvin,Marvin Hall,"204 S Church St, Marvin",polling_place
SD,Grant,Milbank,Milbank Airport,"14871 482nd Ave, Milbank",polling_place
SD,Grant,Milbank,Milbank City Office,"1001 E 4th Ave, Milbank",polling_place
SD,Grant,Milbank,Otter Tail Power Co Meeting Room,"404 S 2nd St, Milbank",polling_place
SD,Grant,Revillo,Revillo Community Center,"308 N 2nd Ave, Revillo",polling_place
SD,Grant,Strandburg,Rufer's General Store,"115 Main St., Strandburg",polling_place
SD,Grant,Stockholm,Stockholm Community Center,"400 E Johnson Ave, Stockholm",polling_place
SD,Grant,Twin Brooks,Twin Brooks Community Room,"502 Lasell St, Twin Brooks",polling_place
SD,Grant,Milbank,Whetstone Valley Electric Meeting Room,"1101 E 4th Ave, Milbank",polling_place
SD,Gregory,Bonesteel,Bonesteel Comunity Room,"400 Mellette St., Bonesteel",polling_place
SD,Gregory,Burke,Burke Civic Center,"822 Main St, Burke",polling_place
SD,Gregory,Gregory,Gregory Memorial Auditorium,"222 Main St, Gregory",polling_place
SD,Haakon,Philip,Bad River Senior Citizens Center,"115 S Center Ave, Philip",polling_place
SD,Haakon,Philip,Courthouse Community Room,"140 South Howard Ave, Philip",polling_place
SD,Haakon,Midland,Deep Creek Church,"19990 Deep Creek Rd, Midland",polling_place
SD,Haakon,Midland,Midland Fire Hall,"509 Main St, Midland",polling_place
SD,Haakon,Milesville,Milesville Hall,"22101 King School Rd, Milesville",polling_place
SD,Hamlin,Bryant,Bryant City Auditorium,"115 E Main St, Bryant",polling_place
SD,Hamlin,Castlewood,Castlewood Fire Hall,"204 E Main St, Castlewood",polling_place
SD,Hamlin,Estelline,Estelline Community Center,"219 Main St N, Estelline",polling_place
SD,Hamlin,Hayti,Hayti Fire Hall,"214 Main Ave, Hayti",polling_place
SD,Hamlin,Hazel,Hazel Fire Hall,"19 W William, Hazel",polling_place
SD,Hamlin,Lake Norden,Lake Norden Firehall,"600 Main Ave, Lake Norden",polling_place
SD,Hamlin,Thomas,Oxford Township Hall,"18097 450 Ave, Thomas",polling_place
SD,Hand,Wessington,Doug Schiltz home,"19951 369 Ave., Wessington",polling_place
SD,Hand,Miller,Hand County Courthouse,"415 W. 1st Avenue, Miller",polling_place
SD,Hand,Miller,Methodist Church,"610 E. 4th Avenue, Miller",polling_place
SD,Hand,Orient,Polo School,"17989 Polo Drive, Orient",polling_place
SD,Hand,Ree Heights,Ree Heights Auditorium,"209 S. Dakota Avenue, Ree Heights",polling_place
SD,Hand,St. Lawrence,St. Lawrence Fire Hall,"106 N. Commercial Drive, St. Lawrence",polling_place
SD,Hand,Zell,St. Mary's Hall,"37295 US Hwy 212, Zell",polling_place
SD,Hand,Miller,Sunshine Bible Academy,"400 Sunshine Dr, Miller",polling_place
SD,Hanson,Alexandria,Alexandria City Hall,"421 Main St., Alexandria",polling_place
SD,Hanson,Emery,Emery Fire Hall,"130 N 4th St., Emery",polling_place
SD,Hanson,Fulton,Fulton Community Hall,"217 N Main, Fulton",polling_place
SD,Hanson,Alexandria,Hanson County Courthouse,"720 5th St., Alexandria",polling_place
SD,Harding,Camp Crook,Camp Crook Area Community Center,"Main Street, Camp Crook",polling_place
SD,Harding,Buffalo,Harding County Memorial REC,"204 Hodge Street, Buffalo",polling_place
SD,Harding,Ludlow,Ludlow Hall,"10796 US Hwy 85, Ludlow",polling_place
SD,Harding,Reva,Reva Hall,"14753 SD Hwy 20, Reva",polling_place
SD,Hughes,Blunt,Blunt City Hall,"208 N. Main, Blunt",vote_center
SD,Hughes,Pierre,Faith Lutheran Church,"714 N. Grand, Pierre",vote_center
SD,Hughes,Harrold,Harrold City Auditorium,"206 S. Nixon, Harrold",vote_center
SD,Hughes,Pierre,Hyde Residence,"31815 E. SD Hwy 34, Pierre",vote_center
SD,Hughes,Pierre,Lutheran Memorial Church,"320 E Prospect Ave, Pierre",vote_center
SD,Hughes,Pierre,New Life Assembly of God Church,"1120 N. Harrison, Pierre",vote_center
SD,Hughes,Pierre,PILC Rec Center,"3001 E. Sully, Pierre",vote_center
SD,Hutchinson,Freeman,City Council Room,"185 E Third St, Freeman",polling_place
SD,Hutchinson,Clayton,Clayton Township Hall,"27213 427th Ave, Clayton",polling_place
SD,Hutchinson,Olivet,Courthouse Conference Room,"140 Euclid, Olivet",polling_place
SD,Hutchinson,Menno,Menno Fire Hall,"302 S 5th St, Menno",polling_place
SD,Hutchinson,Parkston,Parkston American Legion Hall,"221 W Main St, Parkston",polling_place
SD,Hutchinson,Dimock,St. Peter  Paul Parrish Hall,"146 W 1st, Dimock",polling_place
SD,Hutchinson,Tripp,Tripp Area Emergency Service Center,"306 S Main Street, Tripp",polling_place
SD,Hyde,Highmore,Hyde County Memorial Auditorium - Main Arena,"125 2nd ST SW, Highmore",vote_center
SD,Jackson,Belvidere,Belvidere Fellowship Hall,"807 1st St, Belvidere",polling_place
SD,Jackson,Phillip,Cottonwood Range Field Station,"23720 Fairview Rd, Phillip",polling_place
SD,Jackson,Interior,Green Valley Fire Hall,"20545 May Rd, Interior",polling_place
SD,Jackson,Interior,Interior Community Center,"117 6th Avenue, Interior",polling_place
SD,Jackson,Kadoka,Jackson County Courthouse 3,"700 Main St, Kadoka",polling_place
SD,Jackson,Kadoka,Jackson County Courthouse 4,"700 Main Street, Kadoka",polling_place
SD,Jackson,Long Valley,Long Valley School,"26840 SD Hwy 73, Long Valley",polling_place
SD,Jerauld,Alpena,Alpena Community Center,"307 Main Street, Alpena",polling_place
SD,Jerauld,Wessington Springs,Jerauld County 4-H Building,"604 2nd Street NE, Wessington Springs",polling_place
SD,Jones,Draper,Draper Town Hall,"193 N Main Street, Draper",polling_place
SD,Jones,Murdo,Murdo Auditorium,"307 Kennedy Avenue, Murdo",polling_place
SD,Kingsbury,Arlington,Arlington City Hall,"202 W Elm St, Arlington",polling_place
SD,Kingsbury,Badger,Badger American Legion Hall,"Main Street, Badger",polling_place
SD,Kingsbury,Iroquois,Iroquois Fire Hall,"120 Ottowa St. S, Iroquois",polling_place
SD,Kingsbury,De Smet,Kingsbury County 4-H Building,"107 Lyle Ave NE, De Smet",polling_place
SD,Kingsbury,Lake Preston,Lake Preston Community Room,"215 N Main, Lake Preston",polling_place
SD,Kingsbury,Oldham,Oldham School Gym,"112 S Epton Avenue, Oldham",polling_place
SD,Lake,Chester,Chester Fire Hall,"407 2nd St, Chester",polling_place
SD,Lake,Madison,Dakota Prairie Playhouse,"1205 N Washington Ave, Madison",polling_place
SD,Lake,Nunda,Nunda Fire Hall,"410 Main St, Nunda",polling_place
SD,Lake,Ramona,Ramona Parish Hall,"120 W 3rd St, Ramona",polling_place
SD,Lake,Wentworth,Wentworth Fire Hall,"425 S Main St, Wentworth",polling_place
SD,Lawrence,Lead,Copper Mountain Resort,"900 Miners Avenue, Lead",polling_place
SD,Lawrence,Deadwood,Lawrence County Administrative Annex,"90 Sherman Street, Deadwood",polling_place
SD,Lawrence,Nemo,Nemo Church,"12755 Nemo Road, Nemo",polling_place
SD,Lawrence,Spearfish,Spearfish Park Pavilion,"115 S Canyon Street, Spearfish",polling_place
SD,Lawrence,Spearfish,Spearfish Senior Citizen's Center,"1306 N 10th Street, Spearfish",polling_place
SD,Lawrence,St Onge,St Onge Community Hall,"234 1st Street, St Onge",polling_place
SD,Lawrence,Whitewood,Whitewood City Hall,"1025 Meade Street, Whitewood",polling_place
SD,Lincoln,Beresford,Beresford Public Library,"115 S. 3rd St., Beresford",polling_place
SD,Lincoln,Canton,Canton Methodist Church,"621 E. 4th St., Canton",polling_place
SD,Lincoln,Sioux Falls,Central Baptist Church,"3100 W. Ralph Rogers Rd., Sioux Falls",polling_place
SD,Lincoln,Sioux Falls,Crosswalk Community Church,"6101 S Mogen Ave, Sioux Falls",polling_place
SD,Lincoln,Sioux Falls,Faith Baptist Fellowship Church,"601 W. 57th St., Sioux Falls",polling_place
SD,Lincoln,Lennox,First English Lutheran Church,"120 E 2nd Ave, Lennox",polling_place
SD,Lincoln,Sioux Falls,First Evangelical Free Church,"2601 W. 69th St., Sioux Falls",polling_place
SD,Lincoln,Hudson,Hudson Town Hall,"310 4th St., Hudson",polling_place
SD,Lincoln,Hudson,Lands Lutheran Church,"47998 292nd St., Hudson",polling_place
SD,Lincoln,Sioux Falls,Linwood Wesleyan Church,"1101 E. 57th St., Sioux Falls",polling_place
SD,Lincoln,Harrisburg,Shalom Lutheran Church,"1000 Maple St., Harrisburg",polling_place
SD,Lincoln,Worthing,South Lincoln Rural Water,"28647 472nd Ave, Worthing",polling_place
SD,Lincoln,Sioux Falls,Spirit of Joy Lutheran Church,"2208 W Laquinta St, Sioux Falls",polling_place
SD,Lincoln,Tea,Tea City Hall,"600 E. 1st St., Tea",polling_place
SD,Lincoln,Harrisburg,United Methodist Church,"204 Grand Ave., Harrisburg",polling_place
SD,Lincoln,Lennox,West Prairie Lutheran Church,"46788 282nd St., Lennox",polling_place
SD,Lincoln,Worthing,Worthing Civic Center,"121 S Main St., Worthing",polling_place
SD,Lyman,IONA,#01 IONA COMMUNITY CENTER,"26511 266TH ST, IONA",polling_place
SD,Lyman,OACOMA,#04 OACOMA COMMUNITY CENTER,"100 E 3RD ST, OACOMA",polling_place
SD,Lyman,RELIANCE,#06 RELIANCE METHODIST CHURCH,"120 N MAIN AVE, RELIANCE",polling_place
SD,Lyman,LOWER BRULE,#07 GOLDEN BUFFALO CONVENTION CENTER,"307 CRAZY HORSE ST, LOWER BRULE",polling_place
SD,Lyman,KENNEBEC,#09 LYMAN COUNTY COURTHOUSE,"300 S MAIN ST, KENNEBEC",polling_place
SD,Lyman,PRESHO,#12 PRESHO METHODIST CHURCH,"100 W WILLOW AVE, PRESHO",polling_place
SD,Lyman,VIVIAN,#13 VIVIAN FIRE HALL,"738 MAIN AVE, VIVIAN",polling_place
SD,Marshall,Britton,County Community Building,"909 S Main St, Britton",polling_place
SD,Marshall,Eden,Eden Community Center,"302 Broadway Center, Eden",polling_place
SD,Marshall,Britton,Fun After Fifty,"615 Main St, Britton",polling_place
SD,Marshall,Langford,Langford City Hall,"Main St, Langford",polling_place
SD,Marshall,Britton,Norstar Federal Credit Union Meeting Room,"526 8th St, Britton",polling_place
SD,Marshall,Britton,North Marshall Fire Hall,"605 Vander Horck Ave, Britton",polling_place
SD,Marshall,Veblen,Veblen City Hall,"115 N Flick St, Veblen",polling_place
SD,McCook,Bridgewater,Bridgewater Fire Hall,"North Main St, Bridgewater",polling_place
SD,McCook,Canistota,Canistota Legion Hall,"West Main St, Canistota",polling_place
SD,McCook,Montrose,Montrose Community Center,"100 W Main St, Montrose",polling_place
SD,McCook,Salem,Salem Nat'l Guard Armory,"740 N Peck St, Salem",polling_place
SD,McCook,Spencer,Spencer Community Center,"320 Main St, Spencer",polling_place
SD,McPherson,Eureka,Eureka Fire Hall,"518 F Ave., Eureka",polling_place
SD,McPherson,Long Lake,Long Lake Fire Hall,"101 Bacon Ave., Long Lake",polling_place
SD,McPherson,Leola,McPherson County Courthouse,"706 Main Street, Leola",polling_place
SD,Meade,Sturgis,Alkali Community Hall,"13921 Alkali Rd., Sturgis",polling_place
SD,Meade,Black Hawk,Black Hawk Fire Department,"6010 Peaceful Pines Rd., Black Hawk",polling_place
SD,Meade,Box Elder,Box Elder Event Center,"420 Villa Dr., Box Elder",polling_place
SD,Meade,Union Center,Central Meade Co. Community Center,"19617 Ball Field Rd., Union Center",polling_place
SD,Meade,Elm Springs,Elm Springs Fire Department,"17674 Dalzell Rd., Elm Springs",polling_place
SD,Meade,Faith,Faith Community Center,"204 N. Main St., Faith",polling_place
SD,Meade,Hereford,Hereford Hall,"15911 Cross S Rd., Hereford",polling_place
SD,Meade,Marcus,Marcus Church,"18949 Old Marcus Rd., Marcus",polling_place
SD,Meade,New Underwood,New Underwood Community Center,"500 S. ""A"" Avenue, New Underwood",polling_place
SD,Meade,Opal,Opal Church,"17391 Opal Rd., Opal",polling_place
SD,Meade,Piedmont,Piedmont Community Gym,"16159 Second St., Piedmont",polling_place
SD,Meade,Plainview,Plainview Hall,"US Highway 34, Plainview",polling_place
SD,Meade,Faith,Prairie Home Church,"17010 US Hwy 212, Faith",polling_place
SD,Meade,Red Owl,RNA Hall,"18649 Red Owl Rd., Red Owl",polling_place
SD,Meade,Sturgis,Sturgis Community Center,"1401 Lazelle St., Sturgis",polling_place
SD,Meade,Summerset,Summerset City Hall,"12150 Siouxland Rd., Summerset",polling_place
SD,Meade,White Owl,White Owl Community Hall,"Main Street, White Owl",polling_place
SD,Mellette,White River,Emergency Services Building,"415 North Roosevelt, White River",polling_place
SD,Mellette,Norris,Norris Township Hall,"27160 SD HWY 63, Norris",polling_place
SD,Mellette,Wood,Wood Community Hall,"130 South Dakota Street, Wood",polling_place
SD,Miner,Canova,Canova C.A.R.E. Center,"E 242nd Street, Canova",polling_place
SD,Miner,Carthage,Carthage Fire Hall,"107 Buell Street, Carthage",polling_place
SD,Miner,Fedora,Fedora Fire Hall,"23302 421st Avenue, Fedora",polling_place
SD,Miner,Howard,Howard City Armory,"210 Pleasant Street, Howard",polling_place
SD,Minnehaha,Sioux Falls,All Souls Church,"2222 S Cliff Ave, Sioux Falls",polling_place
SD,Minnehaha,Sioux Falls,American Legion,"1701 W Legion Dr, Sioux Falls",polling_place
SD,Minnehaha,Sioux Falls,Asbury United Methodist Church,"2425 S Western Ave, Sioux Falls",polling_place
SD,Minnehaha,Sioux Falls,Avera Prince of Peace Retirement Community,"4500 S Prince of Peace Pl, Sioux Falls",polling_place
SD,Minnehaha,Baltic,Baltic Elementary Gymnasium,"500 3rd St, Baltic",polling_place
SD,Minnehaha,Brandon,Brandon City Hall - Council Chambers,"308 S Main Ave, Brandon",polling_place
SD,Minnehaha,Brandon,Brandon Fire Station,"401 Sioux Blvd, Brandon",polling_place
SD,Minnehaha,Brandon,Brandon Municipal Golf Course,"2100 E Aspen Blvd, Brandon",polling_place
SD,Minnehaha,Sioux Falls,Career Technical Education,"4700 W Career Cir, Sioux Falls",polling_place
SD,Minnehaha,Sioux Falls,Center for Active Generations,"2300 W 46th St, Sioux Falls",polling_place
SD,Minnehaha,Sioux Falls,Christ the King Church,"1501 W 26th St, Sioux Falls",polling_place
SD,Minnehaha,Sioux Falls,Church at the Gate,"6820 W 26th St, Sioux Falls",polling_place
SD,Minnehaha,Crooks,Crooks Community Center,"701 S West Ave, Crooks",polling_place
SD,Minnehaha,Sioux Falls,Dakota Abilities,"1116 S 4th Ave, Sioux Falls",polling_place
SD,Minnehaha,Sioux Falls,Emmanuel Baptist Church,"1600 E 12th St, Sioux Falls",polling_place
SD,Minnehaha,Sioux Falls,Faith Baptist Fellowship Hall,"601 W 57th St, Sioux Falls",polling_place
SD,Minnehaha,Sioux Falls,Faith Family Church,"127 N Spring Ave, Sioux Falls",polling_place
SD,Minnehaha,Sioux Falls,Faith Lutheran Church,"601 N Cliff Ave, Sioux Falls",polling_place
SD,Minnehaha,Sioux Falls,First Christian Reformed Church,"2901 E 26th St, Sioux Falls",polling_place
SD,Minnehaha,Sioux Falls,First Lutheran Church,"327 S Dakota Ave, Sioux Falls",polling_place
SD,Minnehaha,Sioux Falls,First Presbyterian Church,"30th and Lake Ave., Sioux Falls",polling_place
SD,Minnehaha,Garretson,Garretson Senior Citizens Center,"528 Main Ave, Garretson",polling_place
SD,Minnehaha,Sioux Falls,Girl Scouts Dakota Horizons,"1101 S Marion Rd, Sioux Falls",polling_place
SD,Minnehaha,Sioux Falls,Gloria Dei Lutheran Church,"5500 East 57th St, Sioux Falls",polling_place
SD,Minnehaha,Sioux Falls,Grace Lutheran Church,"3300 E 18th St, Sioux Falls",polling_place
SD,Minnehaha,Hartford,Hartford City Hall,"125 N Main Ave, Hartford",polling_place
SD,Minnehaha,Dell Rapids,Heesch Farm,"24883 481st Ave, Dell Rapids",polling_place
SD,Minnehaha,Sioux Falls,Hilltop United Methodist Church,"1312 S Bahnson Ave, Sioux Falls",polling_place
SD,Minnehaha,Sioux Falls,Hope Lutheran,"1700 S Cliff Ave, Sioux Falls",polling_place
SD,Minnehaha,Humboldt,Humboldt Community Center,"118 S. Main St, Humboldt",polling_place
SD,Minnehaha,Sioux Falls,Instructional Planning Center,"201 E 38th St, Sioux Falls",polling_place
SD,Minnehaha,Sioux Falls,John Harris School,"3501 E 49th St, Sioux Falls",polling_place
SD,Minnehaha,Sioux Falls,Kenny Anderson Community Center,"3701 E 3rd St, Sioux Falls",polling_place
SD,Minnehaha,Sioux Falls,Kuehn Community Center,"2801 S Valley View Rd, Sioux Falls",polling_place
SD,Minnehaha,Sioux Falls,Lord of Life Lutheran Church,"2600 S Sycamore Ave, Sioux Falls",polling_place
SD,Minnehaha,Dell Rapids,Lutheran Church of Dell Rapids,"701 Orleans Ave, Dell Rapids",polling_place
SD,Minnehaha,Renner,Mapleton Township Hall,"47419 258th St, Renner",polling_place
SD,Minnehaha,Sioux Falls,MariCar Community Center,"400 N Valley View Rd, Sioux Falls",polling_place
SD,Minnehaha,Sioux Falls,Memorial Middle School,"1401 S Sertoma Ave, Sioux Falls",polling_place
SD,Minnehaha,Sioux Falls,Morningside Community Center,"2400 S Bahnson Ave, Sioux Falls",polling_place
SD,Minnehaha,Sioux Falls,O'Gorman High School,"3201 S Kiwanis Ave, Sioux Falls",polling_place
SD,Minnehaha,Sioux Falls,Our Savior's Lutheran Church,"909 W 33rd St, Sioux Falls",polling_place
SD,Minnehaha,Sioux Falls,Oyate Community Center,"2421 W 15th St, Sioux Falls",polling_place
SD,Minnehaha,Sioux Falls,Peace Lutheran Church,"5509 W 41st St, Sioux Falls",polling_place
SD,Minnehaha,Sioux Falls,Prairie West Library,"7630 W 26th St, Sioux Falls",polling_place
SD,Minnehaha,Sioux Falls,RF Pettigrew Elementary School,"7900 W 53rd St, Sioux Falls",polling_place
SD,Minnehaha,Sioux Falls,Ronning Branch Library,"3100 E 49th St, Sioux Falls",polling_place
SD,Minnehaha,Sioux Falls,Sioux Falls First Church,"6300 W 41st St, Sioux Falls",polling_place
SD,Minnehaha,Sioux Falls,Sioux Falls Main Library,"200 N Dakota Ave, Sioux Falls",polling_place
SD,Minnehaha,Sioux Falls,Split Rock Fire Station,"7201 E Hwy 42, Sioux Falls",polling_place
SD,Minnehaha,Sioux Falls,St Lambert's Catholic Church,"1000 S Bahnson Ave, Sioux Falls",polling_place
SD,Minnehaha,Sioux Falls,St Mark's Lutheran Church,"2001 S Elmwood Ave, Sioux Falls",polling_place
SD,Minnehaha,Sioux Falls,St Michael's Catholic Church,"1600 S Marion Rd, Sioux Falls",polling_place
SD,Minnehaha,Sioux Falls,Sunnycrest United Methodist Church,"4801 W 41st St, Sioux Falls",polling_place
SD,Minnehaha,Colton,Taopi Community Hall,"102 E 3rd St, Colton",polling_place
SD,Minnehaha,Sioux Falls,Terry Redlin School,"1721 E Austin St, Sioux Falls",polling_place
SD,Minnehaha,Sioux Falls,Trinity Baptist Church,"2400 W 18th St, Sioux Falls",polling_place
SD,Minnehaha,Valley Springs,Valley Springs American Legion Club,"615 Broadway, Valley Springs",polling_place
SD,Minnehaha,Sioux Falls,VFW Club,"3601 S Minnesota Ave, Sioux Falls",polling_place
SD,Minnehaha,Sioux Falls,Volunteers of America,"1309 W. 51st St., Sioux Falls",polling_place
SD,Minnehaha,Hartford,Wall Lake Township Hall,"26452 463rd Ave, Hartford",polling_place
SD,Minnehaha,Sioux Falls,Wesley United Methodist Church,"1700 E 6th St, Sioux Falls",polling_place
SD,Minnehaha,Sioux Falls,Westminster Presbyterian,"3801 E 26th St, Sioux Falls",polling_place
SD,Minnehaha,Sioux Falls,Wild Flower Presbyterian Church,"4800 E 6th St, Sioux Falls",polling_place
SD,Minnehaha,Sioux Falls,Zion Lutheran Church,"1400 S Duluth Ave, Sioux Falls",polling_place
SD,Moody,Colman,Colman Community Center,"126 N Main, Colman",polling_place
SD,Moody,Egan,Egan Senior Citizens Building,"200 W 3rd St, Egan",polling_place
SD,Moody,Flandreau,Flandreau Extension Building,"500 W 1st Ave, Flandreau",polling_place
SD,Moody,Flandreau,Moody County Courthouse-1st Floor,"101 E Pipestone Ave, Flandreau",polling_place
SD,Moody,Trent,Trent Fire Hall,"101 E 3rd St, Trent",polling_place
SD,Oglala Lakota,Pine Ridge,Billy Mills Hall,"HWY 18, Pine Ridge",polling_place
SD,Oglala Lakota,Oglala,Brother Renee Hall,"HWY 18, Oglala",polling_place
SD,Oglala Lakota,Manderson,Cap Office Manderson,"BIA HWY 33, Manderson",polling_place
SD,Oglala Lakota,Porcupine,Christ the King Parish: Bill Pauly Hall,"PO Box 367, Porcupine",polling_place
SD,Oglala Lakota,Batesland,Oglala Lakota County Schools,"School St, Batesland",polling_place
SD,Oglala Lakota,Red Shirt Village,Red Shirt School,"BIA HWY 41, Red Shirt Village",polling_place
SD,Oglala Lakota,Rockyford,Singing Horse Trading Post,"BIA HWY 33, Rockyford",polling_place
SD,Pennington,Rapid City,Atonement Lutheran Church,"602 Auburn Dr, Rapid City",polling_place
SD,Pennington,Rapid City,Bethel Assembly Church,"1202 N Maple Ave, Rapid City",polling_place
SD,Pennington,Box Elder,Box Elder Event Center,"420 Villa Dr, Box Elder",polling_place
SD,Pennington,Rapid City,Calvary Lutheran Church,"5311 Sheridan Lake Rd, Rapid City",polling_place
SD,Pennington,Rapid City,Canyon Lake Senior Center,"2900 Canyon Lake Dr, Rapid City",polling_place
SD,Pennington,Caputa,Caputa Store,"15350 E Highway 44, Caputa",polling_place
SD,Pennington,Creighton,Creighton Community Hall,"21939 Creighton Rd, Creighton",polling_place
SD,Pennington,Rapid City,Doty Fire District,"8770 Nemo Rd, Rapid City",polling_place
SD,Pennington,Rapid City,First Assembly Church,"4905 S Hwy 16, Rapid City",polling_place
SD,Pennington,Rapid City,General Beadle School,"10 E Van Buren St, Rapid City",polling_place
SD,Pennington,Rapid City,Grandview School,"3301 Grandview Dr, Rapid City",polling_place
SD,Pennington,Hill City,Hill City Senior Center,"227 Walnut Ave, Hill City",polling_place
SD,Pennington,Rapid City,Jackson Heights Highrise,"1805 W Fulton, Rapid City",polling_place
SD,Pennington,Keystone,Keystone Community Center,"1101 Madill St, Keystone",polling_place
SD,Pennington,New Underwood,New Underwood Community Center,"500 S A Ave, New Underwood",polling_place
SD,Pennington,Rapid City,Oyate Community Center at Lakota Homes,"2430 Gnugnuska Dr, Rapid City",polling_place
SD,Pennington,Rapid City,Pinedale School,"4901 W Chicago, Rapid City",polling_place
SD,Pennington,Quinn,Quinn Community Center,"37 Main St, Quinn",polling_place
SD,Pennington,Rapid City,Rapid City Christian School at Hart Ranch,"23757 Arena Dr, Rapid City",polling_place
SD,Pennington,Rapid City,Rapid City Public Library,"610 Quincy St, Rapid City",polling_place
SD,Pennington,Rapid City,Rapid Valley Fire District,"3760 Reservoir Rd, Rapid City",polling_place
SD,Pennington,Rapid City,Rapid Valley School,"2601 Covington St, Rapid City",polling_place
SD,Pennington,Rapid City,Rimrock Community Center at Johnson Siding,"12270 W Highway 44, Rapid City",polling_place
SD,Pennington,Rochford,Rochford Fire District,"11701 Rochford Rd, Rochford",polling_place
SD,Pennington,Rapid City,South Middle School,"2 Indiana St, Rapid City",polling_place
SD,Pennington,Rapid City,Southwest Middle School,"4501 Park Dr, Rapid City",polling_place
SD,Pennington,Rapid City,St Paul's Lutheran Church,"835 E Fairmont Blvd, Rapid City",polling_place
SD,Pennington,Rapid City,Valley View School,"4840 Homestead St, Rapid City",polling_place
SD,Pennington,Wall,Wall Community Center,"501 Main St, Wall",polling_place
SD,Pennington,Rapid City,Walter Taylor 4H Bldg (Fairgrounds),"601 E Centre St, Rapid City",polling_place
SD,Pennington,Wasta,Wasta Community Center,"38 A Street, Wasta",polling_place
SD,Pennington,Rapid City,West Park Apartments,"1018 11th St, Rapid City",polling_place
SD,Pennington,Rapid City,West River Electric Assn,"3250 E Highway 44, Rapid City",polling_place
SD,Pennington,Rapid City,Whispering Pines Fire District,"7980 Clarkson Rd, Rapid City",polling_place
SD,Perkins,Prairie City,Beckman Memorial Church,"303 1st St E, Prairie City",polling_place
SD,Perkins,Lemmon,Beeler Community Building,"203 Main Ave, Lemmon",polling_place
SD,Perkins,Bison,Bentley Memorial Building,"400 West Carr Street, Bison",polling_place
SD,Perkins,Faith,Faith Community Center,"204 N Main St, Faith",polling_place
SD,Perkins,Meadow,Indian Creek Church,"13506 SD Hwy 73, Meadow",polling_place
SD,Perkins,Lodgepole,Lodgepole Hall,"11006 SD Hwy 75, Lodgepole",polling_place
SD,Perkins,Reva,Zeona Church,"15263 Zeona Rd, Reva",polling_place
SD,Potter,Gettysburg,Gettysburg Legion Annex,"112 S Exene, Gettysburg",vote_center
SD,Potter,Hoven,Hoven American Legion,"102 Main St, Hoven",vote_center
SD,Roberts,Claire City,Claire City Community Center,"255 Feeney Ave, Claire City",polling_place
SD,Roberts,Corona,Corona Community Center,"104 Main St, Corona",polling_place
SD,Roberts,New Effington,New Effington Community Center,"303 Main St, New Effington",polling_place
SD,Roberts,Ortley,Ortley Senior Citizens Center,"106 N Main St, Ortley",polling_place
SD,Roberts,Peever,Peever Lutheran Church,"113 3rd St, Peever",polling_place
SD,Roberts,Sisseton,Roberts County 4-H Building,"11905 BIA Hwy 700, Sisseton",polling_place
SD,Roberts,Sisseton,St. Peters Hall,"525 E Chestnut St, Sisseton",polling_place
SD,Roberts,Summit,Summit Fire Hall,"Main St, Summit",polling_place
SD,Roberts,Wilmot,Wilmot Community Center,"516 Main St, Wilmot",polling_place
SD,Sanborn,Artesian,Artesian Community Center,"209 S 2nd St, Artesian",polling_place
SD,Sanborn,Letcher,Letcher Community Center,"104 E Main St, Letcher",polling_place
SD,Sanborn,Woonsocket,Woonsocket Community Center,"102 S Dumont, Woonsocket",polling_place
SD,Spink,Ashton,Ashton Community Hall,"102 E Main St, Ashton",polling_place
SD,Spink,Conde,Conde Community Center,"125 Broadway St SW, Conde",polling_place
SD,Spink,Doland,Doland Senior Citizen Center,"215 Humphrey Dr N, Doland",polling_place
SD,Spink,Frankfort,Frankfort Community Center,"602 Jefferson Ave, Frankfort",polling_place
SD,Spink,Mellette,Northwestern United Methodist Church,"232 4th Ave, Mellette",polling_place
SD,Spink,Redfield,Redfield National Guard Armory,"309 W 3rd St, Redfield",polling_place
SD,Spink,Tulare,Tulare Community Hall,"112 Main St, Tulare",polling_place
SD,Stanley,Fort Pierre,Community Youth Involved Center,"19 E Main Ave, Fort Pierre",polling_place
SD,Stanley,Hayes,Hayes Hall,"25426 US Highway 14/34, Hayes",polling_place
SD,Stanley,Fort Pierre,McQuistion Farmstead,"28082 SD Highway 1806, Fort Pierre",polling_place
SD,Sully,Agar,Agar Fire Hall,"120 Ash St, Agar",vote_center
SD,Sully,Pierre,Bill Floyd Shop,"28342 188th St, Pierre",vote_center
SD,Sully,Onida,Phoenix Center,"117 S Main Street, Onida",vote_center
SD,Todd,Rosebud,Clark Hall,"2314 E. 1st St, Rosebud",polling_place
SD,Todd,St. Francis,Digman Hall,"110 S Oak St, St. Francis",polling_place
SD,Todd,Mission,Father Paul Hall,"151 N Jefferson St, Mission",polling_place
SD,Todd,Crookston,Lakeview School,"26886 269th Ave, Crookston",polling_place
SD,Todd,Valentine,Littleburg School,"28406 301st St, Valentine",polling_place
SD,Todd,O'Kreek,O'Kreek School,"231 School St, O'Kreek",polling_place
SD,Todd,Spring Creek,Spring Creek School,"233 Yellow Cloud Rd, Spring Creek",polling_place
SD,Todd,Parmelee,St. Agnes Hall,"104 N First St, Parmelee",polling_place
SD,Tripp,Winner,4-H Center,"815 West 12th St., Winner",polling_place
SD,Tripp,Winner,Clearfield Hall,"29201 307th Ave, Winner",polling_place
SD,Tripp,Ideal,First Presbyterian Church,"31204 266th St, Ideal",polling_place
SD,Tripp,Hamill,Hamill Hall,"32402 B St, Hamill",polling_place
SD,Tripp,Colome,Skatetown,"312 Main St., Colome",polling_place
SD,Tripp,Witten,Witten Hall,"117 East 1st St, Witten",polling_place
SD,Turner,Chancellor,Chancellor City Hall,"240 S 2 Ave, Chancellor",polling_place
SD,Turner,Centerville,Good Shepherd Pascale Hall,"411 Wisconsin, Centerville",polling_place
SD,Turner,Hurley,Hurley Fire Hall,"311 Main, Hurley",polling_place
SD,Turner,Irene,Irene Town Community Building,"120 S Clark, Irene",polling_place
SD,Turner,Marion,Marion Legion Hall,"212 N Broadway, Marion",polling_place
SD,Turner,Viborg,Spring Valley Lutheran Church,"44707 289th St, Viborg",polling_place
SD,Turner,Parker,Turner County Courthouse Community Room,"400 S Main, Parker",polling_place
SD,Turner,Viborg,Viborg City Hall,"110 N Main, Viborg",polling_place
SD,Union,Alcester,Alcester City Hall,"106 W. 2nd St., Alcester",polling_place
SD,Union,Beresford,Beresford Public Library,"115 S. 3rd St., Beresford",polling_place
SD,Union,Alcester,Big Springs Baptist Church,"30705 480th Ave., Alcester",polling_place
SD,Union,Dakota Dunes,Blessed Teresa Catholic Church,"995 Sioux Point Road, Dakota Dunes",polling_place
SD,Union,Dakota Dunes,Holy Cross Lutheran Church,"149 Bison Trail, Dakota Dunes",polling_place
SD,Union,North Sioux City,North Sioux City Community Center-Fire Hall,"200 Sodrac Dr., North Sioux City",polling_place
SD,Union,Jefferson,St. Peter's Community Center,"400 Main, Jefferson",polling_place
SD,Union,Elk Point,Union County Courthouse,"209 East Main, Elk Point",polling_place
SD,Walworth,Akaska,Akaska Community Center,"109 Main Street, Akaska",polling_place
SD,Walworth,Glenham,Glenham Fire Hall,"121 Main Street, Glenham",polling_place
SD,Walworth,Hoven,Hoven Airport,"14727 319th Avenue, Hoven",polling_place
SD,Walworth,Java,Java Community Center,"4116 Main Street, Java",polling_place
SD,Walworth,Mobridge,Scherr Howe Arena,"212 Main Street, Mobridge",polling_place
SD,Yankton,Gayville,Gayville Community Center,"502 Washington St., Gayville",vote_center
SD,Yankton,Yankton,JoDean's Steakhouse and Lounge,"2809 Broadway Avenue, Yankton",vote_center
SD,Yankton,Lesterville,Lesterville Fire Hall,"212 Main Ave, Lesterville",vote_center
SD,Yankton,Yankton,Lewis and Clark Rec Area,"43349 SD Hwy 52, Yankton",vote_center
SD,Yankton,Irene,Mayfield Store,"44398 SD Hwy 46, Irene",vote_center
SD,Yankton,Yankton,National Field Archery Assoc.,"800 Archery Lane, Yankton",vote_center
SD,Yankton,Yankton,Yankton City Hall,"416 Walnut Street, Yankton",vote_center
SD,Ziebach,Bridger,Bridger Community Center,"Bridger Community, Bridger",polling_place
SD,Ziebach,Cherry  Creek,Cherry Creek Nutrition Center,"Cherry Creek Community, Cherry  Creek",polling_place
SD,Ziebach,Eagle Butte,Eagle Butte Upper Elementary School,"South Main, Eagle Butte",polling_place
SD,Ziebach,Glad Valley,Glad Valley Fire Hall,"Hwy. 20, Glad Valley",polling_place
SD,Ziebach,Dupree,Harry's Hall,"Main Street, Dupree",polling_place
SD,Ziebach,Red Scaffold,Red Scaffold Catholic Church,"Red Scaffold Community, Red Scaffold",polling_place
