state,jurisdiction_type,county_name,municipality,precinct_id,name,address
WV,county,BARBOUR,,1,JUNIOR ELEMENTARY SCHOOL,
WV,county,BARBOUR,,2,BELINGTON FIRE DEPARTMENT,
WV,county,BARBOUR,,3,BELINGTON ELEMENTARY SCHOOL,
WV,county,BARBOUR,,4,BARBOUR COUNTY FAIRGROUNDS,
WV,county,BARBOUR,PHILIPPI,5,PHILIP BARBOUR HIGH SCHOOL,"US ROUTE250, PHILIPPI, WV 26416"
WV,county,BARBOUR,,6,UNION COMMUNITY BUILDING,
WV,county,BARBOUR,,7,BARBOUR COUNTY COURTHOUSE,
WV,county,BARBOUR,,8,TACY COMMUNITY BUILDING,
WV,county,BARBOUR,,9,ARDEN CLEMTOWN AREA COMMUNITY CENTER,
WV,county,BARBOUR,,10,KASSON MIDDLE SCHOOL,
WV,county,BARBOUR,,11,PHILIPPI MIDDLE SCHOOL,"MANSFIELD, WV"
WV,county,BARBOUR,,12,VOLGA SCHOOL,
WV,county,BARBOUR,,13,PHILIPPI ELEMENTARY SCHOOL,
WV,county,BARBOUR,,14,BRUSHY FORK COMMUNITY BLDG,
WV,county,BARBOUR,PHILIPPI,15,PHILIPPI ELEMENTARY SCHOOL,"COLLEGE HILL ROAD, PHILIPPI, WV 26416"
WV,county,BARBOUR,,16,MT VERNON ELEMENTARY SCHOOL,
WV,county,BERKELEY,MARTINSBURG,1,SAINT LUKE'S UNITED METHODIST,"700 NEW YORK AVENUE, MARTINSBURG, WV 25401"
WV,county,BERKELEY,MARTINSBURG,2,ORCHARD VIEW INTERMEDIATE,"1455 DELMAR ORCHARD ROAD, MARTINSBURG, WV 25403"
WV,county,BERKELEY,MARTINSBURG,5,MARTINSBURG HIGH SCHOOL,"701 S QUEEN STREET, MARTINSBURG, WV 25401"
WV,county,BERKELEY,MARTINSBURG,6,SOUTH MIDDLE SCHOOL,"150 BULLDOG BLVD, MARTINSBURG, WV 25401"
WV,county,BERKELEY,MARTINSBURG,7,BURKE STREET SCHOOL,"422 W BURKE STREET, MARTINSBURG, WV 25401"
WV,county,BERKELEY,MARTINSBURG,8,ROSEMONT GRACE BRETHREN CHURCH,"117 S. ILLINOIS AVE, MARTINSBURG, WV 25401"
WV,county,BERKELEY,MARTINSBURG,9,AMBROSE TOWERS,"703 PORTER AVENUE, MARTINSBURG, WV 25401"
WV,county,BERKELEY,MARTINSBURG,10,TUSCARORA ELEMENTARY  SCHOOL,"2000 TAVERN ROAD, MARTINSBURG, WV 25401"
WV,county,BERKELEY,MARTINSBURG,11,ROSEMONT ELEMENTARY SCHOOL,"301 SOUTH ALABAMA AVENUE, MARTINSBURG, WV 25401"
WV,county,BERKELEY,MARTINSBURG,12,BEDINGTON FIRE STATION (MAIN),"775 BEDINGTON ROAD, MARTINSBURG, WV 25404"
WV,county,BERKELEY,MARTINSBURG,13,FAITH CHRISTIAN ACADEMY,"138 GREENSBURG ROAD, MARTINSBURG, WV 25404"
WV,county,BERKELEY,MARTINSBURG,14,BERKELEY SENIOR CENTER,"217 N HIGH STREET, MARTINSBURG, WV 25404"
WV,county,BERKELEY,MARTINSBURG,15,OPEQUON ELEMENTARY SCHOOL,"395 EAST ROAD, MARTINSBURG, WV 25404"
WV,county,BERKELEY,MARTINSBURG,16,NORTH MIDDLE SCHOOL,"250 EAST ROAD, MARTINSBURG, WV 25404"
WV,county,BERKELEY,MARTINSBURG,17,OTTERBEIN UNITED METHODIST,"549 NORTH QUEEN STREET, MARTINSBURG, WV 25404"
WV,county,BERKELEY,MARTINSBURG,18,EAGLE SCHOOL INTERMEDIATE,"730 EAGLE SCHOOL ROAD, MARTINSBURG, WV 25404"
WV,county,BERKELEY,FALLING WATERS,19,POTOMACK INTERMEDIATE SCHOOL,"5308 WILLIAMSPORT PIKE, FALLING WATERS, WV 25419"
WV,county,BERKELEY,FALLING WATERS,20,MARLOWE ELEMENTARY SCHOOL,"9580 WILLIAMSPORT PIKE, FALLING WATERS, WV 25419"
WV,county,BERKELEY,MARTINSBURG,21,BEDINGTON ELEMENTARY SCHOOL,"149 BEDINGTON ROAD, MARTINSBURG, WV 25404"
WV,county,BERKELEY,MARTINSBURG,22,ORCHARD VIEW INTERMEDIATE,"1455 DELMAR ORCHARD ROAD, MARTINSBURG, WV 25403"
WV,county,BERKELEY,FALLING WATERS,23,POTOMACK INTERMEDIATE SCHOOL,"5308 WILLIAMSPORT PIKE, FALLING WATERS, WV 25419"
WV,county,BERKELEY,MARTINSBURG,24,BERKELEY HEIGHTS ELEMENTARY SCHOOL,"726 HACK WILSON WAY, MARTINSBURG, WV 25401"
WV,county,BERKELEY,MARTINSBURG,25,TUSCARORA ELEMENTARY  SCHOOL,"2000 TAVERN ROAD, MARTINSBURG, WV 25401"
WV,county,BERKELEY,MARTINSBURG,26,DEPT OF HEALTH & HUMAN SERVICE,"433 MIDATLANTIC CENTER, MARTINSBURG, WV 25404"
WV,county,BERKELEY,MARTINSBRUG,27,FAITH BAPTIST CHURCH,"1637 FILES CROSS ROAD, MARTINSBRUG, WV 25404"
WV,county,BERKELEY,MARTINSBURG,28,OPEQUON ELEMENTARY SCHOOL,"395 EAST ROAD, MARTINSBURG, WV 25404"
WV,county,BERKELEY,MARTINSBURG,29,HOWARD/BURKHART TERMINAL,"170 AVIATION WAY, MARTINSBURG, WV 25405"
WV,county,BERKELEY,FALLING WATERS,30,MARLOWE ELEMENTARY SCHOOL,"9580 WILLIAMSPORT PIKE, FALLING WATERS, WV 25419"
WV,county,BERKELEY,MARTINSBURG,32,BERKELEY HEIGHTS ELEMENTARY SCHOOL,"726 HACK WILSON WAY, MARTINSBURG, WV 25401"
WV,county,BERKELEY,MARTINSBURG,34,VALLEY VIEW ELEMENTARY SCHOOL,"140 NADENBOUSCH LANE, MARTINSBURG, WV 25405"
WV,county,BERKELEY,MARTINSBURG,35,VALLEY VIEW ELEMENTARY SCHOOL,"140 NADENBOUSCH LANE, MARTINSBURG, WV 25405"
WV,county,BERKELEY,BUNKER HILL,36,BUNKER HILL ELEMENTARY SCHOOL,"58 HAPPY SCHOOL AVENUE, BUNKER HILL, WV 25413"
WV,county,BERKELEY,MARTINSBURG,38,TUSCARORA ELEMENTARY  SCHOOL,"2000 TAVERN ROAD, MARTINSBURG, WV 25401"
WV,county,BERKELEY,MARTINSBURG,39,JAMES RUMSEY VO TECH,"3274 HEDGESVILLE ROAD, MARTINSBURG, WV 25403"
WV,county,BERKELEY,MARTINSBURG,40,JAMES RUMSEY VO TECH,"3274 HEDGESVILLE ROAD, MARTINSBURG, WV 25403"
WV,county,BERKELEY,HEDGESVILLE,41,TOMAHAWK RURITAN CLUB,"12680 BACK CREEK VALLEY ROAD, HEDGESVILLE, WV 25427"
WV,county,BERKELEY,HEDGESVILLE,42,TOMAHAWK INTERMEDIATE SCHOOL,"6665 HEDGESVILLE ROAD, HEDGESVILLE, WV 25427"
WV,county,BERKELEY,GERRARDSTOWN,43,GERRARDSTOWN ELEMENTARY SCHOOL,"15 DOMINION ROAD, GERRARDSTOWN, WV 25420"
WV,county,BERKELEY,HEDGESVILLE,44,MASONIC HALL,"303 NORTH MARY STREET, HEDGESVILLE, WV 25427"
WV,county,BERKELEY,HEDGESVILLE,45,BACK CREEK VALLEY ELEMENTARY SCHOOL,"1962 BACK CREEK VALLEY ROAD, HEDGESVILLE, WV 25427"
WV,county,BERKELEY,MARTINSBURG,46,SPRING MILLS PRIMARY SCHOOL,"401 CAMPUS DRIVE, MARTINSBURG, WV 25404"
WV,county,BERKELEY,HEDGESVILLE,47,BACK CREEK VALLEY ELEMENTARY SCHOOL,"1962 BACK CREEK VALLEY ROAD, HEDGESVILLE, WV 25427"
WV,county,BERKELEY,HEDGESVILLE,48,THE WOODS RESORT,"1732 THE WOODS ROAD, HEDGESVILLE, WV 25427"
WV,county,BERKELEY,MARTINSBURG,49,SPRING MILLS PRIMARY SCHOOL,"401 CAMPUS DRIVE, MARTINSBURG, WV 25404"
WV,county,BERKELEY,MARTINSBURG,50,BEDINGTON ELEMENTARY SCHOOL,"149 BEDINGTON ROAD, MARTINSBURG, WV 25404"
WV,county,BERKELEY,BUNKER HILL,51,RIDGEWAY COMMUNITY CENTER,"41 SPECKS RUN ROAD, BUNKER HILL, WV 25413"
WV,county,BERKELEY,HEDGESVILLE,52,HEDGESVILLE ELEMENTARY SCHOOL,"88 SCHOOLHOUSE DRIVE, HEDGESVILLE, WV 25427"
WV,county,BERKELEY,MARTINSBURG,53,EAGLE SCHOOL INTERMEDIATE,"730 EAGLE SCHOOL ROAD, MARTINSBURG, WV 25404"
WV,county,BERKELEY,BUNKER HILL,54,MILL CREEK INTERMEDIATE SCHOOL,"8785 WINCHESTER AVENUE, BUNKER HILL, WV 25413"
WV,county,BERKELEY,MARTINSBURG,55,JAMES RUMSEY VO TECH,"3274 HEDGESVILLE ROAD, MARTINSBURG, WV 25403"
WV,county,BERKELEY,MARTINSBURG,56,BETHEL ASSEMBLY OF GOD CHURCH,"2010 TAVERN ROAD, MARTINSBURG, WV 25401"
WV,county,BERKELEY,MARTINSBURG,105,VALLEY VIEW ELEMENTARY SCHOOL,"140 NADENBOUSCH LANE, MARTINSBURG, WV 25405"
WV,county,BERKELEY,MARTINSBURG,106,BAKER HEIGHTS BAPTIST CHURCH,"580 NEEDY ROAD, MARTINSBURG, WV 25405"
WV,county,BERKELEY,MARTINSBURG,107,BAKER HEIGHTS BAPTIST CHURCH,"580 NEEDY ROAD, MARTINSBURG, WV 25405"
WV,county,BERKELEY,HEDGESVILLE,108,HEDGESVILLE HIGH SCHOOL,"109 RIDGE ROAD NORTH, HEDGESVILLE, WV 25427"
WV,county,BERKELEY,MARTINSBURG,110,BERKELEY HEIGHTS ELEMENTARY SCHOOL,"726 HACK WILSON WAY, MARTINSBURG, WV 25401"
WV,county,BERKELEY,BUNKER HILL,111,MUSSELMAN MIDDLE SCHOOL,"105 PRIDE AVENUE, BUNKER HILL, WV 25413"
WV,county,BERKELEY,MARTINSBURG,112,PIKESIDE SCHOOL,"3635 WINCHESTER AVENUE, MARTINSBURG, WV 25405"
WV,county,BERKELEY,BUNKER HILL,113,MUSSELMAN MIDDLE SCHOOL,"105 PRIDE AVENUE, BUNKER HILL, WV 25413"
WV,county,BERKELEY,INWOOD,114,MUSSELMAN HIGH SCHOOL,"126 EXCELLENCE WAY, INWOOD, WV 25428"
WV,county,BERKELEY,INWOOD,115,ST LEO'S CATHOLIC CHURCH,"2109 SULPHER SPRINGS ROAD, INWOOD, WV 25428"
WV,county,BERKELEY,MARTINSBURG,18A,SPRING MILLS MIDDLE SCHOOL,"255 CAMPUS DRIVE, MARTINSBURG, WV 25404"
WV,county,BERKELEY,MARTINSBURG,22A,TRINITY LUTHERAN CHURCH,"1643 PITZERS CHAPEL ROAD, MARTINSBURG, WV 25403"
WV,county,BERKELEY,GERRARDSTOWN,43A,MOUNTAIN RIDGE INTERMEDIATE,"2691 GERRARDSTOWN ROAD, GERRARDSTOWN, WV 25420"
WV,county,BERKELEY,HEDGESVILLE,46A,JR ORDER UNITED AMER. MECHANICS LODGE,"2030 BACK CREEK VALLEY ROAD, HEDGESVILLE, WV 25427"
WV,county,BERKELEY,BUNKER HILL,51A,BUNKER HILL UNITED METHODIST CHURCH,"9863 WINCHESTER AVENUE, BUNKER HILL, WV 25413"
WV,county,BOONE,DANVILLE,2,GREENVIEW - RAMAGE ELEMENTARY,"15908 SPRUCE RIVER RD, DANVILLE, WV 25053"
WV,county,BOONE,CHAPMANVILLE,3,MANILA - MANILA ELEMENTARY/TRUCK DRIVING ACADEMY,"193 ACADEMY DRIVE, CHAPMANVILLE, WV 25508"
WV,county,BOONE,JEFFREY,4,JEFFREY/OTTAWA - SPRUCE RIVER COMMUNITY CENTER,"18044 SPRUCE RIVER ROAD, JEFFREY, WV 25114"
WV,county,BOONE,MADISON,7,LOW GAP - MADISON ELEMENTARY,"150 JOSEPHINE AVE, MADISON, WV 25130"
WV,county,BOONE,HEWETT,9,HEWETT - SPRUCE RIVER VOL FIRE DEPT,"620 HEWETT CREEK ROAD, HEWETT, WV 25108"
WV,county,BOONE,DANVILLE,11,LICK CREEK/TURTLE CREEK-BOONE CO HEALTH DEPT,"213 KENMORE DRIVE, DANVILLE, WV 25053"
WV,county,BOONE,MADISON,12,MADISON - VETERAN'S MEMORIAL BLDG,"269 WASHINGTON AVE, MADISON, WV 25130"
WV,county,BOONE,MADISON,13,COURTHOUSE - MADISON COURTHOUSE,"200 STATE STREET, MADISON, WV 25130"
WV,county,BOONE,DANVILLE,14,DANVILLE - DANVILLE COMMUNITY CENTER,"731 HOPKINS AVE, DANVILLE, WV 25053"
WV,county,BOONE,FOSTER,15,FOSTER/LORY - BROOKVIEW ELEMENTARY SCHOOL,"1 LEARNING WAY, FOSTER, WV 25081"
WV,county,BOONE,JULIAN,17,JULIAN - LORY BAPTIST CHURCH,"180 LORY CHURCH ROAD, JULIAN, WV 25529"
WV,county,BOONE,MORRISVALE,18,MORRISVALE - MORRISVALE COMMUNITY CENTER,"6492 HORSE CREEK ROAD, MORRISVALE, WV 25053"
WV,county,BOONE,MADISON,19,W. MADISON - MADISON MIDDLE SCHOOL,"404 RIVERSIDE DRIVE, MADISON, WV 25130"
WV,county,BOONE,PEYTONA,22,PEYTONA - PEYTONA CHURCH OF CHRIST,"23967 DANIEL BOONE PARKWAY, PEYTONA, WV 25058"
WV,county,BOONE,ASHFORD,23,NELLIS - ASHFORD ELEMENTARY,"1649 ASHFORD-NELLIS RD, ASHFORD, WV 25009"
WV,county,BOONE,ASHFORD,25,ASHFORD - ASHFORD ELEMENTARY,"1649 ASHFORD NELLIS RD, ASHFORD, WV 25009"
WV,county,BOONE,RACINE,30,RACINE - RACINE COMMUNITY CENTER,"446 JOHN SLACK CIRCLE, RACINE, WV 25165"
WV,county,BOONE,COMFORT,31,SHERMAN - SHERMAN ELEMENTARY,"7487 COAL RIVER ROAD, COMFORT, WV 25049"
WV,county,BOONE,SETH,32,SETH - SHERMAN JR HIGH SCHOOL,"9846 COAL RIVER ROAD, SETH, WV 25181"
WV,county,BOONE,ORGAS,36,ORGAS - ORGAS COMMUNITY CENTER,"22654 COAL RIVER ROAD, ORGAS, WV 25148"
WV,county,BOONE,WHITESVILLE,40,WHITESVILLE/SENG CREEK - WHITESVILLE JR HIGH SCHOOL,"37949 COAL RIVER ROAD, WHITESVILLE, WV 25209"
WV,county,BOONE,SYLVESTER,41,SYLVESTER - SYLVESTER TOWN HALL    SUITE A,"32832 COAL RIVER ROAD, SYLVESTER, WV 25193"
WV,county,BOONE,MADISON,45,UNEEDA - VETERAN'S MEMORIAL BLDG,"269 WASHINTON AVE, MADISON, WV 25130"
WV,county,BOONE,VAN,46,VAN/BANDYTOWN/CAZY - VAN ELEMENTARY,"338 VAN HIGH SCHOOL, VAN, WV 25206"
WV,county,BOONE,WHARTON,52,BARRETT/WHARTON - WHARTON COMMUNITY CENTER,"178 BENETT DRIVE, WHARTON, WV 25208"
WV,county,BOONE,MADISON,53,BROWN SCHOOL - VETERAN'S MEMORIAL BLDG,"269 WASHINGTON AVE, MADISON, WV 25130"
WV,county,BRAXTON,STRANGE CREEK,3,STRANGE CREEK MASONIC LODGE,"208 STRANGE CREEK RD, STRANGE CREEK, WV 26639"
WV,county,BRAXTON,DUCK,6,SERVIA FIRE DEPARTMENT,"2126 SERVIA ELMIRA RD, DUCK, WV 25063"
WV,county,BRAXTON,FRAMETOWN,9,FRAMETOWN SCHOOL,"96 JEANIE ELLIS DR, FRAMETOWN, WV 26623"
WV,county,BRAXTON,SUTTON,13,NEWVILLE D&D AUCTION,"2610 AIRPORT RD, SUTTON, WV 26601"
WV,county,BRAXTON,SUTTON,14,CENTRALIA POPLAR RIDGE CHURCH,"874 STONEY CREEK RD, SUTTON, WV 26601"
WV,county,BRAXTON,SUTTON,15,LITTLE BIRCH SCHOOL,"55 LITTLE BIRCH RD, SUTTON, WV 26601"
WV,county,BRAXTON,FLATWOODS,16,FLATWOODS SCHOOL,"142 FLATWOODS CORNER RD, FLATWOODS, WV 26621"
WV,county,BRAXTON,SUTTON,19,SUTTON OLD FISHER AUTO PARTS,"309 MAIN ST, SUTTON, WV 26601"
WV,county,BRAXTON,GASSAWAY,23,GASSAWAY FIREHOUSE,"105 5TH ST, GASSAWAY, WV 26624"
WV,county,BRAXTON,GASSAWAY,24,MICHAEL MOTORS ,"2764 STATE ST, GASSAWAY, WV 26624"
WV,county,BRAXTON,SUTTON,25,CANFIELD - PAUL DUNN'S HOUSE,"7765 HEROLD RD, SUTTON, WV 26601"
WV,county,BRAXTON,GASSAWAY,27,CHAPEL COMMUNITY BUILDING,"4077 CHAPEL RD, GASSAWAY, WV 26624"
WV,county,BRAXTON,EXCHANGE,28,EXCHANGE OLD BELKNAP'S STORE,"10856 EXCHANGE RD, EXCHANGE, WV 26619"
WV,county,BRAXTON,GASSAWAY,32,BRAXTON COUNTY JAMBOREE BUILDING,"258 PARSONS DR, GASSAWAY, WV 26624"
WV,county,BRAXTON,BURNSVILLE,36,BURNSVILLE COMMUNITY CENTER,"237A KANAWHA AVE, BURNSVILLE, WV 26335"
WV,county,BRAXTON,COPEN,37,COPEN COMMUNITY BUILDING,"24 WALKER FORK RD, COPEN, WV 26615"
WV,county,BRAXTON,HEATERS,38,HEATERS COMMUNITY BUILDING,"4350 GAULEY TPKE, HEATERS, WV 26627"
WV,county,BRAXTON,IRELAND,43,FALLS MILL COMMUNITY BUILDING,"16442 GAULEY TPKE, IRELAND, WV 26376"
WV,county,BROOKE,WELLSBURG,1,"METHODIST CHURCH, WELLSBURG","11TH & CHARLES STREETS, WELLSBURG, WV 26070"
WV,county,BROOKE,WELLSBURG,4,WELLSBURG PRIMARY (MAIN ST),"1448 MAIN STREET, WELLSBURG, WV 26070"
WV,county,BROOKE,WELLSBURG,5,WELLSBURG PRIMARY (CHARLES ST),"1448 MAIN STREET, WELLSBURG, WV 26070"
WV,county,BROOKE,WELLSBURG,6,COMM.OF CHRIST CHURCH-26TH ST.,"84 26TH STREET, WELLSBURG, WV 26070"
WV,county,BROOKE,BEECH BOTTOM,11,BEECH BOTTOM SCHOOL,"0 HIGH STREET, BEECH BOTTOM, WV 26030"
WV,county,BROOKE,BETHANY,14,BETHANY TOWN BUILDING,"CHURCH STREET, BETHANY, WV"
WV,county,BROOKE,WELLSBURG,15,MCKINLEYVILLE FIRE CLUB,"RD 1 BOX 142B, WELLSBURG, WV 26070"
WV,county,BROOKE,WINDSOR HEIGHTS,16,FIREMENS CLUB,"MAIN STREET, WINDSOR HEIGHTS, WV 26075"
WV,county,BROOKE,WELLSBURG,17,FRANKLIN FIRE DEPARTMENT,"WASHINGTON PIKE, WELLSBURG, WV 26070"
WV,county,BROOKE,COLLIERS,24,COLLIERS SCHOOL,"270 PENN AVENUE, COLLIERS, WV 26035"
WV,county,BROOKE,WEIRTON,25,FREEDOM PLACE 2,"3720 MAIN STREET, WEIRTON, WV"
WV,county,BROOKE,WEIRTON,26,FREEDOM PLACE 2,"3720 MAIN STREET, WEIRTON, WV"
WV,county,BROOKE,FOLLANSBEE,28,FOLLANSBEE CITY BUILDING,"MAIN STREET, FOLLANSBEE, WV 26037"
WV,county,BROOKE,FOLLANSBEE,31,JEFFERSON SCHOOL,"1098 JEFFERSON STREET, FOLLANSBEE, WV 26037"
WV,county,BROOKE,FOLLANSBEE,33,FOLL. MID. SCH. FIELD HOUSE,"MARK AVENUE, FOLLANSBEE, WV 26037"
WV,county,BROOKE,WEIRTON,34,MILLSOP SCHOOL,"LEGION & sWEARINGEN RD, WEIRTON, WV 26062"
WV,county,BROOKE,WEIRTON,36,ST THOMAS EPISCOPAL CHURCH,"300 THREE SPRINGS CHURCH, WEIRTON, WV 26062"
WV,county,BROOKE,WELLSBURG,20B,BOARD OF EDUCATION BUILDING,"1201 PLEASANT AVENUE, WELLSBURG, WV"
WV,county,BROOKE,WELLSBURG,21A,BOARD OF EDUCATION BUILDING,"1201 PLEASANT AVENUE, WELLSBURG, WV 26070"
WV,county,BROOKE,WELLSBURG,21B,FRANKLIN SCHOOL,"1305 WASHINGTON PIKE, WELLSBURG, WV 26070"
WV,county,BROOKE,FOLLANSBEE,23A,HOOVERSON HTS SCHOOL,"200 ROCKDALE ROAD, FOLLANSBEE, WV 26037"
WV,county,BROOKE,FOLLANSBEE,23B,HOOVERSON HTS FIRE DEPT,"MAY ROAD, FOLLANSBEE, WV 26037"
WV,county,BROOKE,FOLLANSBEE,23C,CHURCH OF CHRIST (HOOV HTS),"102 CHURCH AVENUE, FOLLANSBEE, WV 26037"
WV,county,BROOKE,FOLLANSBEE,23D,HOOVERSON HTS FIRE DEPT,"MAY ROAD, P.O. BOX  305, FOLLANSBEE, WV 26037"
WV,county,BROOKE,FOLLANSBEE,32A,FOLL. MID. SCH. FIELD HOUSE,"MARK AVENUE, FOLLANSBEE, WV 26037"
WV,county,BROOKE,COLLIERS,35A,OPEN DOOR BAPTIST CHURCH,"87B ELDERSVILLE ROAD, COLLIERS, WV 26035"
WV,county,BROOKE,COLLIERS,35B,OPEN DOOR BAPTIST CHURCH,"87B ELDERSVILLE ROAD, COLLIERS, WV 26035"
WV,county,CABELL,HUNTINGTON,1,# 01  CENTRAL CITY SCHOOL  (MULTIPURPOSE ROOM),"2100 WASHINGTON AVENUE, HUNTINGTON, WV 25704"
WV,county,CABELL,HUNTINGTON,2,# 02  CENTRAL CITY SCHOOL  (MULTIPURPOSE ROOM),"2100 WASHINGTON AVENUE, HUNTINGTON, WV 25704"
WV,county,CABELL,HUNTINGTON,3,# 03  DEPT. OF TRANS. (DMV LOBBY),"801 MADISON AVENUE, HUNTINGTON, WV 25704"
WV,county,CABELL,HUNTINGTON,4,# 04  MUSEUM OF RADIO/TECH,"1640 FLORENCE AVENUE, HUNTINGTON, WV 25704"
WV,county,CABELL,HUNTINGTON,5,# 05  DEPT. OF TRANS. (DMV LOBBY),"801 MADISON AVENUE, HUNTINGTON, WV 25704"
WV,county,CABELL,HUNTINGTON,6,# 06 HUNTINGTON MIDDLE SCHOOL,"925 3RD ST, HUNTINGTON, WV 25701"
WV,county,CABELL,HUNTINGTON,8,# 08 WOODLANDS RET COMM,"1 BRADLEY FOSTER DR, HUNTINGTON, WV 25701"
WV,county,CABELL,HUNTINGTON,9,# 09 HUNTINGTON CITY HALL  (LOBBY),"800 5TH AVENUE, HUNTINGTON, WV 25701"
WV,county,CABELL,HUNTINGTON,10,# 10 HUNTINGTON MIDDLE SCHOOL,"925 3RD ST, HUNTINGTON, WV 25701"
WV,county,CABELL,HUNTINGTON,11,# 11  FIRST PRES CHURCH,"1015 5TH AVENUE, HUNTINGTON, WV 25701"
WV,county,CABELL,HUNTINGTON,12,# 12  A.D. LEWIS COMM CENTER,"1450 A.D. LEWIS AVENUE, HUNTINGTON, WV 25701"
WV,county,CABELL,HUNTINGTON,13,# 13 BARNETT CENTER,"1524 10TH AVE, HUNTINGTON, WV 25701"
WV,county,CABELL,HUNTINGTON,14,# 14  MEADOWS SCHOOL  (GYM),"1601 WASHINGTON BLVD, HUNTINGTON, WV 25705"
WV,county,CABELL,HUNTINGTON,15,# 15 FIRST PRES CHURCH,"1015 5TH AVE, HUNTINGTON, WV 25701"
WV,county,CABELL,HUNTINGTON,16,# 16  SENIOR LIFE ENRICH CENTER,"1750 9TH AVENUE, HUNTINGTON, WV 25703"
WV,county,CABELL,HUNTINGTON,17,# 17  SPRING HILL SCHOOL (LOBBY),"1901 HALL AVENUE, HUNTINGTON, WV 25701"
WV,county,CABELL,HUNTINGTON,18,# 18  MEADOWS SCHOOL  (GYM),"1601 WASHINGTON BLVD, HUNTINGTON, WV 25705"
WV,county,CABELL,HUNTINGTON,19,# 19  HIGHLAWN SCHOOL (GYM),"2549 1ST AVENUE, HUNTINGTON, WV 25701"
WV,county,CABELL,HUNTINGTON,20,# 20 COMMUNITY OF GRACE CHURCH,"225 28TH ST, HUNTINGTON, WV 25701"
WV,county,CABELL,HUNTINGTON,21,# 21 FAIRFIELD EAST COMM BLDG,"2711 8TH AVENUE, HUNTINGTON, WV 25703"
WV,county,CABELL,HUNTINGTON,22,# 22 HUNTINGTON HIGH SCHOOL,"1 HIGHLANDER WAY, HUNTINGTON, WV 25701"
WV,county,CABELL,HUNTINGTON,23,# 23 FAIRFIELD EAST COMM BLDG,"2711 8TH AVENUE, HUNTINGTON, WV 25703"
WV,county,CABELL,HUNTINGTON,24,# 24 LIGHTHOUSE BAPT CHURCH,"2650 NORTH TERRACE, HUNTINGTON, WV 25705"
WV,county,CABELL,HUNTINGTON,25,# 25  BEVERLY HILLS METH CHUR (YOUTH RM),"2600 WASHINGTON BLVD, HUNTINGTON, WV 25705"
WV,county,CABELL,HUNTINGTON,26,# 26 HIGHLAWN SCHOOL (LOBBY),"2549 1ST AVENUE, HUNTINGTON, WV 25701"
WV,county,CABELL,HUNTINGTON,27,# 27 COMMUNITY OF GRACE CHURCH,"225 28TH ST, HUNTINGTON, WV 25701"
WV,county,CABELL,HUNTINGTON,28,# 28  ODD FELLOWS LODGE,"530 ROBY RD, HUNTINGTON, WV 25705"
WV,county,CABELL,HUNTINGTON,29,# 29 HTGN EAST MIDDLE SCH,"1 CAMPBELL DR, HUNTINGTON, WV 25705"
WV,county,CABELL,HUNTINGTON,30,# 30  HTGN EAST MIDDLE SCH,"1 CAMPBELL DR, HUNTINGTON, WV 25705"
WV,county,CABELL,HUNTINGTON,31,# 31 HTGN EAST MIDDLE SCH,"1 CAMPBELL DR, HUNTINGTON, WV 25705"
WV,county,CABELL,HUNTINGTON,32,# 32 GUYANDOTTE SCHOOL (GYM),"607 5TH AVE, HUNTINGTON, WV 25702"
WV,county,CABELL,HUNTINGTON,33,# 33 GUYANDOTTE SCHOOL (GYM),"607 5TH AVE, HUNTINGTON, WV 25702"
WV,county,CABELL,HUNTINGTON,34,# 34 ALTIZER ELEM SCHOOL,"250 3RD ST, HUNTINGTON, WV 25705"
WV,county,CABELL,HUNTINGTON,35,# 35 HUNTINGTON HIGH SCHOOL (GYM CONC),"#1 HIGHLANDER WAY, HUNTINGTON, WV 25701"
WV,county,CABELL,HUNTINGTON,36,# 36 HITE SAUNDERS SCHOOL (GYM),"3708 GREEN VALLEY ROAD, HUNTINGTON, WV 25701"
WV,county,CABELL,HUNTINGTON,37,# 37 HITE SAUNDERS SCHOOL (GYM),"3708 GREEN VALLEY RD, HUNTINGTON, WV 25701"
WV,county,CABELL,,38,# 38 CAREER TECH CTR (VO-TECH),"1035 NORWAY AVE, WV 25705"
WV,county,CABELL,HUNTINGTON,39,# 39 CAREER TECH CTR,"1035 NORWAY AVE, HUNTINGTON, WV 25705"
WV,county,CABELL,HUNTINGTON,40,# 40 CAREER TECH CENTER (VO-TECH),"1035 NORWAY AVE, HUNTINGTON, WV 25705"
WV,county,CABELL,BARBOURSVILLE,42,# 42  BARBOURSVILLE COMM BLDG,"721 CENTRAL AVENUE, BARBOURSVILLE, WV 25504"
WV,county,CABELL,BARBOURSVILLE,43,# 43 BARBOURSVILLE MIDDLE SCHOOL  (CAFETERIA),"1400 CENTRAL AVENUE, BARBOURSVILLE, WV 25504"
WV,county,CABELL,BARBOURSVILLE,44,# 44 BARBOURSVILLE ELEM SCHOOL (GYM),"718 CENTRAL AVENUE, BARBOURSVILLE, WV 25504"
WV,county,CABELL,BARBOURSVILLE,45,# 45 BARBOURSVILLE ELEM SCHOOL (GYM),"718 CENTRAL AVENUE, BARBOURSVILLE, WV 25504"
WV,county,CABELL,BARBOURSVILLE,46,# 46 BARBOURSVILLE MIDDLE SCHOOL (CAFETERIA),"1400 CENTRAL AVENUE, BARBOURSVILLE, WV 25504"
WV,county,CABELL,BARBOURSVILLE,47,# 47 DAVIS CREEK SCHOOL (GYM),"6330 DAVIS CREEK ROAD, BARBOURSVILLE, WV 25504"
WV,county,CABELL,BARBOURSVILLE,48,# 48 DAVIS CREEK SCHOOL (GYM),"6330 DAVIS CREEK ROAD, BARBOURSVILLE, WV 25504"
WV,county,CABELL,BARBOURSVILLE,49,# 49 MARTHA SCHOOL  (GYM),"3065 MARTHA ROAD, BARBOURSVILLE, WV 25504"
WV,county,CABELL,BARBOURSVILLE,51,# 51  MARTHA SCHOOL (GYM),"3065 MARTHA ROAD, BARBOURSVILLE, WV 25504"
WV,county,CABELL,ONA,52,# 52 NICHOLS SCHOOL (GYM),"3505 ERWIN ROAD, ONA, WV 25545"
WV,county,CABELL,ONA,53,# 53 NICHOLS SCHOOL (RM 9-ART RM),"3505 ERWIN ROAD, ONA, WV 25545"
WV,county,CABELL,HUNTINGTON,54,# 54 YMCA KENNEDY CENTER,"5800 OHIO RIVER ROAD, HUNTINGTON, WV 25702"
WV,county,CABELL,LESAGE,55,# 55 COX LANDING SCHOOL (RM 218),"6358 COX'S LANDING LANE, LESAGE, WV 25537"
WV,county,CABELL,LESAGE,56,# 56 GREENBOTTOM COMM CENTER,"7830 OHIO RIVER ROAD, LESAGE, WV 25537"
WV,county,CABELL,,57,# 57 PLEASANT VIEW FELLOWSHIP HALL,"BARKER RIDGE ROAD, WV"
WV,county,CABELL,ONA,58,# 58 CABELL MIDLAND HS (MAIN GYM),"2300 RT 60, ONA, WV 25545"
WV,county,CABELL,MILTON,61,# 61 MILTON MIDDLE SCHOOL,"1 PANTHER TRAIL, MILTON, WV 25541"
WV,county,CABELL,CULLODEN,62,# 62 CULLODEN ELEM SCHOOL,"2100 US HIGHWAY 60, CULLODEN, WV 25510"
WV,county,CABELL,MILTON,63,# 63 MILTON BAPTIST CHURCH,"1123 CHURCH ST, MILTON, WV 25541"
WV,county,CABELL,MILTON,64,# 64  MILTON BAPTIST CHURCH ,"1123 CHURCH ST, MILTON, WV 25541"
WV,county,CABELL,MILTON,65,# 65 MILTON MIDDLE SCHOOL,"1 PANTHER TRL, MILTON, WV 25541"
WV,county,CABELL,CULLODEN,66,# 66 CULLODEN ELEM SCHOOL,"2100 US HIGHWAY 60, CULLODEN, WV 25510"
WV,county,CABELL,BARBOURSVILLE,41-A,# 41-A CABELL CO 4-H CAMP,"6040 BOOTEN CREEK RD, BARBOURSVILLE, WV 25504"
WV,county,CABELL,BARBOURSVILLE,41-B,# 41-B CABELL CO 4-H CAMP,"6040 BOOTEN CREEK RD, BARBOURSVILLE, WV 25504"
WV,county,CABELL,SALT ROCK,50A,# 50-A  SALT ROCK SCHOOL (GYM),"5570 MADISON CREEK ROAD, SALT ROCK, WV 25510"
WV,county,CABELL,SALT ROCK,50B,# 50-B  SALT ROCK SCHOOL (GYM),"5570 MADISON CREEK ROAD, SALT ROCK, WV 25510"
WV,county,CABELL,ONA,59A,# 59-A  CABELL MIDLAND HS (MAIN GYM),"2300 ROUTE 60, ONA, WV 25545"
WV,county,CABELL,ONA,59B,# 59-B CABELL MIDLAND HS (MAIN GYM),"2300 ROUTE 60, ONA, WV 25545"
WV,county,CABELL,ONA,60A,# 60-A CABELL MIDLAND HS (AUX GYM),"2300 RT 60, ONA, WV 25545"
WV,county,CABELL,ONA,60B,# 60-B CABELL MIDLAND HS (AUX GYM),"2300 RT 60, ONA, WV 25545"
WV,county,CABELL,HUNTINGTON,7A,# 07-A SOUTHSIDE ELEM SCHOOL,"930 2ND ST, HUNTINGTON, WV 25701"
WV,county,CABELL,HUNTINGTON,7B,# 07-B SOUTHSIDE ELEM SCHOOL,"930 2ND ST, HUNTINGTON, WV 25701"
WV,county,CALHOUN,BIG BEND,1,BROOKSVILLE BAPTIST CHURCH,"6303 W LITTLE KANAWHA HWY, BIG BEND, WV 26136"
WV,county,CALHOUN,GRANTSVILLE,4,COURTHOUSE,"363 MAIN STREET, GRANTSVILLE, WV 26147"
WV,county,CALHOUN,GRANTSVILLE,5,PLEASANT HILL SCHOOL,"3254 N. CALHOUN HWY, GRANTSVILLE, WV 26147"
WV,county,CALHOUN,GRNTSVILLE,6,SENIOR CITIZENS BUILDING,"105 MARKET STREET, GRNTSVILLE, WV 26147"
WV,county,CALHOUN,GRANTSVILLE,7,GRANTSVILLE VFD,"341 S. CALHOUN HWY, GRANTSVILLE, WV 26147"
WV,county,CALHOUN,GRANTSVILLE,8,PLEASANT HILL SCHOOL,"3254 N. CALHOUN HWY, GRANTSVILLE, WV 26147"
WV,county,CALHOUN,ARNOLDSBURG,10,ARNOLDSBURG SCHOOL,"90 SPRING RUN RD, ARNOLDSBURG, WV 25234"
WV,county,CALHOUN,MOUNT ZION,11,CALHOUN MIDDLE HIGH SCHOOL,"50 UNDERWOOD CIRCLE, MOUNT ZION, WV 26151"
WV,county,CALHOUN,CHLOE,15,UPPER WEST FORK PARK (MINNORA),"88 RED ROOF LN, CHLOE, WV 25235"
WV,county,CALHOUN,CHLOE,19,UPPER WEST FORK PARK (ORMA),"88 RED ROOF LN, CHLOE, WV 25235"
WV,county,CLAY,HARRISON,1,NORMAN JOHNSON GARAGE,"5086 WIDEN RIDGE ROAD, HARRISON, WV 25063"
WV,county,CLAY,STRANGE CREEK,4,WALNUT GROVE CHURCH FELLOWSHIP HALL,"2028 WILSON RIDGE RD, STRANGE CREEK, WV 25063"
WV,county,CLAY,CLAY,12,CLAY ELEMENTARY GYM,"144 HIGH STREET, CLAY, WV 25043"
WV,county,CLAY,WALLBACK,15,VALLEY FORK SCHOOL,"4208 WALLBACK ROAD, WALLBACK, WV 25285"
WV,county,CLAY,CLAY,17,CLAY MIDDLE SCHOOL,"72 MUSTANG DRIVE, CLAY, WV 25043"
WV,county,CLAY,IVYDALE,24,BIG OTTER COMM. CENTER,"3433 BIG OTTER HIGHWAY, IVYDALE, WV 25113"
WV,county,CLAY,IVYDALE,25,LIGHTHOUSE BAPTIST YOUTH CENTER,"151 SCHOOL STREET, IVYDALE, WV 25113"
WV,county,CLAY,LIZEMORES,29,LIZEMORE GYM,"72 LIZEMORE LIONS ROAD, LIZEMORES, WV 25125"
WV,county,CLAY,CLAY,33,HIGH SCHOOL VO-AG BUILDING,"1 PANTHER DRIVE, CLAY, WV 25043"
WV,county,CLAY,BOMONT,36,H.E. WHITE SCHOOL,"501 BOMONT ROAD, BOMONT, WV 25030"
WV,county,CLAY,PROCIOUS,37,HORNER'S FORK FELLOWSHIP HALL,"5815 PROCIOUS MAYSEL RD, PROCIOUS, WV 25164"
WV,county,DODDRIDGE,GREENWOOD,2,GREENWOOD FIRE DEPARTMENT,"RT 1, GREENWOOD, WV 26456"
WV,county,DODDRIDGE,TROY,4,SMITH COMMUNITY BUILDING,"RT 1, TROY, WV"
WV,county,DODDRIDGE,WEST UNION,6,EVERGREEN UNITED METHODIST CHURCH,"RT 2 , WEST UNION, WV 26456"
WV,county,DODDRIDGE,WEST UNION,9,BUCKEYE COMMUNITY BLDG.,"RT 2, WEST UNION, WV 26456"
WV,county,DODDRIDGE,SALEM,10,BIG ISAAC U.M. CHURCH,"RT 3, SALEM, WV 26426"
WV,county,DODDRIDGE,CENTER POINT,13,MCCLELLAN FIRE DEPARTMENT,"RT 23, CENTER POINT, WV 26339"
WV,county,DODDRIDGE,SALEM,14,CASCARA U.M. CHURCH,"RT 2, SALEM, WV 26426"
WV,county,DODDRIDGE,NEW MILTON,17,BANCS FIRE DEPT.,"NEW MILTON ROAD, NEW MILTON, WV 26411"
WV,county,DODDRIDGE,WEST UNION,18,OXFORD GRANGE HALL,"RT 1, OXFORD, WEST UNION, WV 26456"
WV,county,DODDRIDGE,WEST UNION,20,DODDRIDGE COUNTY LIONS CLUB BUILDING,"COURT ST, WEST UNION, WV 26456"
WV,county,DODDRIDGE,,22,SMITHBURG UNITED METH. CHURCH,
WV,county,DODDRIDGE,,24,WEST UNION GRADE SCHOOL,
WV,county,FAYETTE,OAK HILL,1,ROSEDALE ELEMENTARY SCHOOL,"3950 SUMMERLEE RD, OAK HILL, WV 25901"
WV,county,FAYETTE,FAYETTEVILLE,4,GATEWOOD ELEMENTARY SCHOOL,"5094 GATEWOOD RD, FAYETTEVILLE, WV 25840"
WV,county,FAYETTE,SCARBRO,5,SCARBRO ELEMENTARY SCHOOL,"93 HAMBRICK RD, SCARBRO, WV 25917"
WV,county,FAYETTE,OAK HILL,8,O.H. CHURCH OF THE NAZARENE ANNEX,"3249 E. MAIN ST, OAK HILL, WV 25901"
WV,county,FAYETTE,OAK HILL ,9,OAK HILL BOY SCOUT CABIN,"54 CARLTON WAY, OAK HILL , WV 25901"
WV,county,FAYETTE,OAK HILL ,10,ST. PETER AND PAUL CATHOLIC CENTER,"123 ELMORE ST, OAK HILL , WV 25901"
WV,county,FAYETTE,OAK HILL,11,LEWIS FOUNDATION COMM. CTR,"469 CENTRAL AVE, OAK HILL, WV 25901"
WV,county,FAYETTE,OAK HILL ,12,LEWIS FOUNDATION COMM. CTR,"469 CENTRAL AVE, OAK HILL , WV 25901"
WV,county,FAYETTE,OAK HILL ,13,OAK HILL BOY SCOUT CABIN,"54 CARLTON WAY, OAK HILL , WV 25901"
WV,county,FAYETTE,OAK HILL,15,O.H. CHURCH OF THE NAZARENE ANNEX,"3249 E. MAIN ST, OAK HILL, WV 25901"
WV,county,FAYETTE,MOUNT HOPE ,17,PAX CITY HALL,"88 CENTER ST, MOUNT HOPE , WV 25880"
WV,county,FAYETTE,SCARBRO,18,FAIRVIEW UNITED METHODIST CHURCH,"8487 MOSSY-MILBURN RD, SCARBRO, WV 25917"
WV,county,FAYETTE,GLEN JEAN,19,NATIONAL PARK SERVICE,"42 MAIN ST , GLEN JEAN, WV 25846"
WV,county,FAYETTE,MOUNT HOPE,23,MOUNT HOPE FIRE DEPARTMENT,"644 RT 211, MOUNT HOPE, WV"
WV,county,FAYETTE,MOUNT HOPE ,24,MOUNT HOPE ELEMENTARY SCHOOL,"408 LINCOLN ST, MOUNT HOPE , WV 25880"
WV,county,FAYETTE,CANNELTON,26,LOCAL UNION HALL,"CANNELTON HOLLOW RD, CANNELTON, WV 25036"
WV,county,FAYETTE,SMITHERS,28,SMITHERS CITY HALL,"158 MICHIGAN AVE, SMITHERS, WV 25186"
WV,county,FAYETTE,FALLS VIEW,29,FALLS VIEW COMMUNITY CENTER,"5407 MIDLAND TRAIL, FALLS VIEW, WV 25040"
WV,county,FAYETTE,GAULEY BRIDGE,31,GAULEY RIVER FIRE DEPARTMENT,"215 GAULEY RIVER RD, GAULEY BRIDGE, WV 25085"
WV,county,FAYETTE,DIXIE,32,BELL CREEK BAPTIST CHURCH,"1424 DIXIE HWY, DIXIE, WV 25059"
WV,county,FAYETTE,BOOMER,37,BOOMER FIRE DEPARTMENT,"71 BOOMER BRANCH RD, BOOMER, WV 25031"
WV,county,FAYETTE,GAULEY BRIDGE,38,GAULEY BRIDGE ELEMENTARY,"140 WALNUT ST, GAULEY BRIDGE, WV 25085"
WV,county,FAYETTE,KINCAID ,41,PAGE ELEMENTARY SCHOOL,"8292 DEEPWATER MTN RD, KINCAID , WV 25119"
WV,county,FAYETTE,ROBSON,42,LOOP CREEK FIRE DEPARTMENT,"12588 DEEPWATER MTN RD, ROBSON, WV 25173"
WV,county,FAYETTE,POWELLTON,45,ARMSTRONG CREEK VOLUNTEER FIRE DEPT.,"3319 ARMSTRONG CRK RD, POWELLTON, WV 25161"
WV,county,FAYETTE,KIMBERLY ,46,KIMBERLY ELEMENTARY SCHOOL,"1367 ARMSTRONG CRK RD, KIMBERLY , WV 25118"
WV,county,FAYETTE,MONTGOMERY,47,MONTGOMERY CITY HALL,"THIRD AVE, MONTGOMERY, WV 25136"
WV,county,FAYETTE,FAYETTEVILLE,51,BECKWITH APOSTLIC WORSHIP CENTER,"4033 BECKWITH RD, FAYETTEVILLE, WV 25840"
WV,county,FAYETTE,FAYETTEVILLE,52,MEMORIAL BUILDING,"95 WISEMAN AVE, FAYETTEVILLE, WV 25840"
WV,county,FAYETTE,FAYETTEVILLE ,55,FAYETTEVILLE MIDDLE SCHOOL,"129 HIGH ST, FAYETTEVILLE , WV 25840"
WV,county,FAYETTE,FAYETTEVILLE,56,MEMORIAL BUILDING,"95 WISEMAN AVE, FAYETTEVILLE, WV 25840"
WV,county,FAYETTE,HICO,58,MIDLAND TRAIL HIGH SCHOOL,"26719 MIDLAND TRAIL, HICO, WV 25854"
WV,county,FAYETTE,ANSTED,59,ANSTED MIDDLE SCHOOL,"47 CHURCH ST, ANSTED, WV 25812"
WV,county,FAYETTE,ANSTED,60,ANSTED ELEMENTARY SCHOOL,"27 SCHOOL ST, ANSTED, WV 25812"
WV,county,FAYETTE,LANSING ,65,PENNINGTON BUILDING,"24 PENNINGTON PLACE, LANSING , WV 25862"
WV,county,FAYETTE,HICO ,67,NUTTALL FIRE DEPT. ,"28895 MIDLAND TRAIL, HICO , WV 25854"
WV,county,FAYETTE,MEADOW BRIDGE,68,MEADOW BRIDGE HIGH SCHOOL,"804 MEADOW BRIDGE RD, MEADOW BRIDGE, WV 25976"
WV,county,FAYETTE,DANESE,72,DANESE COMMUNITY CTR,"1493 STANAFORD RD, DANESE, WV 25831"
WV,county,FAYETTE,RAINELLE,74,CORLISS COMMUNITY CTR,"1487 CORLISS  RD, RAINELLE, WV 25962"
WV,county,GILMER,NORMANTOWN,1,NORMANTOWN SCHOOL PRESCHOOL ROOM            ,"10223 US HWY 33W, NORMANTOWN, WV 25267"
WV,county,GILMER,CEDARVILLE,5,CEDARVILLE VOLUNTEER FIRE DEPARTMENT,"49 LOWER LEVEL RUN, CEDARVILLE, WV 26611"
WV,county,GILMER,NORMANTOWN,6,STEER CREEK CHURCH OF CHRIST,"3466 ROSEDALE RD, NORMANTOWN, WV 25267"
WV,county,GILMER,GLENVILLE,12,KANAWHA DRIVE COMMUNITY BUILDING,"3611 WV HWY 5W, GLENVILLE, WV 26351"
WV,county,GILMER,TANNER,13,TANNER COMMUNITY BUILDING,"209 TANNER SCHOOL ROAD, TANNER, WV 26137"
WV,county,GILMER,GLENVILLE,16,GILMER COUNTY HIGH SCHOOL COMMONS AREA,"300 PINE STREET, GLENVILLE, WV 26351"
WV,county,GILMER,SAND FORK,17,SAND FORK   ELEMENTARY   SCHOOL CAFETERIA,"65 SCHOOL DRIVE, SAND FORK, WV 26430"
WV,county,GILMER,LINN,18,RICK FRAME BUILDING,"100 INDUSTRIAL PARK ROAD, LINN, WV 26384"
WV,county,GILMER,GLENVILLE,20,GILMER COUNTY HIGH SCHOOL LIBRARY,"300 PINE STREET, GLENVILLE, WV 26351"
WV,county,GILMER,GLENVILLE,24,GLENVILLE    ELEMENTARY            SCHOOL CAFETERIA,"454 VANHORN DRIVE, GLENVILLE, WV 26351"
WV,county,GILMER,TROY,27,TROY   ELEMENTARY   SCHOOL          MAIN BUILDING BASEMENT,"TROY ELEMENTARY, TROY, WV 26443"
WV,county,GILMER,COXS MILLS,31,COX'S MILLS COMMUNITY        BUILDING,"7797 WV HWY 47W, COXS MILLS, WV 26342"
WV,county,GRANT,PETERSBURG,1,PETERSBURG SENIOR CENTER,"111 VIRGINIA AVENUE, PETERSBURG, WV 26847"
WV,county,GRANT,PETERSBURG,2,COURTHOUSE COURTROOM,"5 HIGHLAND AVE, PETERSBURG, WV 26847"
WV,county,GRANT,PETERSBURG,3,SOUTH SIDE DEPOT,"126 S MAIN ST, PETERSBURG, WV 26847"
WV,county,GRANT,PETERSBURG,4,DORCAS COMMUNITY CENTER,"4055 S MILL CREEK RD, PETERSBURG, WV 26847"
WV,county,GRANT,PETERSBUG,5,LANDES RURITAN BUILDING,"5337 FRANKLIN PIKE, PETERSBUG, WV 26847"
WV,county,GRANT,PETERSBURG,6,GRANT COUNTY HEALTH DEPARTMENT,"739 N FORK HWY, PETERSBURG, WV 26847"
WV,county,GRANT,CABINS,7,CORNER CHURCH BUILDING,"115 CORNER RD, CABINS, WV 26855"
WV,county,GRANT,MAYSVILLE,8,STREBY COMMUNITY BUILDING,"33 STREBY SCHOOLHOUSE RD, MAYSVILLE, WV 26833"
WV,county,GRANT,MOUNT STORM,9,UNION HIGH SCHOOL,"84 TIGER DR, MOUNT STORM, WV 26739"
WV,county,GRANT,BAYARD,10,BAYARD FIRE HALL,"100 POTOMAC AVE, BAYARD, WV 26707"
WV,county,GRANT,MAYSVILLE,11,MAYSVILLE SCHOOL-CAFETERIA,"21 ELEMENTARY SCHOOL DR, MAYSVILLE, WV 26833"
WV,county,GRANT,PETERSBURG,12,MT CARMEL BUILDING,"2354 PATTERSON CREEK RD, PETERSBURG, WV 26847"
WV,county,GRANT,LAHMANSVILLE,13,FORMAN SCHOOL,"6973 PATTERSON CREEK RD, LAHMANSVILLE, WV 26731"
WV,county,GRANT,SCHERR,14,SCHERR SCHOOL ,"278 OLEN KIMBLE STORE RD, SCHERR, WV 26726"
WV,county,GRANT,MOUNT STORM,15,MT. TOP COMMUNITY CENTER,"8417 UNION HWY, PO BOX 161, MOUNT STORM, WV 26739"
WV,county,GRANT,MAYSVILLE,11A,MAYSVILLE SCHOOL - GYM,"21 ELEMENTARY SCHOOL DR, MAYSVILLE, WV 26833"
WV,county,GREENBRIER,,1,ANTHONYS CREEK FIRE HOUSE,"RT 92 ALVON, WV"
WV,county,GREENBRIER,,7,ASBURY COMMUNITY BUILDING,"RT 12, WV"
WV,county,GREENBRIER,ALDERSON,8,ALDERSON COM. BUILDING,"VIRGINIA ST, ALDERSON, WV"
WV,county,GREENBRIER,,14,RENICK FIRE HOUSE,"MAIN STREET, WV"
WV,county,GREENBRIER,RONCEVERTE,21,RONCEVERTE CITY HALL,"200 W MAIN ST, RONCEVERTE, WV 24970"
WV,county,GREENBRIER,LEWISBURG,23,GRB. EAST H.S.,"1 SPARTAN LANE, LEWISBURG, WV 24901"
WV,county,GREENBRIER,,24,RONCEVERTE LIONS REC. CENTER,"MAIN STREET, WV"
WV,county,GREENBRIER,FRANKFORD,29,FRANKFORD ELEM. SCHOOL,"MAIN STREET, FRANKFORD, WV"
WV,county,GREENBRIER,,31,ENON FAMILY LIFE CENTER,"VAGO, WV"
WV,county,GREENBRIER,,34,ORGAN CAVE COMM. BUILDING,"US 219, WV"
WV,county,GREENBRIER,LEWISBURG,41,COURTHOUSE,"200 NORTH COURT STREET, LEWISBURG, WV 24901"
WV,county,GREENBRIER,RICHLANDS,42,CALVARY UNITED METHODIST CHURCH,"MAIN STREET, RICHLANDS, WV"
WV,county,GREENBRIER,MAXWELTON,43,CLIFTON PRESBYTERIAN CHURCH,"PO BOX 200, MAXWELTON, WV"
WV,county,GREENBRIER,LEWISBURG,45,LWSB. UNITED METHODIST  CHURCH,"214 EAST WASHINGTON ST, LEWISBURG, WV 24901"
WV,county,GREENBRIER,LWSB. UNITED METHODIST CHRUCH,46,LWSB. UNITED METHODIST  CHURCH,"214 EAST WASHINGTON ST, LWSB. UNITED METHODIST CHRUCH, WV 24901"
WV,county,GREENBRIER,,47,SMOOT ELEM.,"GENERAL DELIVERY, WV"
WV,county,GREENBRIER,,50,LITTLE SEWELL BAPTIST CHURCH,"CRAIG RD, WV"
WV,county,GREENBRIER,CRAWLEY,51,WGMS,"374 TIMBERWOLF DRIVE, CRAWLEY, WV 24931"
WV,county,GREENBRIER,RAINELLE,52,RAINELLE ELEM.,"701 KANAWHA AVENUE, RAINELLE, WV"
WV,county,GREENBRIER,QUINWOOD,56,CRICHTON ELEMENTARY SCHOOL,"PO BOX 205, QUINWOOD, WV 25981"
WV,county,GREENBRIER,CHARMCO,63,GRB. WEST H.S.,"PO BOX 325, CHARMCO, WV 25958"
WV,county,GREENBRIER,RUPERT,64,RUPERT COMM. CENTER,"PO BOX J, RUPERT, WV"
WV,county,GREENBRIER,RAINELLE,65,RAINELLE CITY HALL,"PO BOX 684, RAINELLE, WV 25962"
WV,county,GREENBRIER,WHITE SULPHUR SPRINGS,72,WSS ELEM.,"150 REED STREET, WHITE SULPHUR SPRINGS, WV 24986"
WV,county,GREENBRIER,WHITE SULPHUR SPRINGS,73,WSS ELEM.,"150 REED STREET, WHITE SULPHUR SPRINGS, WV 24986"
WV,county,GREENBRIER,WHITE SULPHUR SPRINGS,74,WSS ELEM.,"150 REED STREET, WHITE SULPHUR SPRINGS, WV 24986"
WV,county,GREENBRIER,WHITE SULPHUR SPRING,75,WSS ELEM.,"150 REED STREET, WHITE SULPHUR SPRING, WV 24986"
WV,county,GREENBRIER,LEWISBURG,78,CLINTONVILLE COMMUNITY BUILDING,"HC 40 BOX 52, LEWISBURG, WV 24901"
WV,county,GREENBRIER,,79,WILLIAMSBURG COMM. CENTER,"GENERAL DEV. WILLIAMSBURG ROAD, WV"
WV,county,HAMPSHIRE,,2,CAPON VALLEY RURITAN CLUB,
WV,county,HAMPSHIRE,,4,CAPON BRIDGE SENIOR CENTER,
WV,county,HAMPSHIRE,,5,JOHN CORNWELL SCHOOL,
WV,county,HAMPSHIRE,,6,CAPON BRIDGE SCHOOL,
WV,county,HAMPSHIRE,PAW PAW,7,ISLAND HILL CHURCH COMMUNITY BUILDING,"RR 1 BOX 74A, PAW PAW, WV 25434"
WV,county,HAMPSHIRE,,8,SLANESVILLE FIRE COMPANY,
WV,county,HAMPSHIRE,,9,JOHN CORNWELL SCHOOL,
WV,county,HAMPSHIRE,,10,HAMP. CO. HEALTH DEPT. BLDG.,
WV,county,HAMPSHIRE,,11,SLANESVILLE RURITAN CLUB BLDG.,
WV,county,HAMPSHIRE,,12,AUGUSTA FIRE COMPANY,
WV,county,HAMPSHIRE,,14,ROMNEY FIRE COMPANY,
WV,county,HAMPSHIRE,,15,MILL CREEK RURITAN CLUB,
WV,county,HAMPSHIRE,,16,COURTHOUSE,
WV,county,HAMPSHIRE,,17,ROMNEY ELEMENTARY SCHOOL,
WV,county,HAMPSHIRE,,18,DEPT. OF MOTOR VEHICLE BLDG.,
WV,county,HAMPSHIRE,,19,DEPT. OF NATURAL RESOURCES,
WV,county,HAMPSHIRE,ROMNEY,20,ROMNEY SENIOR CENTER,"280 SCHOOL ST, ROMNEY, WV 26757"
WV,county,HAMPSHIRE,RIO,21,OLD RIO SCHOOLHOUSE,"RT 29, RIO, WV 26755"
WV,county,HAMPSHIRE,,22,AUGUSTA ELEMENTARY SCHOOL,
WV,county,HAMPSHIRE,KIRBY,23,GRASSY LICK-KIRBY COMM. CENTER,"GRASSY LICK RD, KIRBY, WV 26729"
WV,county,HAMPSHIRE,,24,HAMPSHIRE HIGH SCHOOL,
WV,county,HAMPSHIRE,,25,SPRINGFIELD ELEMENTARY SCHOOL,
WV,county,HAMPSHIRE,,26,GREEN SPRING PARK,"99 GREEN PARK ST, WV"
WV,county,HAMPSHIRE,,28,JERSEY MOUNTAIN RURITAN CLUB,
WV,county,HANCOCK,CHESTER,1,ALLISON ELEM SCHOOL,"600 RAILROAD ST-CHESTER, CHESTER, WV 26034"
WV,county,HANCOCK,CHESTER,2,CHESTER VOL FIRE DEPT,"371 CAROLINA AVE-CHESTER, CHESTER, WV 26034"
WV,county,HANCOCK,NEWELL,3,LIONS CLUB-NEWELL,"510 WASHINGTON ST-NEWELL, NEWELL, WV 26050"
WV,county,HANCOCK,CHESTER,5,LAWRENCEVILLE FIRE DEPARTMENT,"616 PYRAMUS-CHESTER, CHESTER, WV 26034"
WV,county,HANCOCK,NEW CUMBERLAND,6,HANCOCK CO SENIOR CENTER,"647 GAS VALLEY ROAD-NEW CUMBERLAND, NEW CUMBERLAND, WV 26047"
WV,county,HANCOCK,NEWELL,7,HOLIDAY INN EXPRESS,"1502 WASHINGTON ST-NEWELL, NEWELL, WV 26050"
WV,county,HANCOCK,NEW CUMBERLAND,8,NEW MANCHESTER ELEMENTARY SCHOOL,"128 FRANKFORT ROAD-NEW CUMBERLAND, NEW CUMBERLAND, WV 26047"
WV,county,HANCOCK,NEW MANCHESTER,9,NEW MANCHESTER FIRE DEPT,"193 HIGH ST-NEW MANCHESTER, NEW MANCHESTER, WV 26056"
WV,county,HANCOCK,NEW CUMBERLAND,10,NEW CUMBERLAND CITY BLDG,"104 N COURT STREET-NEW CUMBERLAND, NEW CUMBERLAND, WV 26047"
WV,county,HANCOCK,NEW CUMBERLAND,11,POINT PLEASANT CHURCH,"53 BELL HILL ROAD-NEW CUMBERLAND, NEW CUMBERLAND, WV 26047"
WV,county,HANCOCK,WEIRTON,12,OAKLAND FIRE DEPT,"1604 WYLIE RIDGE ROAD-WEIRTON, WEIRTON, WV 26062"
WV,county,HANCOCK,WEIRTON,13,GET TOGETHER PICNIC GROUNDS,"3934 KINGS CREEK ROAD-WEIRTON, WEIRTON, WV 26062"
WV,county,HANCOCK,WEIRTON,14,WEIRTON CO#1 FIRE DEPT COUNTY RD,"1500 COUNTY ROAD-WEIRTON, WEIRTON, WV 26062"
WV,county,HANCOCK,WEIRTON,16,WEIRTON SENIOR CENTER,"3424 MAIN STREET-WEIRTON, WEIRTON, WV 26062"
WV,county,HANCOCK,WEIRTON,17,MARLAND HGTS COMM CHURCH,"3900 BRIGHTWAY-WEIRTON, WEIRTON, WV 26062"
WV,county,HANCOCK,WEIRTON,18,MARLAND HGTS COMM CHURCH,"3900 BRIGHTWAY-WEIRTON, WEIRTON, WV 26062"
WV,county,HANCOCK,WEIRTON,19,HANCOCK COUNTY SHELTERED WORKSHOP,"1100 PENNSYLVANIA AVE-WEIRTON, WEIRTON, WV 26062"
WV,county,HANCOCK,WEIRTON,20,WEIR MIDDLE SCHOOL,"125 SINCLAIR AVENUE-WEIRTON, WEIRTON, WV 26062"
WV,county,HANCOCK,WEIRTON,21,WEIR HIGH SCHOOL,"100 RED RIDER ROAD, WEIRTON, WV 26062"
WV,county,HANCOCK,WEIRTON,22,IMPACT CHURCH,"300 SCHOOL STREET, WEIRTON, WV 26062"
WV,county,HANCOCK,WEIRTON,23,WEIRTON ELEMENTARY,"3428 PENNSYLVANIA AVENUE, WEIRTON, WV 26062"
WV,county,HANCOCK,WEIRTON,24,WV NORTHERN COMMUNITY COLLEGE,"150 PARK AVENUE-WEIRTON, WEIRTON, WV 26062"
WV,county,HANCOCK,WEIRTON,25,WEIRTON ELEMENTARY,"3428 PENNSYLVANIA AVENUE, WEIRTON, WV 26062"
WV,county,HANCOCK,WEIRTON,27,WEIRTON ELEMENTARY,"3428 PENNSYLVANIA AVENUE, WEIRTON, WV 26062"
WV,county,HANCOCK,WEIRTON,28,CHRIST UNITED METHODIST CHURCH,"3598 PENNSYLVANIA AVE-WEIRTON, WEIRTON, WV 26062"
WV,county,HARDY,BAKER,3,ARKANSAW COMM CENTER,"262 ARKANSAW RD, BAKER, WV 26801"
WV,county,HARDY,BAKER,5,HC EMERG AMB AUTH BLDG,"17940 STATE RD 55, BAKER, WV 26801"
WV,county,HARDY,MATHIAS,6,MATHIAS BAKER FIRE HOUSE,"12412 STATE ROAD 259, MATHIAS, WV 26812"
WV,county,HARDY,Mathias,7,MATHIAS OLD SCHOOL HOUSE,"56 Ruritan Dr, Mathias, WV 26812"
WV,county,HARDY,BAKER,15,BEAN SETTLEMENT COMM BLDG,"3031 SKAGGS RUN RD, BAKER, WV 26801"
WV,county,HARDY,OLD FIELDS,16,OLD FIELDS BAPTIST CHURCH,"5406 US HIGHWAY 220 N, OLD FIELDS, WV 26845"
WV,county,HARDY,MOOREFIELD,18,AGRICULTURE BUILDING,"60 MOOREFIELD INDUSTRIAL PARK RD, MOOREFIELD, WV 26836"
WV,county,HARDY,MOOREFIELD,19,RIG CIVIC CENTER,"3805 RIG RD, MOOREFIELD, WV 26836"
WV,county,HARDY,MOOREFIELD,20,PERU COMM CENTER,"110 PERU HOLLOW RD, MOOREFIELD, WV 26836"
WV,county,HARDY,,01A,WAR MEMORIAL BUILDING,
WV,county,HARDY,WARDENSVILLE,01B,WAR MEMORIAL BUILDING,"190 EAST MAIN ST, WARDENSVILLE, WV 26851"
WV,county,HARDY,WARDENSVILLE,02A,WARDENSVILLE VISITOR'S CENTER,"301 EAST MAIN ST, MEETING ROOM, WARDENSVILLE, WV 26851"
WV,county,HARDY,WARDENSVILLE,02B,WARDENSVILLE VISITOR'S CENTER,"301 EAST MAIN ST, MEETING ROOM, WARDENSVILLE, WV 26851"
WV,county,HARDY,,12A,COURTHOUSE,
WV,county,HARDY,MOOREFIELD,12B,COURTHOUSE,"204 WASHINGTON ST, MOOREFIELD, WV 26836"
WV,county,HARDY,,13A,TOWN OFFICE,
WV,county,HARDY,MOOREFIELD,13B,TOWN OFFICE,"206 WINCHESTER AVE, MOOREFIELD, WV 26836"
WV,county,HARDY,MOOREFIELD,14A,MOOREFIELD LIBRARY,"102 N MAIN ST, MOOREFIELD, WV 26836"
WV,county,HARDY,,14B,MOOREFIELD LIBRARY,
WV,county,HARRISON,CLARKSBURG,1,HC RECREATIONAL COMPLEX & 4-H CENTER,"43 RECREATION DR, CLARKSBURG, WV 26301"
WV,county,HARRISON,MT CLARE,2,MT CLARE VOLUNTEER FIRE DEPT,"19 MATHENEY HOLLOW RD, MT CLARE, WV 26408"
WV,county,HARRISON,STONEWOOD,4,NORWOOD GRADE SCHOOL,"208 KIDD AVE, STONEWOOD, WV 26301"
WV,county,HARRISON,STONEWOOD,5,STONEWOOD TOWN HALL,"112 SOUTHERN AVE, STONEWOOD, WV 26301"
WV,county,HARRISON,NUTTER FORT,6,NUTTER FORT ELEMENTARY,"1302 BUCKHANNON PIKE, NUTTER FORT, WV 26301"
WV,county,HARRISON,CLARKSBURG,9,EAST CLARKSBURG BAPTIST CHURCH,"1225 E MAIN ST, CLARKSBURG, WV 26301"
WV,county,HARRISON,CLARKSBURG,10,EAST VIEW PSD,"629 PHILIPPI PIKE, CLARKSBURG, WV 26301"
WV,county,HARRISON,CLARKSBURG,14,BOARD OF EDUCATION BLDG,"408 E B SAUNDERS WAY, CLARKSBURG, WV 26301"
WV,county,HARRISON,CLARKSBURG,19,NOTRE DAME HIGH GYM,"127 E PIKE ST, CLARKSBURG, WV 26301"
WV,county,HARRISON,CLARKSBURG,28,SALVATION ARMY ACTIVITIES CNTR,"1000 SOUTH CHESTNUT ST, CLARKSBURG, WV 26301"
WV,county,HARRISON,CLARKSBURG,33,DUFF ST METH. CHURCH ED BLDG,"401 DUFF AVE, CLARKSBURG, WV 26301"
WV,county,HARRISON,CLARKSBURG,34,DUFF ST METH. CHURCH ED BLDG,"401 DUFF AVE, CLARKSBURG, WV 26301"
WV,county,HARRISON,FAIRMONT,43,COON'S RUN BAPTIST CHURCH,"2142 ADAMSVILLE RD, FAIRMONT, WV 26431"
WV,county,HARRISON,Shinnston,44,BETHLEHEM PRESBYTERIAN CHURCH,"Rt 2, (Bethlehem), Shinnston, WV 26431"
WV,county,HARRISON,Bridgeport,45,SALTWELL RD CHURCH,"Rt 2 Box 129, (Saltwell Rd), Bridgeport, WV 26330"
WV,county,HARRISON,SHINNSTON,46,LINCOLN HIGH SCHOOL,"100 JERRY TOTH DR, SHINNSTON, WV 26431"
WV,county,HARRISON,SHINNSTON,48,BIG ELM ELEMENTARY,"200 TETRICK RD, SHINNSTON, WV 26431"
WV,county,HARRISON,SHINNSTON,50,ST ANN'S PARISH HALL,"610 PIKE ST, SHINNSTON, WV 26431"
WV,county,HARRISON,SHINNSTON,51,WOMENS CLUB HOUSE,"40 BRIDGE STREET, SHINNSTON, WV 26431"
WV,county,HARRISON,SHINNSTON,52,LINCOLN HIGH SCHOOL,"100 JERRY TOTH DR, SHINNSTON, WV 26431"
WV,county,HARRISON,SHINNSTON,53,OTTERBEIN UM CHURCH,"800 CLARK ST, SHINNSTON, WV 26431"
WV,county,HARRISON,REYNOLDSVILLE,59,REYNOLDSVILLE BAPTIST CHURCH,"WILSONBURG RD, REYNOLDSVILLE, WV 26422"
WV,county,HARRISON,CLARKSBURG,61,WILSONBURG GRADE SCHOOL,"1040 WILSONBURG RD, CLARKSBURG, WV 26301"
WV,county,HARRISON,CLARKSBURG,62,ALTERNATIVE LEARNING CENTER,"1349 SHINNSTON PIKE, CLARKSBURG, WV 26301"
WV,county,HARRISON,SPELTER,63,SPELTER FIRE DEPARTMENT,"55 B STREET, SPELTER, WV 26438"
WV,county,HARRISON,CLARKSBURG,66,HENDERSON CENTER,"284 FACTORY ST, (SUMMIT PARK), CLARKSBURG, WV 26301"
WV,county,HARRISON,CLARKSBURG,68,KNIGHTS OF COLUMBUS,"334 EAST PIKE ST, CLARKSBURG, WV 26301"
WV,county,HARRISON,CLARKSBURG,74,UNITED METHODIST TEMPLE,"665 LOCUST AVE, CLARKSBURG, WV 26301"
WV,county,HARRISON,CLARKSBURG,78,EMMANUEL BAPTIST CHURCH,"1318 N 16TH ST, CLARKSBURG, WV 26301"
WV,county,HARRISON,CLARKSURG,80,ST JAMES SCHOOL GYM,"1300 N 21ST ST, CLARKSURG, WV 26301"
WV,county,HARRISON,CLARKSBURG,82,ADAMSTON ELEMENTARY,"1636 W PIKE ST, CLARKSBURG, WV 26301"
WV,county,HARRISON,CLARKSBURG,87,CHRISTIAN APOSTOLIC CHURCH,"334 GLEN FALLS RD, (ARLINGTON), CLARKSBURG, WV 26301"
WV,county,HARRISON,LUMBERPORT,92,LUMBERPORT COMMUNITY CENTER,"121 GEORGE ST, LUMBERPORT, WV 26386"
WV,county,HARRISON,LUMBERPORT,95,TEN MILE BAPTIST CHURCH,"ROUTE 20, LUMBERPORT, WV 26386"
WV,county,HARRISON,LUMBERPORT,96,LUMBERPORT BAPTIST CHURCH,"1403 MAIN ST, LUMBERPORT, WV 26386"
WV,county,HARRISON,SHINNSTON,98,PINE BLUFF  COMMUNITY BUILDING,"Rt 1, (Pine Bluff), SHINNSTON, WV 26431"
WV,county,HARRISON,MT CLARE,102,QUIET DELL METHODIST CHURCH,"96 TRINITY RD, MT CLARE, WV 26408"
WV,county,HARRISON,LOST CREEK,103,MONROE CHAPEL,"BISETOWN RD, ROMINES MILLS, LOST CREEK, WV 26385"
WV,county,HARRISON,Lost Creek,104,JOHNSTOWN COMMUNITY CNTR,"Rt 2 Box 215, Lost Creek, WV 26385"
WV,county,HARRISON,MT CLARE,106,MT CLARE UNITED METHODIST CHURCH,"MT CLARE RD, MT CLARE, WV 26408"
WV,county,HARRISON,LOST CREEK,107,LOST CREEK COMMUNITY BLDG,"104 RAILROAD ST, LOST CREEK, WV 26385"
WV,county,HARRISON,LOST CREEK,108,LOST CREEK COMMUNITY BLDG,"104 RAILROAD ST, LOST CREEK, WV 26385"
WV,county,HARRISON,LOST CREEK,110,SOUTH HARRISON HIGH SCHOOL,"3073 HAWK HIGHWAY, LOST CREEK, WV 26385"
WV,county,HARRISON,Clarksburg,114,SARDIS COMMUNITY BUILDING,"Rt 4 Box 188, (Sardis), Clarksburg, WV 26301"
WV,county,HARRISON,WALLACE,118,WALLACE UNITED METHODIST CHURCH,"56 MIDDLEBOURNE RD, WALLACE, WV 26448"
WV,county,HARRISON,ANMOORE,120,ANMOORE METHODIST CHURCH,"S ASH & PLAINWOOD AVE, ANMOORE, WV 26323"
WV,county,HARRISON,ANMMORE,121,ANMOORE CITY BUILDING,"515 W MAIN ST, ANMMORE, WV 26323"
WV,county,HARRISON,BRIDGEPROT,122,HERITAGE CHRISTIAN SCHOOL,"225 NEWTON AVE, BRIDGEPROT, WV 26330"
WV,county,HARRISON,BRIDGEPORT,123,SIMPSON CREEK BAPTIST(Youth Bldg),"231 WEST PHILA AVE, BRIDGEPORT, WV 26330"
WV,county,HARRISON,BRIDGEPORT,125,SIMPSON GRADE SCHOOL,"250 WORTHINGTON DR, BRIDGEPORT, WV 26330"
WV,county,HARRISON,BRIDGEPORT,126,JOHNSON GRADE SCHOOL,"531 JOHNSON AVE, BRIDGEPORT, WV 26330"
WV,county,HARRISON,BRIDGEPORT,128,MAPLE LAKE CLUB HOUSE,"Rt 50 East, BRIDGEPORT, WV 26330"
WV,county,HARRISON,BRIDGEPORT,129,BRIDGEPORT HIGH HOME EC RM,"515 JOHNSON AVE, BRIDGEPORT, WV 26330"
WV,county,HARRISON,SALEM,130,SALEM UNITED METHODIST CHURCH,"260 E MAIN ST, SALEM, WV 26426"
WV,county,HARRISON,SALEM,132,SEVENTH DAY BAPTIST CHURCH,"171 E MAIN ST, SALEM, WV 26426"
WV,county,HARRISON,Bristol,133,LAKE FLOYD CLUB HOUSE GR FLOOR,"Rt 2 Box 104AA, Bristol, WV 26332"
WV,county,HARRISON,JARVISVILLE,134,COPLIN UNITED METHODIST CHURCH,"JARVISVILLE RD, JARVISVILLE, WV"
WV,county,HARRISON,Salem,135,MARSHVILLE COMMUNITY CNTR,"Rt 4 Box 1240, Salem, WV 26426"
WV,county,HARRISON,SALEM,136,VAN HORN ANNEX BLDG,"229 W MAIN ST, SALEM, WV 26426"
WV,county,HARRISON,SALEM,137,VAN HORN ANNEX BLDG,"229 W MAIN ST, SALEM, WV 26426"
WV,county,HARRISON,Lost Creek,143,NEW BETHEL METHODIST CHURCH,"Rt 1 Box 157, (Rt 19 Good Hope), Lost Creek, WV 26385"
WV,county,HARRISON,WEST MILFORD,144,WEST MILFORD COMMUNITY CENTER,"925 LIBERTY ST, WEST MILFORD, WV 26451"
WV,county,HARRISON,Clarksburg,145,SYCAMORE UNITED METHODIST CHURCH,"Rt 1 Box 542, (Sycamore), Clarksburg, WV 26301"
WV,county,HARRISON,BRIDGEPORT,129B,BRIDGEPORT HIGH CAFETERIA,"515 JOHNSON AVE, BRIDGEPORT, WV 26330"
WV,county,HARRISON,BRIDGEPORT,129C,JOHNSON GRADE SCHOOL,"531 JOHNSON AVE, BRIDGEPORT, WV 26330"
WV,county,HARRISON,WEST MILFORD,144A,WEST MILFORD COMMUNITY CENTER,"925 LIBERTY ST, WEST MILFORD, WV 26451"
WV,county,HARRISON,CLARKSBURG,36A,OAKMOUND APARTMENTS,"1100 OAKMOUND DR, CLARKSBURG, WV 26301"
WV,county,JACKSON,RAVENSWOOD,1,MILHOAN-COLEMAN CHAPEL CHURCH ACT. BLDG,"200 MILHOAN RIDGE RD, RAVENSWOOD, WV 26164"
WV,county,JACKSON,RAVENSWOOD,2,RARDIN - LITTLE SANDY COMMUNITY BUILDING,"6051 LITTLE SANDY RD, RAVENSWOOD, WV 26164"
WV,county,JACKSON,SANDYVILLE,3,LYNN VALLEY/ODAVILLE-GILMORE GRADE SCHOOL,"7412 PARKERSBURG RD, SANDYVILLE, WV 25275"
WV,county,JACKSON,RAVENSWOOD,4,TURKEY RUN-RAVENSWOOD MIDDLE SCHOOL-SYCAMORE ST,"409 SYCAMORE ST, RAVENSWOOD, WV 26164"
WV,county,JACKSON,RAVENSWOOD,5,COUNCIL CHMBR/DINING RM-COMM.BLDG-MULBERRY ST,"300 HENRIETTA ST, RAVENSWOOD, WV 26164"
WV,county,JACKSON,RAVENSWOOD,6,N. RAVENSWOOD-HENRY J. KAISER ELEM. SCHOOL,"803 KAISER AVE, RAVENSWOOD, WV 26164"
WV,county,JACKSON,RAVENSWOOD,7,HIGH SCHOOL-RAVENSWOOD H S CAFETERIA,"1 PLAZA DR, RAVENSWOOD, WV 26164"
WV,county,JACKSON,RAVENSWOOD,8,OLD HIGH SCHOOL - RAVENSWOOD MIDDLE SCHOOL,"409 SYCAMORE ST, RAVENSWOOD, WV 26164"
WV,county,JACKSON,RAVENSWOOD,9,SCHOOL HOUSE - SUNSHINE SCHOOL,"409 SYCAMORE ST, RAVENSWOOD, WV 26164"
WV,county,JACKSON,RAVENSWOOD,10,SILVERTON - SILVERTON FIRE DEPARTMENT,"3562 GREENHILLS RD, RAVENSWOOD, WV 26164"
WV,county,JACKSON,SANDYVILLE,11,SANDYVILLE - GILMORE GRADE SCHOOL,"7412 PARKERSBURG RD, SANDYVILLE, WV 25275"
WV,county,JACKSON,MILLWOOD,12,OHIO VALLEY - JACKSON COUNTY AIRPORT,"912 AIRPORT RD, MILLWOOD, WV 25262"
WV,county,JACKSON,RAVENSWOOD,13,HEMLOCK/EASTWOOD-EASTWOOD SCHOOL,"1 GRADE SCHOOL RD, RAVENSWOOD, WV 26164"
WV,county,JACKSON,COTTAGEVILLE,14,MT ALTO - COTTAGEVILLE FIRE DEPARTMENT,"15 FIREHOUSE LN, COTTAGEVILLE, WV 25239"
WV,county,JACKSON,COTTAGEVILLE,15,COTTAGEVILLE-COTTAGEVILLE GRADE SCHOOL,"270 2ND ST, COTTAGEVILLE, WV 25239"
WV,county,JACKSON,EVANS,16,EVANS - EVANS ELEMENTARY SCHOOL,"205 SCHOOL HOUSE DR, EVANS, WV 25241"
WV,county,JACKSON,RIPLEY,17,SYCAMORE - RIPLEY MIDDLE SCHOOL,"1 WEST SCHOOL ST, RIPLEY, WV 25271"
WV,county,JACKSON,RIPLEY,18,GIVEN/ROCKCASTLE/FAIRPLAIN ELEMENTARY ,"51 PANTHER DR, RIPLEY, WV 25271"
WV,county,JACKSON,RIPLEY,19,WEST FAIRPLAIN - FAIRPLAIN ELEMENTARY SCHOOL,"51 PANTHER DR, RIPLEY, WV 25271"
WV,county,JACKSON,RIPLEY,20,COURTHOUSE-JACKSON COUNTY COURTHOUSE,"100 COURT ST, RIPLEY, WV 25271"
WV,county,JACKSON,RIPLEY,21,SCHOOLHOUSE-RIPLEY CITY BLDG-DWNSTAIRS,"203 S CHURCH ST, RIPLEY, WV 25271"
WV,county,JACKSON,RIPLEY,22,HIGH SCHOOL - RIPLEY HIGH SCHOOL,"2 E SCHOOL ST, RIPLEY, WV 25271"
WV,county,JACKSON,RIPLEY,23,ROLLINS - RIPLEY CITY BUILDING - UPSTAIRS,"203 S CHURCH ST, RIPLEY, WV 25271"
WV,county,JACKSON,RIPLEY,24,MILL CREEK - RIPLEY HIGH SCHOOL ANNEX,"2 E SCHOOL ST, RIPLEY, WV 25271"
WV,county,JACKSON,LEROY,25,BAPTIST GROVE - ROANE- JACKSON TECH. CENTER,"9450 SPENCER RD, LEROY, WV 25252"
WV,county,JACKSON,GAY,26,GAY - COMMUNITY CENTER OF GAY,"1082 FAIRVIEW RD, GAY, WV 25244"
WV,county,JACKSON,RIPLEY,27,FAIRPLAIN - FAIRPLAIN ELEMENTARY SCHOOL,"51 PANTHER DR, RIPLEY, WV 25271"
WV,county,JACKSON,RIPLEY,28,STATTS MILL-SINIAVILLE METHODIST CHURCH BASEMENT,"5454 STATTS MILL RD, RIPLEY, WV 25271"
WV,county,JACKSON,KENNA,29,KENNA - KENNA ELEMENTARY SCHOOL,"275 BUSINESS PARK DR, KENNA, WV 25248"
WV,county,JACKSON,KENNA,30,BELGROVE/KENTUCK STAR-KENTUCK COMM. BLDG,"5257 KENTUCK RD, KENNA, WV 25248"
WV,county,JACKSON,KENNA,31,DUDEON/GOFF-PLEASANT VIEW CHURCH ACT. BLDG,"3398 FISHER RIDGE RD, KENNA, WV 25248"
WV,county,JEFFERSON,CHARLES TOWN,2,WRIGHT DENNY ELEMENTARY SCHOOL,"209 W CONGRESS ST, CHARLES TOWN, WV 25414"
WV,county,JEFFERSON,CHARLES TOWN,3,CHARLES TOWN BAPTIST CHURCH,"203 E CONGRESS ST, CHARLES TOWN, WV 25414"
WV,county,JEFFERSON,RANSON,6,SENIOR CENTER,"103 W 5TH AVE, RANSON, WV 25438"
WV,county,JEFFERSON,RANSON,7,RANSON ELEMENTARY SCHOOL,"600 N PRESTON ST, RANSON, WV 25438"
WV,county,JEFFERSON,SHENANDOAH JCT,12,JEFFERSON HIGH SCHOOL,"4141 FLOWING SPRINGS RD, SHENANDOAH JCT, WV 25442"
WV,county,JEFFERSON,HARPERS FERRY,13,CW SHIPLEY ELEMENTARY SCHOOL,"652 SHIPLEY SCHOOL RD, HARPERS FERRY, WV 25425"
WV,county,JEFFERSON,HARPERS FERRY,14,CAMP HILL WESLEY UNITED METHOD,"645 WASHINGTON ST, HARPERS FERRY, WV 25425"
WV,county,JEFFERSON,HARPERS FERRY,15,HARPERS FERRY MIDDLE SCHOOL,"1710 W WASHINGTON ST, HARPERS FERRY, WV 25425"
WV,county,JEFFERSON,CHARLES TOWN,16,OAKLAND METHODIST CHURCH,"70 OAKLAND TER, CHARLES TOWN, WV 25414"
WV,county,JEFFERSON,HARPERS FERRY,17,BLUE RIDGE MOUNTAIN FIRE HALL,"181 KEYES GAP RD, HARPERS FERRY, WV 25425"
WV,county,JEFFERSON,CHARLES TOWN,19,CHARLES TOWN MIDDLE SCHOOL,"193 HIGH STREET, CHARLES TOWN, WV 25414"
WV,county,JEFFERSON,CHARLES TOWN,20,KABLETOWN METHODIST CHURCH,"3481 KABLETOWN RD, CHARLES TOWN, WV 25414"
WV,county,JEFFERSON,SUMMIT POINT,22,SUMMIT POINT BAPTIST CHURCH,"96 HAWTHORNE AVE, SUMMIT POINT, WV 25446"
WV,county,JEFFERSON,CHARLES TOWN,24,WASHINGTON HIGH SCHOOL,"300 WASHINGTON PATRIOTS DR, CHARLES TOWN, WV 25414"
WV,county,JEFFERSON,KEARNEYSVILLE,26,LEETOWN METHODIST CHURCH,"11133 LEETOWN RD, KEARNEYSVILLE, WV 25430"
WV,county,JEFFERSON,KEARNEYSVILLE,27,NORTH JEFFERSON ELEMENTARY,"6996 CHARLES TOWN RD, KEARNEYSVILLE, WV 25430"
WV,county,JEFFERSON,RANSON,28,FIRST BAPTIST CHURCH,"614 LONE OAK RD, RANSON, WV 25438"
WV,county,JEFFERSON,SHENANDOAH JCT,29,TA LOWERY ELEMENTARY,"103 SHENANDOAH JCT RD, SHENANDOAH JCT, WV 25442"
WV,county,JEFFERSON,SHEPHERDSTOWN,31,COVENANT BAPTIST CHURCH,"7485 SHEPHERDSTOWN PIKE, SHEPHERDSTOWN, WV 25443"
WV,county,JEFFERSON,BAKERTON,32,BAKERTON METHODIST CHURCH,"855 CARTER AVE, BAKERTON, WV 25410"
WV,county,JEFFERSON,SHEPHERDSTOWN,33,TRINITY EPISCOPAL CHURCH,"208 W GERMAN ST, SHEPHERDSTOWN, WV 25443"
WV,county,JEFFERSON,SHEPHERDSTOWN,34,SHEPHERDSTOWN ELEMENTARY,"662 S CHURCH ST, SHEPHERDSTOWN, WV 25443"
WV,county,JEFFERSON,SHENANDOAH JCT,04A,FELLOWSHIP BIBLE CHURCH,"160 DANIEL RD, SHENANDOAH JCT, WV 25442"
WV,county,JEFFERSON,SHENANDOAH JCT,04B,FELLOWSHIP BIBLE CHURCH,"160 DANIEL RD, SHENANDOAH JCT, WV 25442"
WV,county,JEFFERSON,HARPERS FERRY,21A,BLUE RIDGE ELEMENTARY SCHOOL,"18866 CHARLES TOWN RD, HARPERS FERRY, WV 25425"
WV,county,JEFFERSON,HARPERS FERRY,21B,BLUE RIDGE ELEMENTARY SCHOOL,"18866 CHARLES TOWN RD, HARPERS FERRY, WV 25425"
WV,county,JEFFERSON,KEARNEYSVILLE,23A,JEFFERSON ACADEMY ,"449 ROSE HILL DR, KEARNEYSVILLE, WV 25430"
WV,county,JEFFERSON,KEARNEYSVILLE,23B,JEFFERSON ACADEMY,"449 ROSE HILL DR, KEARNEYSVILLE, WV 25430"
WV,county,JEFFERSON,SUMMIT POINT,25A,SOUTH JEFFERSON ELEMENTARY,"4599 SUMMIT POINT RD, SUMMIT POINT, WV 25446"
WV,county,JEFFERSON,SUMMIT POINT,25B,SOUTH JEFFERSON ELEMENTARY,"4599 SUMMIT POINT RD, SUMMIT POINT, WV 25446"
WV,county,JEFFERSON,SHEPHERDSTOWN,35A,SHEPHERDSTOWN FIRE HALL,"8052 MARTINSBURG PIKE, SHEPHERDSTOWN, WV 25443"
WV,county,JEFFERSON,SHEPHERDSTOWN,35B,SHEPHERDSTOWN FIRE HALL,"8052 MARTINSBURG PIKE, SHEPHERDSTOWN, WV 25443"
WV,county,KANAWHA,LONDON,103,WASH. HIGH COMM CNTR,"RT.61, LONDON, WV 25126"
WV,county,KANAWHA,GLASGOW,105,GLASGOW CITY HALL,"129 4TH AVE, GLASGOW, WV 25086"
WV,county,KANAWHA,CEDAR GROVE,106,CEDAR GROVE COMM. SCHOOL,"DRAWER J, CEDAR GROVE, WV 25039"
WV,county,KANAWHA,MAMMOTH,108,MAMMOTH ADVENT CHRISTIAN CHURCH,"PO BOX 136, MAMMOTH, WV 25012"
WV,county,KANAWHA,CHARLESTON,109,LOUDENDALE COMMUNITY CENTER,"RT 2 BOX 266 B, CHARLESTON, WV 25314"
WV,county,KANAWHA,DIAMOND,110,MIDLAND TRAIL ELEM. SCHOOL,"200 FERRY ST, DIAMOND, WV 25015"
WV,county,KANAWHA,BELLE,111,BELLE ELEMENTARY,"401 E 6TH ST, BELLE, WV 25015"
WV,county,KANAWHA,BELLE,112,BELLE ELEMENTARY,"401 E 6TH ST, BELLE, WV"
WV,county,KANAWHA,BELLE,114,DUPONT MIDDLE SCHOOL,"301 WEST 34TH ST, BELLE, WV 25015"
WV,county,KANAWHA,CHARLESTON,115,RAND COMMUNITY CENTER,"5701 CHURCH DR, CHARLESTON, WV 25306"
WV,county,KANAWHA,CHARLESTON,117,MALDEN ELEMENTARY,"4001 SALINAS DR, CHARLESTON, WV 25306"
WV,county,KANAWHA,TAD,118,MARY INGLES ELEMENTARY,"P O BOX 367, TAD, WV 25201"
WV,county,KANAWHA,TAD,119,MARY INGLES ELEM,"P O BOX 367, TAD, WV 25201"
WV,county,KANAWHA,TAD,120,MARY INGLES ELEM,"P O BOX 367, TAD, WV 25201"
WV,county,KANAWHA,CHARLESTON,123,MALDEN ELEMENTARY,"4001 SALINAS DR, CHARLESTON, WV 25306"
WV,county,KANAWHA,MONTGOMERY,131,MONTGOMERY CITY HALL,"706 3RD AVE, MONTGOMERY, WV 25136"
WV,county,KANAWHA,HANDLEY,133,HANDLEY COMMUNITY BLDG.,"27506 2ND. AVENUE, HANDLEY, WV 25102"
WV,county,KANAWHA,PRATT,134,PRATT TOWN HALL,"PO BOX 128, PRATT, WV 25162"
WV,county,KANAWHA,PRATT,136,PRATT ELEMENTARY SCHOOL,"P O BOX 36, PRATT, WV 25162"
WV,county,KANAWHA,EAST BANK,138,EAST BANK MIDDLE SCHOOL,"P O BOX 499, EAST BANK, WV 25067"
WV,county,KANAWHA,ESKDALE,140,CABIN CREEK VOL. FIRE DEPT.,"PO BOX 295, ESKDALE, WV 25075"
WV,county,KANAWHA,MIAMI,142,SHARON DAWES ELEMENTARY,"P O BOX 149, MIAMI, WV 25134"
WV,county,KANAWHA,DRY BRANCH,145,FREEWILL BAPTIST CHURCH,"PO BOX 28, CHURCH ACTIVITIES BLDG., DRY BRANCH, WV 25061"
WV,county,KANAWHA,"CHELYAN,",147,Chelyan Methodist Church,"105 CHURCH STREET, CHELYAN,, WV 25305"
WV,county,KANAWHA,WINIFREDE,148,OLD GLORY FREEWILL BAPTIST C.,"LADIES AUXILIARY BLDG., WINIFREDE, WV 25214"
WV,county,KANAWHA,CHESAPEAKE,149,CHESAPEAKE ELEMENTARY,"13620 MACCORKLE AVE, CHESAPEAKE, WV 25315"
WV,county,KANAWHA,CHESAPEAKE,150,CHESAPEAKE CITY HALL,"12404 MACCORKLE AVE, CHESAPEAKE, WV 25315"
WV,county,KANAWHA,CHESAPEAKE,151,CHESAPEAKE CITY HALL,"12404 MACCORKLE AVE, CHESAPEAKE, WV 25315"
WV,county,KANAWHA,MARMET,152,MARMET RECREATION BUILDING,"8405 MACCORKLE AVE, MARMET, WV 25315"
WV,county,KANAWHA,HERNSHAW,158,HERNSHAW METHODIST CHURCH,"2827 LENS CREEK RD, HERNSHAW, WV"
WV,county,KANAWHA,CHARLESTON,160,KANAWHA CITY ELEMENTARY,"3601 STAUNTON AVE, CHARLESTON, WV 25304"
WV,county,KANAWHA,CHARLESTON,161,HORACE MANN MIDDLE SCHOOL,"4302 MACCORKLE AVE , CHARLESTON, WV 25304"
WV,county,KANAWHA,CHARLESTON,163,HORACE MANN MIDDLE SCHOOL,"4302 MACCORKLE AVE , CHARLESTON, WV 25304"
WV,county,KANAWHA,CHARLESTON,164,CHAMBERLAIN ELEMENTARY,"4901 VENABLE AVE, CHARLESTON, WV 25304"
WV,county,KANAWHA,CHARLESTON,165,CHAMBERLAIN ELEMENTARY,"4901 VENABLE AVE, CHARLESTON, WV 25304"
WV,county,KANAWHA,CHARLESTON,166,MARTIN LUTHER KING COMMUNITY CENTER,"22 DONNALLY STREET, CHARLESTON, WV 25301"
WV,county,KANAWHA,CHARLESTON,167,KANAWHA CHAS. HEALTH DEPT,"108 LEE ST E, CHARLESTON, WV 25301"
WV,county,KANAWHA,CHARLESTON,168,GARNET ADULT CENTER,"422 DICKINSON ST, CHARLESTON, WV 25301"
WV,county,KANAWHA,CHARLESTON,169,PIEDMONT ELEMENTARY,"203 BRADFORD ST, CHARLESTON, WV 25301"
WV,county,KANAWHA,CHARLESTON,170,TERRACE PARK EAST,"2106 KANAWHA BLVD, CHARLESTON, WV 25311"
WV,county,KANAWHA,CHARLESTON,172,GARNET ADULT CENTER,"422 DICKINSON ST, CHARLESTON, WV 25301"
WV,county,KANAWHA,CHARLESTON,174,CARROLL TERRACE,"1546 KANAWHA BLVD, CHARLESTON, WV 25311"
WV,county,KANAWHA,CHARLESTON,175,RUFFNER ELEMENTARY,"809 LITZ DR, CHARLESTON, WV 25311"
WV,county,KANAWHA,CHARLESTON,178,RUFFNER ELEMENTARY,"809 LITZ DR, CHARLESTON, WV 25311"
WV,county,KANAWHA,CHARLESTON,179,RUFFNER ELEMENTARY,"809 LITZ DR, CHARLESTON, WV 25311"
WV,county,KANAWHA,SO CHARLESTON,202,RUTHLAWN ELEMENTARY,"RT 8 BOX 428, SO CHARLESTON, WV 25309"
WV,county,KANAWHA,SO CHARLESTON,203,RUTHLAWN ELEMENTARY,"RT 8 BOX 428, SO CHARLESTON, WV 25309"
WV,county,KANAWHA,SO CHARLESTON,205,ALUM CREEK ELEMENTARY,"RT 7 BOX 279 A, SO CHARLESTON, WV 25309"
WV,county,KANAWHA,CHARLESTON,207,KENNA ELEMENTARY,"198 EUREKA RD, CHARLESTON, WV 25314"
WV,county,KANAWHA,CHARLESTON,208,WEBERWOOD FIRE STATION,"1121 WEBERWOOD DRIVE, CHARLESTON, WV 25303"
WV,county,KANAWHA,SO CHARLESTON,217,SOUTH CHARLESTON CITY ANNEX,"D ST, SO CHARLESTON, WV 25303"
WV,county,KANAWHA,SO CHARLESTON,223,FIRST UNITED METHODIST CHURCH,"905 GLENDALE AVE, SO CHARLESTON, WV 25303"
WV,county,KANAWHA,SO CHARLESTON,226,FIRST UNITED METHODIST CHURCH,"905 GLENDALE AVE, SO CHARLESTON, WV 25303"
WV,county,KANAWHA,SO CHARLESTON,227,MONTROSE ELEMENTARY,"631 MONTROSE DR, SO CHARLESTON, WV 25303"
WV,county,KANAWHA,SO CHARLESTON,233,WEBERWOOD ELEMENTARY,"732 GORDON DR, SO CHARLESTON, WV 25303"
WV,county,KANAWHA,SO CHARLESTON,234,WEBERWOOD ELEMENTARY,"732 GORDON DR, SO CHARLESTON, WV 25303"
WV,county,KANAWHA,CHARLESTON,238,OVERBROOK ELEMENTARY,"218 OAKWOOD RD, CHARLESTON, WV 25314"
WV,county,KANAWHA,CHARLESTON,239,OVERBROOK ELEMENTARY,"218 OAKWOOD RD, CHARLESTON, WV 25314"
WV,county,KANAWHA,CHARLESTON,240,GEORGE WASHINGTON HIGH,"1522 TENNIS CLUB RD, CHARLESTON, WV 25314"
WV,county,KANAWHA,CHARLESTON,241,GEORGE WASHINGTON HIGH,"1522 TENNIS CLUB RD, CHARLESTON, WV 25314"
WV,county,KANAWHA,CHARLESTON,244,ST.MATHEWS EPISCOPAL CHURCH,"36 NORWOOD RD, CHARLESTON, WV 25314"
WV,county,KANAWHA,CHARLESTON,246,OVERBROOK ELEMENTARY,"218 OAKWOOD RD, CHARLESTON, WV 25314"
WV,county,KANAWHA,CHARLESTON,247,ELIZABETH MEM. METHODIST,"108 OAKWOOD RD, CHARLESTON, WV 25314"
WV,county,KANAWHA,CHARLESTON,253,HOLZ ELEMENTARY,"1505 HAMPTON RD, CHARLESTON, WV 25314"
WV,county,KANAWHA,CHARLESTON,254,HOLZ ELEMENTARY,"1505 HAMPTON RD, CHARLESTON, WV 25314"
WV,county,KANAWHA,CHARLESTON,258,KANAWHA CITY ELEMENTARY,"3601 STAUNTON AVE, CHARLESTON, WV 25304"
WV,county,KANAWHA,CHARLESTON,260,KANAWHA CITY ELEMENTARY,"3601 STAUNTON AVE, CHARLESTON, WV 25304"
WV,county,KANAWHA,ST ALBANS,276,JEFFERSON VOL FIRE DEPT,"6313 MACCORKLE AVE, ST ALBANS, WV 25177"
WV,county,KANAWHA,CHARLESTON,277,KENNA ELEMENTARY,"198 EUREKA RD, CHARLESTON, WV 25314"
WV,county,KANAWHA,ST ALBANS,278,MCKINLEY JR HIGH,"3000 KANAWHA TERRACE, ST ALBANS, WV 25177"
WV,county,KANAWHA,CHARLESTON,279,KENNA ELEMENTARY,"198 EUREKA RD, CHARLESTON, WV 25314"
WV,county,KANAWHA,SO CHARLESTON,280,MOUNTAIN HEIGHTS CHURCH,"1201 CHESTNUT ST, SO CHARLESTON, WV 25309"
WV,county,KANAWHA,SO CHARLESTON,281,BRIDGEVIEW ELEMENTARY,"5100 OHIO ST, SO CHARLESTON, WV 25309"
WV,county,KANAWHA,SO CHARLESTON,282,ROCK LAKE PRESBY CHURCH,"905 VILLAGE DR, SO CHARLESTON, WV 25309"
WV,county,KANAWHA,SO CHARLESTON,283,SOUTH CHARLESTON SANITARY BD,"1 ROCKCREST DR, SO CHARLESTON, WV 25309"
WV,county,KANAWHA,SO CHARLESTON,285,PARKLAND TERRACE COMM. BLDG,"508 GREENWAY AVE, SO CHARLESTON, WV 25309"
WV,county,KANAWHA,SO CHARLESTON,286,RICHMOND ELEMENTARY,"4620 SPRING HILL AVE, SO CHARLESTON, WV 25309"
WV,county,KANAWHA,SO CHARLESTON,287,"SO CHAS., COMM. CENTER","601 JEFFERSON RD, SO CHARLESTON, WV 25309"
WV,county,KANAWHA,SO CHARLESTON,288,KENNA HOMES COMM. CENTER,"410 KENNA DR, SO CHARLESTON, WV 25309"
WV,county,KANAWHA,DUNBAR,289,DUNBAR MIDDLE SCHOOL,"325 27TH ST, DUNBAR, WV 25064"
WV,county,KANAWHA,DUNBAR,290,DUNBAR CITY HALL,"12TH ST, DUNBAR, WV 25064"
WV,county,KANAWHA,DUNBAR,291,DUNBAR MIDDLE SCHOOL,"325 27TH ST, DUNBAR, WV 25064"
WV,county,KANAWHA,DUNBAR,292,DUNBAR RECREATION BUILDING,"2601 FAIRLAWN AVE, DUNBAR, WV 25064"
WV,county,KANAWHA,DUNBAR,294,SPIRIT LIFE FELLOWSHIP,"137 6TH ST, DUNBAR, WV 25064"
WV,county,KANAWHA,,295,ROXALANA GOSPEL TAB. ACTIVITY BLDG.,"STEELE ST, WV"
WV,county,KANAWHA,,296,ROXALANA GOSPEL TAB. ACTIVITY BLDG.,"STEELE ST, WV"
WV,county,KANAWHA,CHARLESTON,297,NORTH CHARLESTON REC. CENTER,"2009 7TH  AVE, CHARLESTON, WV 25312"
WV,county,KANAWHA,CHARLESTON,298,GRANDVIEW ELEMENTARY,"959 WOODWARD DR, CHARLESTON, WV 25312"
WV,county,KANAWHA,ST ALBANS,302,ANNE BAILEY ELEMENTARY,"405 WINFIELD RD, ST ALBANS, WV 25177"
WV,county,KANAWHA,ST ALBANS,304,ANNE BAILEY ELEMENTARY,"405 WINFIELD RD, ST ALBANS, WV 25177"
WV,county,KANAWHA,ST ALBANS,305,HAYES MIDDLE SCHOOL,"830 STRAWBERRY RD, ST ALBANS, WV 25177"
WV,county,KANAWHA,TORNADO,307,ANDREW HGTS. ELEMENTARY,"P O BOX 340 , TORNADO, WV 25202"
WV,county,KANAWHA,ST ALBANS,308,HAYES MIDDLE SCHOOL,"830 STRAWBERRY RD, ST ALBANS, WV 25177"
WV,county,KANAWHA,ST ALBANS,309,LAKEWOOD ELEMENTARY,"2089 LAKEWOOD DR, ST ALBANS, WV 25177"
WV,county,KANAWHA,ST ALBANS,310,LAKEWOOD ELEMENTARY,"2089 LAKEWOOD DR, ST ALBANS, WV 25177"
WV,county,KANAWHA,ST ALBANS,317,FIRST PRESBYTERIAN CHURCH,"201 KANAWHA TER, ST ALBANS, WV 25177"
WV,county,KANAWHA,ST ALBANS,321,FIRST PRESBYTERIAN CHURCH,"201 KANAWHA TERRACE, ST ALBANS, WV 25177"
WV,county,KANAWHA,ST ALBANS,326,ST. ALBANS HIGH SCHOOL,"2100 KANAWHA TERRACE, ST ALBANS, WV 25177"
WV,county,KANAWHA,ST ALBANS,329,HANSFORD COMMUNITY CNTR,"500 WASHINGTON ST, ST ALBANS, WV 25177"
WV,county,KANAWHA,ST ALBANS,333,ALBAN ELEMENTARY,"2030 HARRISON AVE, ST ALBANS, WV 25177"
WV,county,KANAWHA,ST ALBANS,337,ST. ALBANS HIGH SCHOOL,"2100 KANAWHA TERRACE, ST ALBANS, WV 25177"
WV,county,KANAWHA,ST ALBANS,340,ST. PETERS UNITED METH. CH,"2601 FORRESTAL AVE, ST ALBANS, WV 25177"
WV,county,KANAWHA,ST ALBANS,347,ST. ALBANS HIGH SCHOOL,"2100 KANAWHA TERRACE, ST ALBANS, WV 25177"
WV,county,KANAWHA,NITRO,349,NITRO WOMEN'S CLUB,"2ND & 23RD, NITRO, WV 25143"
WV,county,KANAWHA,NITRO,350,NITRO ELEMENTARY,"1921 19TH ST, NITRO, WV 25143"
WV,county,KANAWHA,NITRO,351,NITRO ELEMENTARY,"1921 19TH ST, NITRO, WV 25143"
WV,county,KANAWHA,NITRO,352,NITRO HIGH SCHOOL,"1300 PARK AVE, NITRO, WV 25143"
WV,county,KANAWHA,NITRO ,354,CHURCH OF THE NAZARENE,"1400 SATTES CIRCLE, NITRO , WV 25143"
WV,county,KANAWHA,DUNBAR,357,WILLIAM RAGLIN COMMUNITY CENTER,"142 MARSHALL AVE, DUNBAR, WV 25064"
WV,county,KANAWHA,CHARLESTON,358,CAMP VIRGIL TATE LODGE,"RT 4 BOX 141 B , CHARLESTON, WV 25313"
WV,county,KANAWHA,CROSS LANES,359,POINT HARMONY ELEMENTARY,"5312 BIG TYLER RD, CROSS LANES, WV 25313"
WV,county,KANAWHA,CROSS LANES,360,POINT HARMONY ELEMENTARY,"5312 BIG TYLER RD, CROSS LANES, WV 25313"
WV,county,KANAWHA,CROSS LANES,361,ANDREW JACKSON MIDDLE SCHOOL,"5445 BIG TYLER RD, CROSS LANES, WV 25313"
WV,county,KANAWHA,CROSS LANES,362,CROSS LANES ELEMENTARY,"5525 BIG TYLER RD, CROSS LANES, WV 25313"
WV,county,KANAWHA,CROSS LANES,364,POINT HARMONY ELEMENTARY,"5312 BIG TYLER RD, CROSS LANES, WV 25313"
WV,county,KANAWHA,CHARLESTON,365,CAPITAL CITY FOP LODGE #74,"82 FOP LANE, CHARLESTON, WV 25313"
WV,county,KANAWHA,CHARLESTON,366,CAPITAL CITY FOP LODGE #74,"82 FOP LANE, CHARLESTON, WV 25313"
WV,county,KANAWHA,CROSS LANES,368,CROSS LANES ELEMENTARY,"5525 BIG TYLER RD, CROSS LANES, WV 25313"
WV,county,KANAWHA,CROSS LANES,370,CROSS LANES ELEMENTARY,"5525 BIG TYLER RD, CROSS LANES, WV 25313"
WV,county,KANAWHA,CROSS LANES,371,ANDREW JACKSON MIDDLE SCHOOL,"5445 BIG TYLER RD, CROSS LANES, WV 25313"
WV,county,KANAWHA,CHARLESTON,373,GRANDVIEW ELEMENTARY,"959 WOODWARD DR, CHARLESTON, WV 25312"
WV,county,KANAWHA,SISSONVILLE,374,SISSONVILLE ELEMENTARY,"8324 SISSONVILLE DR, SISSONVILLE, WV 25320"
WV,county,KANAWHA,ST ALBANS,378,LAKEWOOD ELEMENTARY,"2089 LAKEWOOD DR, ST ALBANS, WV 25177"
WV,county,KANAWHA,TORNADO,379,ANDREW HGTS. ELEMENTARY,"P O BOX 340, TORNADO, WV 25202"
WV,county,KANAWHA,CHARLESTON,401,LOFTIS FIRE STATION,"515 EDENS FORK RD, CHARLESTON, WV 25312"
WV,county,KANAWHA,CHARLESTON,402,CHANDLER ACADEMY,"1900 SCHOOL STREET, CHARLESTON, WV 25312"
WV,county,KANAWHA,CHARLESTON,403,STONEWALL JACKSON MIDDLE SCH,"812 PARK AVE, CHARLESTON, WV 25302"
WV,county,KANAWHA,CHARLESTON,404,TISKELWAH COMMUNITY CTR.,"600 FLORIDA ST, CHARLESTON, WV 25302"
WV,county,KANAWHA,CHARLESTON,406,TISKELWAH COMMUNITY CENTER,"600 FLORIDA ST, CHARLESTON, WV 25302"
WV,county,KANAWHA,CHARLESTON,407,ST. PAUL AME CHURCH,"1108 2ND ST, CHARLESTON, WV 25302"
WV,county,KANAWHA,CHARLESTON,408,STONEWALL JACKSON MIDDLE SCHOOL,"812 PARK AVENUE, CHARLESTON, WV 25302"
WV,county,KANAWHA,CHARLESTON,410,CATO PARK,"200 BAKER LN, CHARLESTON, WV 25302"
WV,county,KANAWHA,CHARLESTON,411,JARRETT TERRACE,"824 CENTRAL AVE, CHARLESTON, WV 25302"
WV,county,KANAWHA,CHARLESTON,412,SALVATION ARMY,"301 TENNESSEE AVE, CHARLESTON, WV 25302"
WV,county,KANAWHA,CHARLESTON,413,INT. BROTHERHOOD E. WORKERS,"800 INDINANA AVE, CHARLESTON, WV 25302"
WV,county,KANAWHA,CHARLESTON,414,INTER. BROTHERHOOD ELEC. WORKERS,"800 INDIANA AVE, CHARLESTON, WV 25302"
WV,county,KANAWHA,CHARLESTON,415,EDGEWOOD SUMMIT,"300 BAKER LANE, CHARLESTON, WV 25302"
WV,county,KANAWHA,CHARLESTON,416,MOUNT CALVARY BAPTIST,"1509 BIGLEY AVE, CHARLESTON, WV 25302"
WV,county,KANAWHA,CHARLESTON,417,MOUNT CALVARY BAPTIST,"1509 BIGLEY AVE, CHARLESTON, WV 25302"
WV,county,KANAWHA,CLENDENIN,418,FIRST BAPTIST CHURCH,"500 VIRGINIA STREET, CLENDENIN, WV 25045"
WV,county,KANAWHA,CLENDENIN,419,FIRST BAPTIST CHURCH,"500 VIRGINIA STREET, CLENDENIN, WV 25045"
WV,county,KANAWHA,ELKVIEW,420,BRIDGE ELEMENTARY,"5120 ELK RIVER RD N., ELKVIEW, WV 25071"
WV,county,KANAWHA,ELKVIEW ,421,ELKVIEW MIDDLE SCHOOL,"5090 NORTH ELK RIVER RD, ELKVIEW , WV 25071"
WV,county,KANAWHA,ELKVIEW ,423,ELKVIEW MIDDLE SCHOOL,"5090 NORTH ELK RIVER RD, ELKVIEW , WV 25071"
WV,county,KANAWHA,CHARLESTON,424,ELK ELEMENTARY CENTER,"3320 PENNSYLVANIA AVE, CHARLESTON, WV 25302"
WV,county,KANAWHA,CHARLESTON,425,ELK ELEMENTARY CENTER,"3320 PENNSYLVANINA AVE, CHARLESTON, WV 25302"
WV,county,KANAWHA,CHARLESTON,426,SHOALS ELEMENTARY,"100 DUTCH RD, CHARLESTON, WV 25302"
WV,county,KANAWHA,CHARLESTON,427,SHOALS ELEMENTARY,"100 DUTCH RD, CHARLESTON, WV 25302"
WV,county,KANAWHA,CHARLESTON,428,LOFTIS FIRE STATION,"515 EDENS FORK RD, CHARLESTON, WV 25312"
WV,county,KANAWHA,CHARLESTON,429,SISSONVILLE HIGH,"6100 SISSONVILLE DR, CHARLESTON, WV 25312"
WV,county,KANAWHA,CHARLESTON,431,SISSONVILLE HIGH,"6100 SISSONVILLE DR, CHARLESTON, WV 25312"
WV,county,KANAWHA,SISSONVILLE,432,FLINN ELEMENTARY,"2006 MCCLURE PARKWAY, SISSONVILLE, WV 25312"
WV,county,KANAWHA,SISSONVILLE ,433,FLINN ELEMENTARY,"2006 MCCLURE PARKWAY, SISSONVILLE , WV 25312"
WV,county,KANAWHA,SISSONVILLE,434,SISSONVILLE ELEMENTARY,"8324 SISSONVILLE DR, SISSONVILLE, WV 25320"
WV,county,KANAWHA,CHARLESTON,435,CAPITAL HIGH SCHOOL,"1500 GREENBRIER ST., CHARLESTON, WV 25311"
WV,county,KANAWHA,CHARLESTON,436,CAPITAL HIGH SCHOOL,"1500 GREENBRIER ST., CHARLESTON, WV 25311"
WV,county,KANAWHA,ELKVIEW,437,PINCH ELEMENTARY,"300 PINCH RD, ELKVIEW, WV 25071"
WV,county,KANAWHA,ELKVIEW,438,ELKVIEW MIDDLE SCHOOL,"5090 NORTH ELK RIVER RD, ELKVIEW, WV 25071"
WV,county,KANAWHA,ELKVIEW,439,PINCH ELEMENTARY,"300 PINCH RD, ELKVIEW, WV 25071"
WV,county,KANAWHA,QUICK,440,QUICK AREA COMM. CENTER,"PO BOX 431, QUICK, WV 25156"
WV,county,KANAWHA,CLENDENIN,441,FIRST BAPTIST CHURCH ,"500 VIRGINIA STREET, CLENDENIN, WV 25045"
WV,county,KANAWHA,CHARLESTON,109A,LOUDENDALE COMMUNITY CENTER,"RT 2 BOX 266 B, CHARLESTON, WV 25314"
WV,county,KANAWHA,CHARLESTON,117A,MALDEN ELEMENTARY,"4001 SALINAS DR, CHARLESTON, WV"
WV,county,KANAWHA,CHARLESTON,123A,MALDEN ELEMENTARY,"4001 SALINAS DR, CHARLESTON, WV"
WV,county,KANAWHA,CHARLESTON,160A,KANAWHA CITY ELEMENTARY,"3601 STAUNTON AVE, CHARLESTON, WV 25304"
WV,county,KANAWHA,CHARLESTON,175A,RUFFNER ELEMENTARY,"809 LITZ DR, CHARLESTON, WV 25311"
WV,county,KANAWHA,CHARLESTON,240A,GEORGE WASHINGTON HIGH,"1522 TENNIS CLUB RD, CHARLESTON, WV 25314"
WV,county,KANAWHA,CHARLESTON,240B,GEORGE WASHINGTON HIGH,"1522 TENNIS CLUB RD, CHARLESTON, WV 25314"
WV,county,KANAWHA,CHARLESTON,277A,KENNA ELEMENTARY,"198 EUREKA RD, CHARLESTON, WV 25314"
WV,county,KANAWHA,SO CHARLESTON,287A,SO. CHARLESTON COMMUNITY CENTER,"601 JEFFERSON RD, SO CHARLESTON, WV 25309"
WV,county,KANAWHA,CHARLESTON,403A,STONEWALL JACKSON MIDDLE SCH,"812 PARK AVE, CHARLESTON, WV 25302"
WV,county,KANAWHA,CHARLESTON,413A,INTER. BROTHERHOOD ELEC. WORKERS,"800 INDIANA AVE, CHARLESTON, WV 25302"
WV,county,KANAWHA,CHARLESTON,416A,MOUNT CALVARY BAPTIST,"1509 BIGLEY AVE, CHARLESTON, WV 25302"
WV,county,KANAWHA,CHARLESTON,436A,CAPITAL HIGH SCHOOL,"1500 GREENBRIER ST., CHARLESTON, WV 25311"
WV,county,LEWIS,IRELAND,1,IRELAND COMMUNITY BUILDING,"65 COMMUNITY DRIVE, IRELAND, WV 26376"
WV,county,LEWIS,CRAWFORD,2,WALKERSVILLE FIRE DEPARTMENT,"16629 US HIGHWAY 19 SOUTH, CRAWFORD, WV 26343"
WV,county,LEWIS,ROANOKE,3,ROANOKE SCHOOL,"1176 OIL CREEK RD, ROANOKE, WV 26447"
WV,county,LEWIS,WESTON,4,HG ENERGY'S COPLEY TOOL HOUSE,"9053 COPLEY RD, WESTON, WV 26452"
WV,county,LEWIS,WESTON,5,COURTHOUSE,"110 CENTER AVE, WESTON, WV 26452"
WV,county,LEWIS,WESTON,6,EMERGENCY SQUAD BUILDING-LEFT,"155 WEST SECOND ST, WESTON, WV 26452"
WV,county,LEWIS,WESTON,7,LEWIS COUNTY HIGH SCHOOL,"205 MINUTEMAN DRIVE, WESTON, WV 26452"
WV,county,LEWIS,HORNER,8,HACKERS CK PIONEER DESCENDANTS BLDG,"45 ABBOTTS RUN ROAD, HORNER, WV 26372"
WV,county,LEWIS,WESTON,9,BOARD OF EDUCATION OFFICE,"239 COURT AVENUE, WESTON, WV 26452"
WV,county,LEWIS,WESTON,10,RBMS--VOCATIONAL BLDG,"325 EAST THIRD STREET, WESTON, WV 26452"
WV,county,LEWIS,JANE LEW,11,J. E. HITT GARAGE,"441 US HWY 19 NORTH, JANE LEW, WV 26378"
WV,county,LEWIS,JANE LEW,12,"JACKSON MEMORIAL COMMUNITY ASSOC., INC.","6161 MAIN ST, JANE LEW, WV 26378"
WV,county,LEWIS,JANE LEW,13,JANE LEW FIRE DEPARTMENT,"52 HACKERS CREEK RD, JANE LEW, WV 26378"
WV,county,LEWIS,WESTON,14,PETERSON - CENTRAL SCHOOL,"509 BERLIN RD, WESTON, WV 26452"
WV,county,LEWIS,WESTON,15,PETERSON - CENTRAL SCHOOL,"509 BERLIN RD, WESTON, WV 26452"
WV,county,LEWIS,WESTON,16,EMERGENCY SQUAD BUILDING-RIGHT,"155 WEST SECOND ST, WESTON, WV 26452"
WV,county,LEWIS,WESTON,17,REAL LIFE CHURCH,"385 MID AVENUE, WESTON, WV 26452"
WV,county,LEWIS,WESTON,18,SENIOR CITIZENS CENTER-LEFT,"171 WEST SECOND STREET, WESTON, WV 26452"
WV,county,LEWIS,WESTON,19,SENIOR CITIZENS CENTER-RIGHT,"171 WEST SECOND STREET, WESTON, WV 26452"
WV,county,LEWIS,WESTON,20,PRICETOWN FIRE DEPARTMENT,"1667 US HIGHWAY 33 WEST, WESTON, WV 26452"
WV,county,LEWIS,LINN,21,LEADING CREEK ELEMENTARY SCHOOL,"15300 US HIGHWAY 33 WEST, LINN, WV 26384"
WV,county,LEWIS,CAMDEN,22,CHURCHVILLE METHODIST CHURCH,"3736 CHURCHVILLE RD, CAMDEN, WV 26338"
WV,county,LEWIS,JANE LEW,23,E.E.C. BUILDING   (STATE 4-H CAMP),"2614 JACKSON MILL RD, JANE LEW, WV 26378"
WV,county,LEWIS,WESTON,24,JACKSON MILL FIRE DEPARTMENT,"3000 JACKSON MILL RD, WESTON, WV 26452"
WV,county,LINCOLN,ALUM CREEK,1,Midway grade school,"267 MIDWAY ROAD, ALUM CREEK, WV 25003"
WV,county,LINCOLN,SOD,2,Garrettsbend Community Center,"1606 GARRETTSBEND, SOD, WV 25564"
WV,county,LINCOLN,SUMERCO,3,McCorkle Community Center,"13 ELY FORK ROAD, SUMERCO, WV 25567"
WV,county,LINCOLN,GRIFFITHSVILLE,4,Duval Pk-8th,"5304 STRAIGHT FORK, GRIFFITHSVILLE, WV 25521"
WV,county,LINCOLN,ALKOL,5,Morrisvale VFD,"2508 STRAIGHT FORK, ALKOL, WV 25501"
WV,county,LINCOLN,ALKOL,6,Mud River VFD,"2865 BULGER ROAD, ALKOL, WV 25501"
WV,county,LINCOLN,HARTS,7,Big Ugly Community Center,"15 ROSEWOOD ROAD, HARTS, WV 25524"
WV,county,LINCOLN,HARTS,8,Harts Pk-8th,"1246 MCCLELLAN HWY., HARTS, WV 25524"
WV,county,LINCOLN,RANGER,9,Ranger Grade School,"59 VANATTERS CREEK, RANGER, WV 25557"
WV,county,LINCOLN,BRANCHLAND,10,Guyan Valley Middle School,"5312 MCCLELLAN HWY., BRANCHLAND, WV 25506"
WV,county,LINCOLN,BRANCHLAND,11,Guyan Valley Middle School,"5312 MCCLELLAN HWY., BRANCHLAND, WV 25506"
WV,county,LINCOLN,BRANCHLAND,12,Fez,"5287 UPPER MUD RIVER, BRANCHLAND, WV 25506"
WV,county,LINCOLN,WEST HAMLIN,13,West Hamlin Grade School,"114 DAIRY ROAD, WEST HAMLIN, WV 25571"
WV,county,LINCOLN,HAMLIN,14,LCHS,"81 PANTHER WAY, HAMLIN, WV 25523"
WV,county,LINCOLN,GRIFFITHSVILLE,15,Duval PK-8TH,"5304 STRAIGHT FORK, GRIFFITHSVILLE, WV 25521"
WV,county,LINCOLN,WEST HAMLIN,16,West Hamlin Grade School,"114 DAIRY ROAD, WEST HAMLIN, WV 25571"
WV,county,LOGAN,HARTS,1,HUGH DINGESS GRADE SCL.,"RR 1, BOX 607, HARTS, WV"
WV,county,LOGAN,CHAPMANVILLE,2,CHAPMANVILLE REGIONAL HIGH SCHOOL,"200 VANCE STREET, CHAPMANVILLE, WV 25508"
WV,county,LOGAN,CHAPMANVILLE,4,CHAPMANVILLE SCHOOL BUS GARAGE,"GARRETT'S FORK ROAD, CHAPMANVILLE, WV"
WV,county,LOGAN,CHAPMANVILLE,6,CHAPMANVILLE REGIONAL HIGH SCHOOL,"200 VANCE STREET, CHAPMANVILLE, WV 25508"
WV,county,LOGAN,LAKE,8,LAKE FIRE DEPT,"LAKE, LAKE, WV 25121"
WV,county,LOGAN,HENLAWSON,10,HENLAWSON VETS CENTER,"155 VETERANS AVE, HENLAWSON, WV 25624"
WV,county,LOGAN,PEACH CREEK,11,CROOKED CREEK SPC.ED.BLDG.,"CROOKED CREEK ROAD, PEACH CREEK, WV 25639"
WV,county,LOGAN,LOGAN,13,BOARD OF EDUCATION BLDG,"506 HOLLY AVENUE, LOGAN, WV 25601"
WV,county,LOGAN,LOGAN,14,JUSTICE GRADE SCHOOL,"407 CIRCLE ROAD, LOGAN, WV 25601"
WV,county,LOGAN,LOGAN,15,MITCHELL HEIGHTS CITY HALL,"305 CENTRAL AVENUE, LOGAN, WV 25601"
WV,county,LOGAN,ACCOVILLE,20,BUFFALO GRADE SCHOOL,"2367 BUFFALO CREEK RD, ACCOVILLE, WV 25606"
WV,county,LOGAN,AMHERSTDALE,21,AMHERSTDALE STATE RD GARAGE,"4201 BUFFALO CRK RD, AMHERSTDALE, WV 25607"
WV,county,LOGAN,LORADO,22,LORADO HEAD START BLDG,"SUPERINTENDENT ROAD, LORADO, WV 25630"
WV,county,LOGAN,MAN,25,MAN HIGH SCHOOL,"800 MCDONALD AVENUE, MAN, WV 25635"
WV,county,LOGAN,MAN,26,MAN CITY HALL,"105 MARKET STREET, MAN, WV 25635"
WV,county,LOGAN,MALLORY ,27,MAN CENTRAL K-8,"RT 10 S LONG BOTTOM HUFF CREEK, MALLORY , WV 25634"
WV,county,LOGAN,LYBURN,28,HATFIELD MCCOY ADMIN. BLDG,"179 RITA MALL RD, LYBURN, WV 25632"
WV,county,LOGAN,SHARPLES,31,SHARPLES FIRE DEPARTMENT,"RT 17 BEECH FORK ROAD , SHARPLES, WV 25183"
WV,county,LOGAN,LOGAN,36,PRIDE BUILDING,"699 STRATTON STREET, LOGAN, WV 25601"
WV,county,LOGAN,STOLLINGS,37,RALPH R. WILLIS VOC SCHOOL,"144 VOCATIONAL ROAD, STOLLINGS, WV 25646"
WV,county,LOGAN,LOGAN,39,LOGAN MIDDLE SCHOOL,"14 WILDCAT WAY , MIDELBURG ISLAND, LOGAN, WV 25601"
WV,county,LOGAN,STOLLINGS,40,RALPH R. WILLIS VOC SCHOOL,"144 VOCATIONAL ROAD, STOLLINGS, WV 25646"
WV,county,LOGAN,STOLLINGS,41,REFLECTIONS DR REFAB OFFICE,"49 REFLECTION DRIVE, STOLLINGS, WV 25646"
WV,county,LOGAN,HOLDEN ,43,HOLDEN GRADE SCHOOL,"SCHOOL DRIVE, HOLDEN , WV 25625"
WV,county,LOGAN,LOGAN,46,MONAVILLE GRADE SCHOOL BLDG,"66 SCHOOL STREET, LOGAN, WV 25601"
WV,county,LOGAN,WILKINSON,47,WILKINSON STATE ROAD GARAGE,"127 SPRINGFIELD ROAD, WILKINSON, WV 25653"
WV,county,LOGAN,OMAR,49,OMAR GRADE SCHOOL,"RT 44 JERRY WEST HIGHWAY, OMAR, WV 25638"
WV,county,LOGAN,OMAR,50,OMAR FIRE DEPARTMENT,"RT 44 RAILROAD, OMAR, WV 25638"
WV,county,LOGAN,VERDUNVILLE,53,VERDUNVILLE GRADE SCHOOL,"16 HILL ROAD, VERDUNVILLE, WV 25649"
WV,county,LOGAN,HOLDEN,54,NEW CORA FIRE DEPARTMENT,"415 LIPPY DAMRON LANE, HOLDEN, WV 25625"
WV,county,LOGAN,LOGAN ,55,SOUTHERN WV COMMUNITY COLLEGE,"MUD FORD ROAD, LOGAN , WV 25601"
WV,county,LOGAN,LOGAN,56,SCHOOL MAINTENANCE BUILDING,"500 UNIVERSITY AVENUE, LOGAN, WV 25601"
WV,county,LOGAN,HOLDEN,45A,NEW CORA FIRE DEPT,"415 LIPPY DAMRON LANE, HOLDEN, WV 25625"
WV,county,LOGAN,HOLDEN,45B,NEW CORA FIRE DEPARTMENT,"415 LIPPY DAMRON LANE, HOLDEN, WV 25625"
WV,county,LOGAN,CHAPMANVILLE,5A,CHAPMANVILLE REGIONAL HIGH SCHOOL,"200 VANCE STREET, CHAPMANVILLE, WV 25508"
WV,county,LOGAN,CHAPMANVILLE,5B,CHAPMANVILLE REGIONAL HIGH SCHOOL,"200 VANCE STREET, CHAPMANVILLE, WV 25508"
WV,county,LOGAN,CHAPMANVILLE,7A,EAST CHAPMANVILLE GRADE SCHOOL,"ADAMS STREET, CHAPMANVILLE, WV 25508"
WV,county,LOGAN,CHAPMANVILLE,7B,EAST CHAPMANVILLE GRADE SCHOOL,"ADAMS STREET, CHAPMANVILLE, WV 25508"
WV,county,MARION,FAIRMONT,1,J. HARPER MEREDITH BUILDING,"200 JACKSON ST, FAIRMONT, WV 26554"
WV,county,MARION,FAIRMONT,2,MORNING STAR BAPTIST CHURCH,"100 MCKINNEY STREET, FAIRMONT, WV 2654"
WV,county,MARION,FAIRMONT,5,BARNES ELEMENTARY SCHOOL,"100 NAOMI ST, FAIRMONT, WV 26554"
WV,county,MARION,FAIRMONT,6,BARNES ELEMENTARY SCHOOL,"100 NAOMI ST, FAIRMONT, WV 26554"
WV,county,MARION,FAIRMONT,7,MORNING STAR BAPTIST CHURCH,"100 MCKINNEY STREET, FAIRMONT, WV 2654"
WV,county,MARION,FAIRMONT,13,WEST FAIRMONT MIDDLE SCHOOL,"1010 TENTH STREET, FAIRMONT, WV 26554"
WV,county,MARION,FAIRMONT,16,CENTRAL UNITED METHODIST CHURC,"304 FAIRMONT AVE, FAIRMONT, WV 26554"
WV,county,MARION,FAIRMONT,18,WHITE SCHOOL(ADULT LEARNING CENTER),"LOCUST AVE, FAIRMONT, WV 26554"
WV,county,MARION,FAIRMONT,20,WHITE SCHOOL(ADULT LEARNING CENTER),"LOCUST AVE, FAIRMONT, WV 26554"
WV,county,MARION,BARRACKVILLE,27,BARRACKVILLE MIDDLE SCHOOL,"MAIN ST, BARRACKVILLE, WV 26559"
WV,county,MARION,BARRACKVILLE,28,"BARRACKVILLE SCHOOL, SOUTH","MAIN ST, BARRACKVILLE, WV 26559"
WV,county,MARION,BARRACKVILLE,29,"BARRACKVILLE SCHOOL, NORTH","MAIN STREET, BARRACKVILLE, WV 26559"
WV,county,MARION,FAIRMONT,30,FAIRMONT SENIOR HIGH FRESHMAN BLDG,"LOOP PARK, FAIRMONT, WV 26554"
WV,county,MARION,FAIRMONT,31,JAYENNE ELEMENTARY SCHOOL,"COUNTRY CLUB ROAD, FAIRMONT, WV 26554"
WV,county,MARION,FAIRMONT,32,"HEAD START, COUNTRY CLUB ROAD","COUNTRY CLUB RD, FAIRMONT, WV 26554"
WV,county,MARION,BARRACKVILLE,33,BARRACKVILLE MIDDLE SCHOOL,"MAIN ST, BARRACKVILLE, WV 26559"
WV,county,MARION,FAIRMONT,34,FAIRMONT SENIOR HIGH FRSH BLDG,"LOOP PARK, FAIRMONT, WV 26554"
WV,county,MARION,FAIRMONT,35,"STATE GARAGE, LAB BUILDING","916 COUNTRY CLUB ROAD, FAIRMONT, WV 26554"
WV,county,MARION,FAIRMONT,36,FAIRMONT SENIOR HIGH FRSH BLDG,"LOOP PARK, FAIRMONT, WV 26554"
WV,county,MARION,WHITE HALL,38,WHITE HALL ELEMENTARY SCHOOL,"38 EMERALD LANE, WHITE HALL, WV 26554"
WV,county,MARION,WHITE HALL,39,WHITE HALL ELEMENTARY SCHOOL,"38 EMERALD LANE, WHITE HALL, WV 26554"
WV,county,MARION,WHITE HALL,40,WHITE HALL ELEMENTARY SCHOOL,"38 EMERALD LANE, WHITE HALL, WV 26554"
WV,county,MARION,WHITE HALL,41,WHITE HALL ELEMENTARY SCHOOL,"38 EMERALD LANE, WHITE HALL, WV 26554"
WV,county,MARION,FAIRMONT,42,WATSON ELEMENTARY SCHOOL,"MARY LOU RETTON DRIVE, FAIRMONT, WV 26554"
WV,county,MARION,FAIRMONT,43,WATSON ELEMENTARY SCHOOL,"MARY LOU RETTON DR, FAIRMONT, WV 26554"
WV,county,MARION,MONONGAH,44,MONONGAH FIRE HALL,"BRIDGE ST, MONONGAH, WV 26554"
WV,county,MARION,FAIRMONT,45,WATSON ELEMENTARY SCHOOL,"MARY LOU RETTON DRIVE, FAIRMONT, WV 26554"
WV,county,MARION,WORTHINGTON,47,HUTCHINSON COMMUNITY BUILDING,"9 SUNRISE STREET, SHERRY MCDONALD, WORTHINGTON, WV 26591"
WV,county,MARION,FAIRMONT,48,WATSON ELEMENTARY SCHOOL,"MARY LOU RETTON DR, FAIRMONT, WV 26554"
WV,county,MARION,WORTHINGTON,50,WORTHINGTON TOWN HALL,"P O BOX 141 WORTHINGTON, WORTHINGTON, WV 26591"
WV,county,MARION,CAROLINA,51,CAROLINA HEAD START,"P O BOX 190, CAROLINA, WV 26563"
WV,county,MARION,MONONGAH,52,MONONGAH ELEMENTARY SCHOOL,"MONONGAH, MONONGAH, WV 26554"
WV,county,MARION,FARMINGTON,53,FARMINGTON FIRE HALL,"P O BOX 520, CONTACT:JON SANDERS, FARMINGTON, WV 26571"
WV,county,MARION,IDAMAY,55,IDAMAY COMMUNITY BUILDING,"MAIN ST, IDAMAY, WV 26576"
WV,county,MARION,FARMINGTON,56,NEW FARMINGTON COMMUNITY BLDG,"MAIN ST, FARMINGTON, WV 26571"
WV,county,MARION,MONONGAH,57,MONONGAH GRADE SCHOOL,"MONONGAH, MONONGAH, WV 26554"
WV,county,MARION,FARMINGTON,58,LITTLE LAUREL RUN COMM BLD,"RT 1 BOX 406 FARMINGTON, FARMINGTON, WV 26571"
WV,county,MARION,LUMBERPORT,59,TEVERBAUGH CHURCH,"RT 1 BOX 111, C/O SUSAN CONLEY, LUMBERPORT, WV 26386"
WV,county,MARION,RACHEL,61,RACHEL DOWNS COMMUNITY BLDG,"P O BOX 143, RACHEL, WV 26587"
WV,county,MARION,MANNINGTON,62,PLUM RUN UNITED METHODIST CHURCH,"FAIRGROUNDS ROAD, MANNINGTON, WV"
WV,county,MARION,MANNINGTON,66,MANNINGTON FIRE HALL,"591 Dudley Fork Road, MANNINGTON, WV 26582"
WV,county,MARION,MANNINGTON,67,MANNINGTON MIDDLE SCHOOL,"MANNINGTON, MANNINGTON, WV 26582"
WV,county,MARION,MANNINGTON,68,MANNINGTON CITY HALL,"206 EAST MAIN ST, MANNINGTON, WV 26582"
WV,county,MARION,MANNINGTON,69,HOMEWOOD FIRE HALL,"MEADOW AVE, HOMEWOOD ADDITION, MANNINGTON, WV 26582"
WV,county,MARION,MANNINGTON,70,BINGAMON BAPTIST FAITH CALVERY BIBLE CHURCH,"MARGARET RD, MANNINGTON, WV 26582"
WV,county,MARION,MANNINGTON,72,HOUGH PARK COMMUNITY BUILDING,"201 MAIN ST, MANNINGTON, WV 26582"
WV,county,MARION,MANNINGTON,74,METZ COMMUNITY BUILDING,"334 STATES FORK ROAD, C/O JOYCE THOMAS, MANNINGTON, WV 26582"
WV,county,MARION,MANNINGTON,78,BLACKSHERE ELEMENTARY SCHOOL,"77 BLACKSHERE DR, MANNINGTON, WV 26582"
WV,county,MARION,RIVESVILLE,82,RIVESVILLE UNITED METHODIST CH,"JASPER ST, P O box 66, RIVESVILLE, WV 26588"
WV,county,MARION,RIVESVILLE,83,RIVESVILLE VOLUNTEER FIRE DEPT,"JACKSON ST, p o box 529, RIVESVILLE, WV 26588"
WV,county,MARION,GRANT TOWN,86,GRANT TOWN COMMUNITY BLD IN,"FLOYD ST, P O BOX 40, GRANT TOWN, WV 26574"
WV,county,MARION,FAIRVIEW,87,FAIRVIEW ELEMENTARY SCHOOL IN,"SCHOOL STREET, FAIRVIEW, WV 26570"
WV,county,MARION,BAXTER,88,BAXTER COMMUNITY BUILDING,"2741 PAW PAW CREEK RD, P O  BOX 55, BAXTER, WV 26560"
WV,county,MARION,FAIRVIEW,89,FAIRVIEW MIDDLE SCHOOL,"FAIRVIEW, FAIRVIEW, WV 26570"
WV,county,MARION,GRANT TOWN,90,GRANT TOWN COMMUNITY BUILDING,"FLOYD ST, P O BOX 40, GRANT TOWN, WV 26574"
WV,county,MARION,RIVESVILLE,92,RIVESVILLE COMMUNITY BUILDING,"JASPER STREET, P O Box 611, RIVESVILLE, WV 26588"
WV,county,MARION,FAIRMONT,96,"POLICE RESERVE, WAVE TEC PARK","P O BOX 1258, FAIRMONT, WV 26554"
WV,county,MARION,FAIRMONT,98,EAST PARK ELEMENTARY SCHOOL,"1025 FAIRFAX ST, FAIRMONT, WV 26554"
WV,county,MARION,FAIRMONT,100,EAST PARK ELEMENTARY SCHOL,"1025 FAIRFAX ST, FAIRMONT, WV 26554"
WV,county,MARION,FAIRMONT,101,"EAST PARK SCHOOL, RIGHT","1025 FAIRFAX ST, FAIRMONT, WV 26554"
WV,county,MARION,FAIRMONT,102,East Fairmont Middle School,"1 ORION LANE, FAIRMONT, WV 26554"
WV,county,MARION,FAIRMONT,104,POLICE RESERVE-WAVE TEC POOL,"P O BOX 1258, FAIRMONT, WV 26555"
WV,county,MARION,FAIRMONT,111,PLEASANT VALLEY ELEMENTARY SCH,"MILLERSVILLE, FAIRMONT, WV 26554"
WV,county,MARION,FAIRMONT,112,MARIONCOUNTY CONVENTION & VISITORS CENTER,"1000 COLE ST, FAIRMONT, WV 26554"
WV,county,MARION,FAIRMONT,113,MARION COUNTY CONVENTION & VISTORS CENTER,"1000 COLE ST, FAIRMONT, WV 26554"
WV,county,MARION,COLFAX,114,COLFAX COMMUNITY CENTER,"24 GUYSES RUN RD, COLFAX, WV 26566"
WV,county,MARION,FAIRMONT,115,Quiet Dell Community Bldg,"RT 6 BOX189, FAIRMONT, WV 26554"
WV,county,MARION,FAIRMONT,116,YWCA,"2019 PLEASANT VALLEY ROAD, FAIRMONT, WV 26554"
WV,county,MARION,FAIRMONT,117,PLEASANT VALLEY MUNICIPAL BLDG,"2340 KINGMONT ROAD, PLEASANT VALLEY RD, FAIRMONT, WV 26554"
WV,county,MARION,FAIRMONT,119,PLEASANT VALLEY MUNICIPAL BLDG,"2340 KINGMONT RD, PLEASANT VALLEY ROAD, FAIRMONT, WV 26554"
WV,county,MARION,FAIRMONT,120,VICTORY BAPTIST CHURCH,"1883 MGTN AVENUE, FAIRMONT, WV 26554"
WV,county,MARION,FAIRMONT,121,EAST DALE ELEMENTARY SCHOOL,"MEADOWDALE, FAIRMONT, WV 26554"
WV,county,MARION,MONTANA MINES,122,MONTANA IMPROVEMENT BUILDING,"MAIN STREET, C/O VICKI NICHOLS, MONTANA MINES, WV 26586"
WV,county,MARION,FAIRMONT,123,EAST DALE ELEMENTARY SCHOOL,"MEADOWDALE, FAIRMONT, WV"
WV,county,MARION,FAIRMONT,124,EAST DALE ELEMENTARY SCHOOL,"MEADOWDDALE, FAIRMONT, WV 26554"
WV,county,MARION,FAIRMONT,125,Bunners Ridge Fire Department,"RT 6 BOX 339A, 2538 BUNNER RIDGE RD, FAIRMONT, WV 26554"
WV,county,MARSHALL,MOUNDSVILLE,1,MARSHALL COUNTY COURTHOUSE,"7TH ST AT COURT AVENUE, MOUNDSVILLE, WV 26041"
WV,county,MARSHALL,MOUNDSVILLE,4,MARSHALL COUNTY SENIOR CITIZENS BUILDING,"805 FIFTH ST, MOUNDSVILLE, WV 26041"
WV,county,MARSHALL,MOUNDSVILLE,6,MOUNDSVILLE VFW,"114 GRANT AVE, MOUNDSVILLE, WV 26041"
WV,county,MARSHALL,MOUNDSVILLE,7,CALVARY METHODIST CHURCH,"1601 FIRST STREET, MOUNDSVILLE, WV 26041"
WV,county,MARSHALL,MOUNDSVILLE,9,WESLEY PARK,"200 CANDLEWICK LN, MOUNDSVILLE, WV 26041"
WV,county,MARSHALL,MOUNDSVILLE,10,TRINITY EPISCOPAL CHURCH,"OAK & LINDEN AVE, MOUNDSVILLE, WV 26041"
WV,county,MARSHALL,MOUNDSVILLE,11,MOUNDSVILLE BAPTIST CHURCH,"1911 FOURTH ST, MOUNDSVILLE, WV 26041"
WV,county,MARSHALL,MOUNDSVILLE,12,LIMESTONE COMMUNITY CENTER,"5572 WAYNESBURG PIKE RD, MOUNDSVILLE, WV 26041"
WV,county,MARSHALL,GLEN DALE,13,GLEN DALE GRADE SCHOOL,"407 SEVENTH ST, GLEN DALE, WV 26038"
WV,county,MARSHALL,GLEN DALE,14,GLEN DALE FIREMENS HALL,"SEVENTH ST, GLEN DALE, WV 26038"
WV,county,MARSHALL,MOUNDSVILLE,17,TEMPLE BAPTIST CHURCH,"2300 SECOND ST, MOUNDSVILLE, WV 26041"
WV,county,MARSHALL,MOUNDSVILLE,18,MAXWELL ACRES COMM BLDG,"MAXWELL ACRES, MOUNDSVILLE, WV 26041"
WV,county,MARSHALL,BENWOOD,19,BOGGS RUN VFD,"1519 BOGGS RUN RD, BENWOOD, WV 26031"
WV,county,MARSHALL,BENWOOD,20,BENWOOD COUNCIL CHAMBERS,"430 MAIN STREET, BENWOOD, WV 26031"
WV,county,MARSHALL,WHEELING,21,OUR LADY OF PEACE CENTER,"640 OLD FAIRMONT PIKE, WHEELING, WV 26003"
WV,county,MARSHALL,BENWOOD,23,BENWOOD COUNCIL CHAMBERS,"430 MAIN STREET, BENWOOD, WV 26031"
WV,county,MARSHALL,WHEELING,24,SHERRARD MIDDLE SCHOOL,"1000 FAIRMONT PIKE, SHERRARD, WHEELING, WV 26003"
WV,county,MARSHALL,BENWOOD,25,"KUBECK ROOM, HOUSING AUTHORITY","2200 MARSHALL STREET, BENWOOD, WV 26031"
WV,county,MARSHALL,MCMECHEN,26,MCVFD COMM CENTER,"911 MARSHALL STREET, MCMECHEN, WV 26040"
WV,county,MARSHALL,WHEELING,27,SHERRARD MIDDLE SCHOOL,"1000 FAIRMONT PIKE, SHERRARD, WHEELING, WV 26003"
WV,county,MARSHALL,MCMECHEN,28,MCVFD COMM CENTER,"911 MARSHALL STREET, MCMECHEN, WV 26040"
WV,county,MARSHALL,WHEELING,29,SHERRARD MIDDLE SCHOOL,"1000 FAIRMONT PIKE, SHERRARD, WHEELING, WV 26003"
WV,county,MARSHALL,MCMECHEN,30,MCVFD COMM CENTER,"911 MARSHALL STREET, MCMECHEN, WV 26040"
WV,county,MARSHALL,WHEELING,33,MT. OLIVET METHODIST CHURCH,"500 FAIRMONT PIKE, MT OLIVET, WHEELING, WV 26003"
WV,county,MARSHALL,WHEELING,34,OUR LADY OF PEACE CENTER,"640 OLD FAIRMONT PIKE, WHEELING, WV 26003"
WV,county,MARSHALL,MOUNDSVILLE,35,LIMESTONE COMMUNITY CENTER,"5572 WAYNESBURG PIKE RD, MOUNDSVILLE, WV 26041"
WV,county,MARSHALL,CAMERON,36,MT. HOPE COMMUNITY BUILDING,"22 GABBYS LANE, CAMERON, WV 26033"
WV,county,MARSHALL,DALLAS,38,DALLAS COMMUNITY BUILDING,"DALLAS, DALLAS, WV 26036"
WV,county,MARSHALL,WHEELING,39,CHURCH OF NAZARENE,"210 MAR WIN DRIVE, WHEELING, WV 26003"
WV,county,MARSHALL,PROCTOR,40,ST JOSEPH VFD,"2960 HAWKEY HILL ROAD, PROCTOR, WV 26055"
WV,county,MARSHALL,GLEN EASTON,41,BOWMAN RIDGE COMM BLDG,"2740 BOWMAN RIDGE RD, GLEN EASTON, WV 26039"
WV,county,MARSHALL,MOUNDSVILLE,43,EBENEZER METHODIST CHURCH,"3009 ROBERT RIDGE ROAD, MOUNDSVILLE, WV 26041"
WV,county,MARSHALL,MOUNDSVILLE,44,CENTRAL SCHOOL,"CENTRAL SCHOOL, TOMLINSON AVE @ SEVENTH ST, MOUNDSVILLE, WV 26041"
WV,county,MARSHALL,MOUNDSVILLE,45,PSD#4,"74 BIG GRAVE CREEK RD, MOUNDSVILLE, WV 26041"
WV,county,MARSHALL,MOUNDSVILLE,46,WASHINGTON LANDS SCHOOL,"116 SCHOOL ROAD, MOUNDSVILLE, WV 26041"
WV,county,MARSHALL,CAMERON,48,BIG RUN COMMUNITY BUILDING,"BIG RUN, C/O 1904 REID RIDGE RD, CAMERON, WV 26033"
WV,county,MARSHALL,PROCTOR,52,GRAYSVILLE COMMUNITY BLDG,"1858 GRAYSVILLE RD, PROCTOR, WV 26055"
WV,county,MARSHALL,CAMERON,56,CAMERON GRADE SCHOOL,"12 CHURCH ST, CAMERON, WV 26033"
WV,county,MARSHALL,CAMERON,58,CAMERON GRADE SCHOOL,"12 CHURCH ST, CAMERON, WV 26033"
WV,county,MARSHALL,MOUNDSVILLE,60,OAK GROVE CHURCH,"3829 FORK RIDGE RD, MOUNDSVILLE, WV 26041"
WV,county,MARSHALL,,61,CAMERON HIGH SCHOOL SMALL GYM,"2012 BLUE & GOLD ROAD, WV 26033"
WV,county,MARSHALL,GLEN DALE,09A,JOHN MARSHALL HIGH SCHOOL,"1300 WHEELING AVE, GLEN DALE, WV 26038"
WV,county,MARSHALL,MOUNDSVILLE,15A,MCNINCH SCHOOL,"162 MIDDLE GRAVE CREEK RD, MOUNDSVILLE, WV 26041"
WV,county,MARSHALL,MOUNDSVILLE,17A,GRAND VUE PARK - EVENTS BUILDING,"250 TRAIL DR, MOUNDSVILLE, WV 26041"
WV,county,MASON,POINT PLEASANT,1,COURTHOUSE-GROUND FLOOR,"200 6TH STREET, POINT PLEASANT, WV 25550"
WV,county,MASON,POINT PLEASANT,2,MAIN STREET BAPTIST CHURCH,"1100 MAIN STREET, POINT PLEASANT, WV 25550"
WV,county,MASON,POINT PLEASANT,3,P.P. PRIMARY SCHOOL-CAFE,"2200 LINCOLN AVENUE, POINT PLEASANT, WV 25550"
WV,county,MASON,POINT PLEASANT,4,P.P. PRIMARY SCHOOL-GYM,"2200 LINCOLN AVE, POINT PLEASANT, WV 25550"
WV,county,MASON,POINT PLEASANT ,5,P.P. INTERMEDIATE SCHOOL GYM,"1 WALDEN ROUSH WAY DRIVE, POINT PLEASANT , WV 25550"
WV,county,MASON,POINT PLEASANT ,6,P.P. INTERMEDIATE SCHOOL GYM,"1 WALDEN ROUSH WAY DRIVE, POINT PLEASANT , WV 25550"
WV,county,MASON,POINT PLEASANT,7,P.P. INTERMEDIATE SCHOOL CAFE,"1 WALDEN ROUSH WAY DRIVE, POINT PLEASANT, WV 25550"
WV,county,MASON,POINT PLEASANT,8,P.P. INTERMEDIATE SCHOOL CAFE,"1 WALDEN ROUSH WAY DRIVE, POINT PLEASANT, WV 25550"
WV,county,MASON,POINT PLEASANT,9,KRODEL CLUB HOUSE,"ROUTE 2, POINT PLEASANT, WV 25550"
WV,county,MASON,POINT PLEASANT,10,ROOSEVELT GRADE SCHOOL,"7593 RIPLEY ROAD, POINT PLEASANT, WV 25550"
WV,county,MASON,HENDERSON,11,HENDERSON COMMUNITY BUILDING,"401 WILSON STREET, HENDERSON, WV 25106"
WV,county,MASON,SOUTHSIDE,12,SOUTHSIDE COMM CENTER BUILDING,"18141 KANAWHA VALLEY ROAD, SOUTHSIDE, WV 25187"
WV,county,MASON,GALLIPOLIS FERRY,13,BEALE GRADE SCHOOL,"12897 HUNTINGTON RD, GALLIPOLIS FERRY, WV 25515"
WV,county,MASON,GALLIPOLIS FERRY,14,BEALE GRADE SCHOOL,"12897 HUNTINGTON RD, GALLIPOLIS FERRY, WV 25515"
WV,county,MASON,ASHTON,15,ASHTON ELEMENTARY SCHOOL,"997 ASHTON UPLAND ROAD, ASHTON, WV 25503"
WV,county,MASON,ASHTON,16,HANNAN PUBLIC LIBRARY,"15538 ASHTON UPLAND ROAD, ASHTON, WV 25503"
WV,county,MASON,ASHTON,17,ASHTON ELEMENTARY SCHOOL,"997 ASHTON UPLAND ROAD, ASHTON, WV 25503"
WV,county,MASON,SOUTHSIDE,18,SOUTHSIDE COMM CENTER BUILDING,"18141 KANAWHA VALLEY ROAD, SOUTHSIDE, WV 25187"
WV,county,MASON,LEON,19,HEALTHCARE OF LEON-BUFFALO BUI,"27635 CHARLESTON ROAD, LEON, WV 25123"
WV,county,MASON,leon ,20,LEON GRADE SCHOOL,"1226 BURDETTE STREET, leon , WV 25123"
WV,county,MASON,LEON,21,LEON-BADEN COMM BUILDING,"9285 EVANS ROAD, LEON, WV 25123"
WV,county,MASON,POINT PLEASANT,22,FLATROCK FIRE DEPARTMENT,"14480 RIPLEY ROAD, POINT PLEASANT, WV 25550"
WV,county,MASON,LETART,23,LETART COMMUNITY BUILDING,"23671 SANDHILL ROAD, LETART, WV 25253"
WV,county,MASON,NEW HAVEN,24,BACHTEL UNITED METHODIST CHURCH,"25 LAYNE STREET, NEW HAVEN, WV 25265"
WV,county,MASON,NEW HAVEN,25,NEW HAVEN UNITED METHODIST CHURCH,"511 5TH STREET, NEW HAVEN, WV 25265"
WV,county,MASON,HARTFORD,26,HARTFORD COMMUNITY BUILDING,"1508 PIKE STREET, HARTFORD, WV 25247"
WV,county,MASON,MASON,27,FAITH BAPTIST CHURCH,"2550 2ND STREET, MASON, WV 25260"
WV,county,MASON,MASON,28,WAHAMA HIGH SCHOOL CAFETERIA,"1 WHITE FALCON DRIVE, MASON, WV 25260"
WV,county,MASON,POINT PLEASANT,29,FARM MUSEUM,"1458 FAIRGROUND ROAD, POINT PLEASANT, WV 25550"
WV,county,MASON,POINT PLEASANT,30,POINT PLEASANT HIGH SCHOOL,"280 SCENIC DRIVE, POINT PLEASANT, WV 25550"
WV,county,MASON,leon ,20-LE,LEON GRADE SCHOOL,"1226 BURDETTE STREET, leon , WV 25123"
WV,county,MCDOWELL,MAYBEURY,1,UPLAND BAPTIST ANNEX BLDG,"40256 COAL HERITAGE RD., MAYBEURY, WV 24861"
WV,county,MCDOWELL,,6,SACRED HEART CATHOLIC CHURCH,
WV,county,MCDOWELL,,11,NORTHFORK CITY HALL,
WV,county,MCDOWELL,,17,LIBERTY CHAPEL CHURCH,
WV,county,MCDOWELL,,20,RODERFIELD FIRE DEPARTMENT,
WV,county,MCDOWELL,BIG SANDY,21,FALL RIVER ELEM,"PO BOX, BIG SANDY, WV 24816"
WV,county,MCDOWELL,,23,DAVY COMMUNITY CENTER,
WV,county,MCDOWELL,,26,ROYAL BAPTIST CHURCH CAPELS WV,
WV,county,MCDOWELL,,28,WELCH CITY HALL,
WV,county,MCDOWELL,,32,VOCATIONAL SCHOOL,
WV,county,MCDOWELL,,34,WELCH ELEMENTARY SCHOOL,
WV,county,MCDOWELL,,40,KIMBALL ELEMENTARY SCHOOL,
WV,county,MCDOWELL,,50,KEYSTONE FIRE DEPARTMENT,
WV,county,MCDOWELL,,58,WILCOE HEALTH CENTER,
WV,county,MCDOWELL,,63,,
WV,county,MCDOWELL,,66,GARY COMMUNITY ROOM,"PO BOX, WV"
WV,county,MCDOWELL,,72,PAGETON UNITED METHODIST CHURCH,"PO BOX, WV"
WV,county,MCDOWELL,,73,ANAWALT FIRE DEPARTMENT,
WV,county,MCDOWELL,,78,COALWOOD FIRE DEPT.,"PO, WV"
WV,county,MCDOWELL,WAR,84,WAR FIRE DEPARTMENT,"PO, WAR, WV 24892"
WV,county,MCDOWELL,WAR,85,SOUTHSIDE ELEM,"PO BOX, WAR, WV 24892"
WV,county,MCDOWELL,,86,WAR FIRE DEPARTMENT,
WV,county,MCDOWELL,,87,THE BERWIND LODGE,"111, WV"
WV,county,MCDOWELL,SQUIRE,91,livelystone church,"P.O. BOX 1 SQUIRE, SQUIRE, WV 24884"
WV,county,MCDOWELL,,93,CARETTA COMMUNITY CENTER,
WV,county,MCDOWELL,BARTLEY,100,TRINITY ASSEMBLY CHURCH,"P.O. BOX, BARTLEY, WV 24813"
WV,county,MCDOWELL,BRADSHAW,102,BRADSHAW ELEM,"PO BOX, BRADSHAW, WV 24817"
WV,county,MCDOWELL,BRADSHAW,103,RIVERVIEW HIGH SCHOOL,"512 MOUNTAINEER HIGHWAY, BRADSHAW, WV 24817"
WV,county,MCDOWELL,,104,FAMILY WORSHIP CENTER,"P.O, WV"
WV,county,MCDOWELL,AVONDALE,105,SANDY RIVER MIDDLE SCHOOL,"P.O. BOX 419, AVONDALE, WV 24811"
WV,county,MCDOWELL,,106,IAEGER CITY HALL,
WV,county,MCDOWELL,IAEGER,107,IAEGER ELEM SCHOOL,"359 WATER ST, IAEGER, WV 24844"
WV,county,MCDOWELL,IAEGER,109,IAEGER ELEM SCHOOL,"359 WATER ST, IAEGER, WV 24844"
WV,county,MCDOWELL,PANTHER,111,PANTHER FIRE DEPARTMENT,"P.O. BOX, PANTHER, WV 24872"
WV,county,MCDOWELL,,112,DENVER HUNT'S OLD STORE BUILDING,"P.O. BOX, WV"
WV,county,MCDOWELL,PAYNESVILLE,113,BRADSHAW MT. COMM CHURCH,"16950 MARSHALL HWY, PAYNESVILLE, WV 24873"
WV,county,MCDOWELL,,116,RAYSAL FIRE DEPT.,"PO, WV"
WV,county,MERCER,BLUEFIELD,1,CERES SCHOOL,"3716 MAPLE ACRES RD, BLUEFIELD, WV 24701"
WV,county,MERCER,BLUEFIELD,2,BLUEWELL SCHOOL,"205 BLUEWELL SCHOOL RD, BLUEFIELD, WV 24701"
WV,county,MERCER,BLUEFIELD,3,BLUEWELL SCHOOL,"205 BLUEWELL SCHOOL RD, BLUEFIELD, WV 24701"
WV,county,MERCER,BLUEFIELD,4,BRUSHFORK SCHOOL,"140 BRUSHFORK SCHOOL RD, BLUEFIELD, WV 24701"
WV,county,MERCER,BLUEFIELD,14,GREATER MT ZION PENTECOSTAL CHUR,"104 PARK AVE, BLUEFIELD, WV"
WV,county,MERCER,BLUEFIELD,15,BLUEFIELD SALVATION ARMY,"900 HIGHLAND AVENUE, BLUEFIELD, WV 24701"
WV,county,MERCER,BLUEFIELD,20,SACRED HEART CATH CHURCH ANNEX,"P O BOX 608, BLUEFIELD, WV"
WV,county,MERCER,BLUEFIELD,27,MEMORIAL ELEMENTARY SCHOOL,"319 MEMORIAL AVE, BLUEFIELD, WV 24701"
WV,county,MERCER,BLUEFIELD,28,WESTMINISTER PRESBY CHURCH,"2212 WASHINGTON ST, BLUEFIELD, WV 24701"
WV,county,MERCER,BLUEFIELD,31,BLUEFIELD HIGH SCHOOL,"535 W CUMBERLAND RD, BLUEFIELD, WV 24701"
WV,county,MERCER,BLUEFIELD,32,BLUEFIELD AUDITORIUM ,"1780 STADIUM DRIVE, BLUEFIELD, WV 24701"
WV,county,MERCER,BLUEFIELD,36,CUMB HGTS ELEM SCHOOL,"3318 E CUMBERLAND RD, BLUEFIELD, WV 24701"
WV,county,MERCER,KELLYSVILLE,44,EAST RIVER RURITAN IN OAKVALE,"PO BOX 14, KELLYSVILLE, KELLYSVILLE, WV 24732"
WV,county,MERCER,PRINCETON,47,JOHNSTON CHAPEL HALLS RIDGE,"984 HALLS RIDGE RD, PRINCETON, WV"
WV,county,MERCER,PRINCETON,48,OLD SCHOOL BLDG WILLOWTON,"621 WILLOWTON RD, PRINCETON, WV"
WV,county,MERCER,LASHMEET,49,PINOAK COMMUNITY BUILDING,"2847 BEESON RD, LASHMEET, WV 24733"
WV,county,MERCER,SPANISHBURG,52,SPANISHBURG SCHOOL,"8544 BECKLEY RD, PO BOX 7, SPANISHBURG, WV 25922"
WV,county,MERCER,KEGLEY,53,KEGLEY BAPTIST CHURCH,"P O BOX 129, KEGLEY, WV"
WV,county,MERCER,PRINCETON,54,PIKEVIEW HIGH SCHOOL,"3566 EADS MILL RD, PRINCETON, WV 24739"
WV,county,MERCER,ATHENS,56,ATHENS MIDDLE SCHOOL GYM,"STATE ST, ATHENS, WV 24712"
WV,county,MERCER,ATHENS,57,ATHENS MASONIC LODGE BLDG,"       STATE STREET, ATHENS, WV 24712"
WV,county,MERCER,MATOAKA,58,LASHMEET MATOAKA SCHOOL,"ROUTE 10, PO BOX 408, MATOAKA, WV 24736"
WV,county,MERCER,ATHENS,59,CHURCH OF CHRIST PETTRY,"P O BOX 517, ATHENS, WV 24712"
WV,county,MERCER,MCCOMAS,60,CRANECREEK PENTE HOLINESS CHUR,"RR 02 BOX 319, MCCOMAS, WV"
WV,county,MERCER,LERONA,62,SUN VALLEY SCHOOL,"5281 HINTON RD, PO BOX 10, LERONA, WV 25971"
WV,county,MERCER,FLAT TOP,64,FLAT TOP POST OFFICE BUILDING,"FLAT TOP RD, FLAT TOP, WV"
WV,county,MERCER,PRINCETON,65,MELROSE SCHOOL ATHENS ROAD,"HC 71 BOX 257, ATHENS ROAD, PRINCETON, WV 24739"
WV,county,MERCER,NEMOURS,66,NEMOURS RURITAN BLDG,"P O BOX 113, NEMOURS, WV 24738"
WV,county,MERCER,BRAMWELL,67,BRAMWELL TOWN HALL,"100 SIMMONS AVENUE, BRAMWELL, WV 24715"
WV,county,MERCER,MONTCALM,68,MONTCALM HIGH SCHOOL,"710 SIMMONS RIVER RD, MONTCALM, WV"
WV,county,MERCER,ROCK,69,MONTCALM ELEM SCHOOL,"RT 2 BOX 35, ROCK, WV 24747"
WV,county,MERCER,PRINCETON,71,GLENWOOD SCHOOL,"1734 GLENWOOD PARK RD, PRINCETON, WV 24740"
WV,county,MERCER,PRINCETON,72,GLENWOOD SCHOOL,"1734 GLENWOOD PARK RD, PRINCETON, WV 24740"
WV,county,MERCER,PRINCETON,73,GLENWOOD SCHOOL,"1734 GLENWOOD PARK RD, PRINCETON, WV 24740"
WV,county,MERCER,PRINCETON,74,VO-TECH SCHOOL,"1397 STAFFORD DR, PRINCETON, WV 24740"
WV,county,MERCER,PRINCETON,75,PRINCETON PRESBYTERIAN CHURCH,"1809 MAIN ST, PRINCETON, WV"
WV,county,MERCER,PRINCETON,78,COMMISSION ON AGING BUILDING,"600 TRENT STREET, PRINCETON, WV 24740"
WV,county,MERCER,BLUEFIELD,79,CERES SCHOOL,"3716 MAPLE ACRES RD, BLUEFIELD, WV 24701"
WV,county,MERCER,PRINCETON,80,MEMORIAL BUILDING,"WEST MAIN, PRINCETON, WV 24740"
WV,county,MERCER,PRINCETON,81,PRINCETON JR HIGH SCHOOL,"300 N JOHNSTON ST, PRINCETON, WV 24740"
WV,county,MERCER,PRINCETON,82,FIRST UNITED METHODIST CHURCH (FAMILY MINISTERIES CENTER),"100 CENTER ST, PRINCETON, WV 24740"
WV,county,MERCER,PRINCETON,85,SALVATION ARMY BUILDING,"P O BOX 1090, PRINCETON, WV 24740"
WV,county,MERCER,PRINCETON,86,PRINCETON APOSTOLIC CHURCH,"106 THORN ST, PRINCETON, WV"
WV,county,MERCER,PRINCETON,88,BURKE MEMORIAL BAPTIST  ,"100 OLIVER AVE, PRINCETON, WV 24740"
WV,county,MERCER,PRINCETON,89,NAZARENE CHURCH OAKVALE ROAD,"317 OAKVALE RD, PRINCETON, WV"
WV,county,MERCER,PRINCETON,95,SILVER SPGS ELEM SCHOOL,"821 BROADWAY ST, PRINCETON, WV 24740"
WV,county,MERCER,BLUEFIELD,96,NEW SALEM UNITED METHODIST CHURCH,"ROUTE 20, NEW HOPE ROAD, BLUEFIELD, WV 24701"
WV,county,MERCER,PRINCETON,98,VO TECH SCHOOL,"1397 STAFFORD DR, PRINCETON, WV 24740"
WV,county,MINERAL,KEYSER,1,CAMP MINCO,"REESES MILL, KEYSER, WV 26726"
WV,county,MINERAL,KEYSER,2,FOUNTAIN UNITED BRETHREN CHURCH,"RR 6- KNOBLEY RD, KEYSER, WV 26726"
WV,county,MINERAL,,3,CALVARY PENTECOSTAL SCHOOL,"CROSS, WV"
WV,county,MINERAL,KEYSER,4,FOUNTAIN UNITED BRETHREN CHURCH,"RR 6- KNOBLEY RD, KEYSER, WV 26726"
WV,county,MINERAL,KEYSER,5,SHORT GAP FIRE HALL,"KNOBLEY ROAD, KEYSER, WV"
WV,county,MINERAL,FORT ASHBY,7,FORT ASHBY COMMUNITY BLDG,"107 DANS RUN ROAD, FORT ASHBY, WV 26719"
WV,county,MINERAL,,8,ELK GARDEN SCHOOL,"ELK GARDEN, WV"
WV,county,MINERAL,,9,FORT ASHBY PRIMARY SCHOOL,"FORT ASHBY, WV"
WV,county,MINERAL,,10,FRANKFORT HIGH SCHOOL,
WV,county,MINERAL,,11,FRANKFORT HIGH SCHOOL,
WV,county,MINERAL,,12,WILEY FORD SCHOOL,"WILEY FORD, WV"
WV,county,MINERAL,RIDGELEY,13,SAINT ANTHONY'S CHURCH,"176 MAIN STREET, RIDGELEY, WV 26753"
WV,county,MINERAL,,15,WILEY FORD SCHOOL,"WILEY FORD, WV"
WV,county,MINERAL,KEYSER ,16,DISABLED AMERICAN VETS BLD,"MAIN STREET, KEYSER , WV"
WV,county,MINERAL,KEYSER,18,AMERICAN LEGION BLD,"MAIN STREET, KEYSER, WV 26726"
WV,county,MINERAL,KEYSER,19,KEYSER PRESBYTERIAN CHURCH,"MINERAL STREET, KEYSER, WV"
WV,county,MINERAL,KEYSER,20,POTOMAC HEIGHTS COMMUNITY ROOM,"500 CARSKADON STREET, KEYSER, WV"
WV,county,MINERAL,KEYSER,21,ST. MARY'S HALL,"JAMES STREET, KEYSER, WV"
WV,county,MINERAL,KEYSER,23,CLARY STREET LEARNING CENTER,"CLARY STREET, KEYSER, WV"
WV,county,MINERAL,KEYSER,24,VO-TECH SCHOOL,"HARLEY STAGGERS DR, KEYSER, WV"
WV,county,MINERAL,KEYSER,25,VO-TECH SCHOOL,"HARLEY STAGGERS DR, KEYSER, WV"
WV,county,MINERAL,KEYSER,26,SECOND BAPTIST CHURCH,"HOLLYWOOD ROAD, KEYSER, WV 26726"
WV,county,MINERAL,,27,NEW CREEK SCHOOL,"NEW CREEK, WV"
WV,county,MINERAL,,28,NEW CREEK SCHOOL,"NEW CREEK, WV"
WV,county,MINERAL,,30,PIEDMONT HI-RISE COMMUNITY RM,"PIEDMONT, WV"
WV,county,MINERAL,,31,HOLY CROSS UNITED METHODIST,"CARPENDALE, WV"
WV,county,MINERAL,,32,FRANKFORT HIGH SCHOOL,
WV,county,MINERAL,KEYSER,33,VO-TECH SCHOOL,"HARLEY STAGGERS DR, KEYSER, WV"
WV,county,MINERAL,BURLINGTON,34,BURLINGTON SCHOOL,"PATTERSON CREEK RD, BURLINGTON, WV"
WV,county,MINERAL,NEW CREEK,35,ANTIOCH COMMUNITY BUILDING,"KNOBLEY RD-ANTIOCH, NEW CREEK, WV"
WV,county,MINGO,WILLIAMSON,1,WILLIAMSON TOWERS,"730 EAST 4TH AVE, WILLIAMSON, WV 25661"
WV,county,MINGO,WILLIAMSON,3,VINSON ST. CURRICULUM CENTER,"217 LIBERTY STREET, WILLIAMSON, WV 25661"
WV,county,MINGO,WILLIAMSON,7,WILLIAMSON HIGH SCHOOL BLDG,"801 ALDERSON STREET, WILLIAMSON, WV 25661"
WV,county,MINGO,WILLIAMSON,9,FIELD HOUSE,"15 FIELDHOUSE ROAD, WILLIAMSON, WV 25661"
WV,county,MINGO,WILLIAMSON,23,NOLAN FREEWILL BAPTIST CHURCH,"30 NOLAN STREET, WILLIAMSON, WV 25661"
WV,county,MINGO,WILLIAMSON,26,BOARD OF EDUCATION BUILDING,"RT 52 CINDERELLA ROAD, WILLIAMSON, WV 25661"
WV,county,MINGO,DELBARTON,28,CAREWOOD CENTER,"DELBARTON, DELBARTON, WV 25670"
WV,county,MINGO,RAGLAND,30,CHRISTIAN F. CHURCH OF GOD,"ROCKHOUSE FORK, RAGLAND, WV 25690"
WV,county,MINGO,WILLIAMSON,41,TUG VALLEY HIGH SCHOOL,"555 PANTHER DRIVE, WILLIAMSON, WV 25671"
WV,county,MINGO,KERMIT,43,KERMIT CITY HALL,"MAIN STREET, KERMIT, WV 25674"
WV,county,MINGO,BREEDEN,45,BREEDEN CHURCH OF GOD,"BREEDEN, BREEDEN, WV 25666"
WV,county,MINGO,EDGARTON,50,DELORME BIBLE CHURCH,"RT 49 EDGARTON ROAD, EDGARTON, WV 25672"
WV,county,MINGO,MEADOR,55,BEECH CREEK PARK,"BEECH CREEK ROAD, MEADOR, WV 25682"
WV,county,MINGO,NORTH MATEWAN,56,MATEWAN GRADE SCHOOL,"NORTH MATEWAN, NORTH MATEWAN, WV"
WV,county,MINGO,RED JACKET,57,HATFIELD LODGING,"114 HATFIELD LODGING, RED JACKET, WV 25692"
WV,county,MINGO,GILBERT,72,STONELODGE,"JUSTICE, GILBERT, WV"
WV,county,MINGO,WHARNCLIFFE,73,WHARNCLIFFE PARK,"BEN CREEK ROAD, WHARNCLIFFE, WV 25651"
WV,county,MINGO,GILBERT,75,GILBERT ELEMENTARY SCHOOL,"GILBERT, GILBERT, WV 25621"
WV,county,MINGO,CHATTAROY,221,CHATTAROY FIRE DEPARTMENT,"14 BUFFALO CREEK ROAD, CHATTAROY, WV 25667"
WV,county,MINGO,CHATTAROY,222,CHATTAROY FIRE DEPARTMENT,"14 BUFFALO CREEK ROAD, CHATTAROY, WV 25667"
WV,county,MINGO,DELBARTON,271,CAREWOOD CENTER,"DELBARTON, DELBARTON, WV 25670"
WV,county,MINGO,DELBARTON,272,CAREWOOD CENTER,"DELBARTON, DELBARTON, WV 25670"
WV,county,MINGO,KERMIT,441,MARROWBONE FIRE DEPT,"MARROWBONE CREEK, KERMIT, WV 25674"
WV,county,MINGO,KERMIT,442,MARROWBONE FIRE DEPT,"MARROWBONE CREEK, KERMIT, WV 25674"
WV,county,MINGO,DINGESS,461,DINGESS GRADE SCHOOL,"SCHOOL HOUSE ROAD, DINGESS, WV 25671"
WV,county,MINGO,DINGESS,462,DINGESS GRADE SCHOOL,"SCHOOL HOUSE ROAD, DINGESS, WV 25671"
WV,county,MINGO,LENORE,471,LENORE MIDDLE SCHOOL,"LENORE, LENORE, WV 25676"
WV,county,MINGO,LENORE,472,LENORE MIDDLE SCHOOL,"LENORE, LENORE, WV 25676"
WV,county,MINGO,DELBARTON,481,GILMANS GROCERY,"RT 119 GILMAN DRIVE, DELBARTON, WV 25670"
WV,county,MINGO,DELBARTON,482,GILMANS GROCERY,"RT 119 GILMAN DRIVE, DELBARTON, WV 25670"
WV,county,MINGO,MATEWAN,511,MATEWAN GRADE SCHOOL,"100 CHAMBERS ST, MATEWAN, WV 25678"
WV,county,MINGO,MATEWAN,512,MATEWAN GRADE SCHOOL,"100 CHAMBERS ST, MATEWAN, WV 25678"
WV,county,MINGO,VARNEY,591,VARNEY COMMUNITY CENTER,"COMMUNITY CENTER ROAD, VARNEY, WV 25696"
WV,county,MINGO,VARNEY,592,VARNEY COMMUNITY CENTER,"COMMUNITY CENTER ROAD, VARNEY, WV 25696"
WV,county,MINGO,BAISDEN,741,BAISDEN FIRE DEPT,"GILBERT CREEK ROAD, BAISDEN, WV 25608"
WV,county,MINGO,BAISDEN,742,BAISDEN FIRE DEPT,"GILBERT CREEK ROAD, BAISDEN, WV 25608"
WV,county,MINGO,GILBERT,761,GILBERT ELEMENTARY SCHOOL,"GILBERT, GILBERT, WV 25621"
WV,county,MINGO,GILBERT,762,GILBERT ELEMENTARY SCHOOL,"GILBERT, GILBERT, WV 25621"
WV,county,MONONGALIA,MORGANTOWN,1,MOUNTAINVIEW ELEMENTARY SCHOOL,"661 GREENBAG ROAD, MORGANTOWN, WV 26508"
WV,county,MONONGALIA,MORGANTOWN,10,MONONGALIA COUNTY HEALTH DEPARTMENT,"453 VAN VOORHIS ROAD, MORGANTOWN, WV 26505"
WV,county,MONONGALIA,MORGANTOWN,13,MOUNTAINEER MIDDLE SCHOOL,"991 PRICE ST, MORGANTOWN, WV 26505"
WV,county,MONONGALIA,MORGANTOWN,16,BOPARC SENIOR/COMMUNITY CENTER,"287 EUREKA DRIVE, MORGANTOWN, WV 26505"
WV,county,MONONGALIA,STAR CITY,23,ST MARY'S CATHOLIC CHURCH,"3334-B UNIVERSITY AVENUE, STAR CITY, WV 26505"
WV,county,MONONGALIA,STAR CITY,25,ST MARY'S CATHOLIC CHURCH,"3334-B UNIVERSITY AVENUE, STAR CITY, WV 26505"
WV,county,MONONGALIA,MORGANTOWN,26,SUNCREST MIDDLE SCHOOL,"360 BALDWIN STREET, MORGANTOWN, WV 26505"
WV,county,MONONGALIA,MORGANTOWN,30,SABRATON BAPTIST CHURCH,"1641 SABRATON AVENUE, MORGANTOWN, WV 26531"
WV,county,MONONGALIA,MORGANTOWN,32,EASTWOOD SCHOOL,"677 201ST MEMORIAL HIGHWAY, MORGANTOWN, WV 26505"
WV,county,MONONGALIA,MORGANTOWN,33,ROCK FORGE PRESBYTERIAN CHURCH,"3085 EARL L CORE ROAD, MORGANTOWN, WV 26508"
WV,county,MONONGALIA,MORGANTOWN,35,MOUNTAINVIEW ELEMENTARY SCHOOL,"661 GREENBAG ROAD, MORGANTOWN, WV 26508"
WV,county,MONONGALIA,MORGANTOWN,36,NORTH ELEMENTARY SCHOOL,"825 CHESTNUT RIDGE ROAD, MORGANTOWN, WV 26505"
WV,county,MONONGALIA,MORGANTOWN,38,BROOKHAVEN SCHOOL,"1215 BAKER STREET, MORGANTOWN, WV 26508"
WV,county,MONONGALIA,BLACKSVILLE,40,MASON DIXON ELEMENTARY SCHOOL,"7041 MASON DIXON HWY, BLACKSVILLE, WV 26521"
WV,county,MONONGALIA,BLACKSVILLE,41,MASON DIXON ELEMENTARY SCHOOL,"7041 MASON DIXON HWY, BLACKSVILLE, WV 26521"
WV,county,MONONGALIA,MORGANTOWN,44,MORGANTOWN FAITH CENTER,"3190 BLUE HORIZON DR, MORGANTOWN, WV 26501"
WV,county,MONONGALIA,CASSVILLE,47,SCOTT'S RUN VFD (CASSVILLE),"719 MASON DIXON HWY, CASSVILLE, WV 26527"
WV,county,MONONGALIA,MORGANTOWN,48,MORGANTOWN FAITH CENTER,"3190 BLUE HORIZON DR, MORGANTOWN, WV 26501"
WV,county,MONONGALIA,BLACKSVILLE,51,CLAY BATTELLE HIGH SCHOOL,"5977 MASON DIXON HWY, BLACKSVILLE, WV 26521"
WV,county,MONONGALIA,CORE,52,MASON DIXON PARK,"79 BUCKEYE RD, CORE, WV 26541"
WV,county,MONONGALIA,MORGANTOWN,58,MYLAN PARK ELEMENTARY SCHOOL,"901 MYLAN PARK LANE, MORGANTOWN, WV 26501"
WV,county,MONONGALIA,FAIRMONT,59,SMITHTOWN SCHOOL COMMUNITY CENTER,"56 SMITHTOWN SCHOOL RD, FAIRMONT, WV 26554"
WV,county,MONONGALIA,MORGANTOWN,61,RIDGEDALE SCHOOL,"1550 GOSHEN ROAD, MORGANTOWN, WV 26508"
WV,county,MONONGALIA,MORGANTOWN,62,BROWN'S HALLECK COMMUNITY CENTER,"33 BREWER ROAD, MORGANTOWN, WV 26508"
WV,county,MONONGALIA,MORGANTOWN,63,MOUNTAINVIEW ELEMENTARY SCHOOL,"661 GREENBAG ROAD, MORGANTOWN, WV 26508"
WV,county,MONONGALIA,MORGANTOWN,64,SKYVIEW ELEMENTARY SCHOOL,"668 RIVER ROAD, MORGANTOWN, WV 26501"
WV,county,MONONGALIA,MORGANTOWN,67,ARNETTSVILLE COMMUNITY CENTER,"4120 FAIRMONT ROAD, MORGANTOWN, WV 26501"
WV,county,MONONGALIA,MORGANTOWN,68,MYLAN PARK ELEMENTARY SCHOOL,"901 MYLAN PARK LANE, MORGANTOWN, WV 26501"
WV,county,MONONGALIA,WESTOVER,71,WESTOVER CITY HALL,"500 DUPONT ROAD, WESTOVER, WV 26501"
WV,county,MONONGALIA,GRANVILLE,74,GRANVILLE VFD,"320 MAIN STREET, GRANVILLE, WV 26534"
WV,county,MONONGALIA,MORGANTOWN,76,SUNCREST MIDDLE SCHOOL,"360 BALDWIN STREET, MORGANTOWN, WV 26505"
WV,county,MONONGALIA,MORGANTOWN,77,CHEAT LAKE COMMUNITY CHURCH,"527 TYRONE ROAD, MORGANTOWN, WV 26508"
WV,county,MONONGALIA,MORGANTOWN,78,CHEAT LAKE ELEMENTARY SCHOOL,"154 CROSBY ROAD, MORGANTOWN, WV 26508"
WV,county,MONONGALIA,MORGANTOWN,79,CHEAT LAKE VFD,"409 FAIRCHANCE RD, MORGANTOWN, WV 26508"
WV,county,MONONGALIA,MORGANTOWN,81,UNIVERSITY HIGH SCHOOL,"131 BAKERS RIDGE RD, MORGANTOWN, WV 26508"
WV,county,MONONGALIA,MORGANTOWN,82,CHEAT LAKE VFD,"409 FAIRCHANCE RD, MORGANTOWN, WV 26508"
WV,county,MONONGALIA,MORGANTOWN,83,UNIVERSITY HIGH SCHOOL,"131 BAKERS RIDGE RD, MORGANTOWN, WV 26508"
WV,county,MONONGALIA,MORGANTOWN,86,NORTH ELEMENTARY SCHOOL,"825 CHESTNUT RIDGE ROAD, MORGANTOWN, WV 26505"
WV,county,MONONGALIA,MORGANTOWN,2A,MORGANTOWN HIGH SCHOOL,"109 WILSON AVENUE, MORGANTOWN, WV 26501"
WV,county,MONONGALIA,MORGANTOWN,2B,MORGANTOWN HIGH SCHOOL,"109 WILSON AVENUE, MORGANTOWN, WV 26501"
WV,county,MONONGALIA,BLACKSVILLE,51M,CLAY BATTELLE HIGH SCHOOL,"5977 MASON DIXON HWY, BLACKSVILLE, WV 26521"
WV,county,MONROE,ALDERSON,1,ALDERSON TOWN HALL,"311 SOUTH MONROE STREET, ALDERSON, WV 24910"
WV,county,MONROE,WOLF CREEK,3,BELLVIEW COMMUNITY CENTER,"101 BELLVIEW ROAD, WOLF CREEK, WV 24993"
WV,county,MONROE,UNION,5,MT. ALEXANDER FELLOWSHIP HALL,"8625 KNOBS ROAD, UNION, WV 24983"
WV,county,MONROE,SINKS GROVE,7,MT. PLEASANT PRESB. CHURCH,"585 FORT SPRING ROAD, SINKS GROVE, WV 24976"
WV,county,MONROE,SECOND CREEK,8,SECOND CREEK PENTECOSTAL HOLIN,"SECOND CREEK ROAD, SECOND CREEK, WV 24974"
WV,county,MONROE,UNION,12,BOARD OF EDUCATION OFFICE,"9875 WILLOW BEND ROAD, UNION, WV 24983"
WV,county,MONROE,UNION,13,MOUNTAIN VIEW SCHOOL,"121 MOUNTAIN VIEW DRIVE, UNION, WV 24983"
WV,county,MONROE,Gap Mills,16,GAP MILLS SUBSTATION BLDG,"56 Substation Road, Gap Mills, WV 24941"
WV,county,MONROE,SWEET SPRINGS,18,SWEET SPRINGS COMMUNITY BUILDING,"19766 SWEET SPRINGS VALLEY ROAD, SWEET SPRINGS, WV 24941"
WV,county,MONROE,WAITEVILLE,19,WAITEVILLE COMMUNITY CENTER,"1735 RAYS SIDING ROAD, WAITEVILLE, WV 24984"
WV,county,MONROE,GREENVILLE,22,GREENVILLE COMMUNITY CENTER,"5478 GREENVILLE ROAD, GREENVILLE, WV 24945"
WV,county,MONROE,LINDSIDE,23,MONROE COUNTY VO-TECH CENTER,"74 JAMES MONROE DRIVE, LINDSIDE, WV 24951"
WV,county,MONROE,PETERSTOWN,29,PETERSTOWN MIDDLE SCHOOL,"56 COLLEGE DRIVE, PETERSTOWN, WV 24963"
WV,county,MONROE,PETERSTOWN,30,PETERSTOWN ELEMENTARY SCHOOL,"150 COLLEGE DRIVE, PETERSTOWN, WV 24963"
WV,county,MONROE,BALLARD,31,RED SULPHUR COMMUNITY BUILDING,"416 INDIAN CREEK ROAD, BALLARD, WV 24918"
WV,county,MONROE,LINDSIDE,32,LINDSIDE SENIOR CENTER,"8395 SENECA TRAIL SOUTH, LINDSIDE, WV 24951"
WV,county,MONROE,BALLARD,33,CASHMERE COMMUNITY BUILDING,"67 WOODSON ROAD, BALLARD, WV 24918"
WV,county,MONROE,PETERSTOWN,34,BOZOO RURITAN BUILDING,"2654 PINHOOK ROAD, PETERSTOWN, WV 24983"
WV,county,MORGAN,BERKELEY SPRINGS,1,WARM SPRINGS MIDDLE SCHOOL,"1415 FAIRFAX STREET, BERKELEY SPRINGS, WV 25411"
WV,county,MORGAN,BERKELEY SPRINGS,2,WARM SPRINGS MIDDLE SCHOOL,"1415 FAIRFAX STREET, BERKELEY SPRINGS, WV 25411"
WV,county,MORGAN,BERKELEY SPRINGS,4,WIDMEYER ELEMENTARY SCHOOL,"10 MYERS ROAD, BERKELEY SPRINGS, WV 25411"
WV,county,MORGAN,BERKELEY SPRINGS,5,COMMUNITY SERVICE CENTER,"187 SOUTH GREEN STREET, BERKELEY SPRINGS, WV 25411"
WV,county,MORGAN,BERKELEY SPRINGS,6,BERKELEY SPRINGS HIGH SCHOOL CAFETERIA,"149 CONCORD AVENUE, BERKELEY SPRINGS, WV 25411"
WV,county,MORGAN,BERKELEY SPRINGS,7,MORGAN COUNTY COURTHOUSE,"77 FAIRFAX STREET, BERKELEY SPRINGS, WV 25411"
WV,county,MORGAN,BERKELEY SPRINGS,8,NORTH BERKELEY GRADE SCHOOL,"219 HARRISON AVENUE, BERKELEY SPRINGS, WV 25411"
WV,county,MORGAN,GREAT CACAPON,13,GREAT CACAPON ELEMENTARY,"SPRING STREET, GREAT CACAPON, WV 25422"
WV,county,MORGAN,PAW PAW ,18,PAW PAW ELEMENTARY SCHOOL,"422 MOSER AVENUE, PAW PAW , WV 25434"
WV,county,MORGAN,BERKELEY SPRINGS,21,LOVE ASSEMBLY OF GOD CHURCH YOUTH CENTER,"522 SOUTH, BERKELEY SPRINGS, WV 25411"
WV,county,MORGAN,HEDGESVILLE,23,PLEASANT VIEW ELEMENTARY,"10500 MARTINSBURG ROAD, HEDGESVILLE, WV 25427"
WV,county,MORGAN,BERKELEY SPRINGS,24,GREENWOOD ELEMENTARY SCHOOL,"8989 WINCHESTER GRADE RD, BERKELEY SPRINGS, WV 25411"
WV,county,MORGAN,BERKELEY SPRINGS,25,CACAPON STATE PARK,"522 SOUTH, CABIN 31, BERKELEY SPRINGS, WV 25411"
WV,county,NICHOLAS,CRAIGSVILLE,2,CBC FIRE STATION,"18800 WEBSTER ROAD, CRAIGSVILLE, WV 26205"
WV,county,NICHOLAS,FENWICK ,3,FENWICK MT/NEW HOPE COMM. BLDG,"NETTIE FENWICK ROAD, FENWICK , WV 26202"
WV,county,NICHOLAS,RICHWOOD,5,RICHWOOD CITY HALL,"6 WHITE AVENUE, RICHWOOD, WV 26261"
WV,county,NICHOLAS,RICHWOOD,7,W MAIN CHERRY RIVER ELE,"190 ROVERSIDE DRIVE , RICHWOOD, WV 26261"
WV,county,NICHOLAS,RICHWOOD,8,RICHWOOD CHERRY RIVER ELEM.,"190 RIVERSIDE DRIVE, RICHWOOD, WV 26202"
WV,county,NICHOLAS,RICHWOOD,9,Richwood Alumni Assoc Center ,"107 EAST MAIN STREET, RICHWOOD, WV 26261"
WV,county,NICHOLAS,SUMMERSVILLE ,13,MUDDLETY/NICH. CO. HIGH SCHOOL,"30 GRIZZLY LANE, SUMMERSVILLE , WV 26651"
WV,county,NICHOLAS,BIRCH RIVER,14,BIRCH RIVER ELEMENTARY,"1431 BIRCH RIVER RD, BIRCH RIVER, WV"
WV,county,NICHOLAS,SUMMERSVILLE,15,GLADE CREEK ELEMENTARY,"7950 WEBSTER ROAD, SUMMERSVILLE, WV 26651"
WV,county,NICHOLAS,CRAIGSVILLE,16,Beaver St Lukes Methd Church,"16414 WEBSTER ROAD, CRAIGSVILLE, WV 26205"
WV,county,NICHOLAS,CRAIGSVILLE,17,TIOGA/St Lukes Methd Church ,"16414 WEBSTER ROAD, CRAIGSVILLE, WV 26205"
WV,county,NICHOLAS,SUMMERSVILLE,18,COURTHOUSE,"700 MAIN STREET, SUMMERSVILLE, WV 26651"
WV,county,NICHOLAS,SUMMERSVILLE,19,SUMMERSVILLE MUNICIPAL BLDG.,"400 N BROAD STREET, SUMMERSVILLE, WV 26651"
WV,county,NICHOLAS,SUMMERSVILLE,20,SUMMERSVILLE FIRE STATION,"706 ARBUCKLE ROAD, SUMMERSVILLE, WV 26651"
WV,county,NICHOLAS,SWISS,23,SWISS/SIMS METHODIST CHURCH,"105 S SWISS ROAD, SWISS, WV 26690"
WV,county,NICHOLAS,BELVA,25,DIXIE BIBLE BAPTIST CHURCH,"24710 TURNPIKE ROAD , BELVA, WV 26656"
WV,county,NICHOLAS,SUMMERSVILLE ,27,LOCKWOOD/FAIRVIEW BAPTIST CHURCH,"13424 TURNPIKE ROAD , SUMMERSVILLE , WV 26651"
WV,county,NICHOLAS,NETTIE,28,NETTIE/PANTHER CRK ELEMENTARY,"10068 CANVAS NETTIE ROAD, NETTIE, WV 26681"
WV,county,NICHOLAS,CANVAS,29,CANVAS- JORDAN CHAPEL ,"94 GROVES ROAD , CANVAS, WV"
WV,county,NICHOLAS,LEIVASY,30,LEIVASY PEOPLES PLACE,"135 HINKLE O'DELL ROAD , LEIVASY, WV 26676"
WV,county,NICHOLAS,SUMMERSVILLE,31,ZELA ELEMENTARY,"165 COUNTRY ROAD, SUMMERSVILLE, WV 26651"
WV,county,NICHOLAS,KESLERS CROSS LANES ,32,KESLERS CROSS LANES KCL FR. ST,"1635 SUMMERSVILLE LAKE ROAD, KESLERS CROSS LANES , WV 26675"
WV,county,NICHOLAS,MT LOOKOUT ,33,MT LOOKOUT ELEMENTARY,"1945 MT LOOKOUT ROAD , MT LOOKOUT , WV 26678"
WV,county,NICHOLAS,MT NEBO,35,MT NEBO ELEMENTARY,"11- SCHOOL HOUSE LANE , MT NEBO, WV 26679"
WV,county,NICHOLAS,CRAIGSVILLE,01A,GAULEY RIVER ELEMENTARY,"100 SCHOOL STREET, CRAIGSVILLE, WV 26261"
WV,county,NICHOLAS,CRAIGSVILLE,01B,GAULEY RIVER ELEMENTARY,"100 SCHOOL STREET, CRAIGSVILLE, WV 26205"
WV,county,NICHOLAS,,21A,,
WV,county,NICHOLAS,SUMMERSVILLE,21B,SUMMERSVILLE ELEMENTARY,"108 MCKEES CREEK ROAD, SUMMERSVILLE, WV 26651"
WV,county,OHIO,WHEELING,4,WARWOOD MIDDLE SCHOOL,"150 VIKING DR, WHEELING, WV 26003"
WV,county,OHIO,WHEELING,5,WARWOOD MIDDLE SCHOOL,"150 VIKING DR, WHEELING, WV 26003"
WV,county,OHIO,WHEELING,20,NORTH PARK HEAD START,"FINCH AVE, WHEELING, WV 26003"
WV,county,OHIO,WHEELING,24,RIVERVIEW TOWERS,"601 MAIN ST, WHEELING, WV 26003"
WV,county,OHIO,WHEELING,28,CITY COUNTY BUILDING,"1500 CHAPLINE ST, WHEELING, WV 26003"
WV,county,OHIO,WHEELING,31,"RUSSELL NESBITT SERVICES, INC.","431 FULTON STREET, WHEELING, WV 26003"
WV,county,OHIO,WHEELING,36,Booker T Washington Plaza,"1030 CHAPLINE ST, WHEELING, WV 26003"
WV,county,OHIO,WHEELING,60,COMMUNITY OF CHRIST,"724 N FRONT ST, WHEELING, WV 26003"
WV,county,OHIO,WHEELING,69,MADISON ELEMENTARY SCHOOL,"91 ZANE STREET, WHEELING, WV 26003"
WV,county,OHIO,WHEELING,77,LUAU MANOR,"2230 CHAPLINE ST, WHEELING, WV 26003"
WV,county,OHIO,WHEELING,103,RITCHIE ELEMENTARY SCHOOL,"3700 WOOD ST, WHEELING, WV 26003"
WV,county,OHIO,WHEELING,104,RITCHIE ELEMENTARY SCHOOL,"3700 WOOD ST, WHEELING, WV 26003"
WV,county,OHIO,WHEELING,113,WOODSDALE ELEMENTARY SCHOOL,"BETHANY PIKE, WHEELING, WV 26003"
WV,county,OHIO,WHEELING,115,WOODSDALE ELEMENTARY SCHOOL,"BETHANY PIKE, WHEELING, WV 26003"
WV,county,OHIO,WHEELING,116,ST JOHNS SOCIAL ROOMS,"HEISKEL & MAPLE AVE, WHEELING, WV 26003"
WV,county,OHIO,WHEELING,120,POPLAR AVE FIRE HOUSE,"298 POPLAR AVE, WHEELING, WV 26003"
WV,county,OHIO,WHEELING,124,CHRIST UNITED METHODIST CHURCH,"1232 NATIONAL RD, WHEELING, WV 26003"
WV,county,OHIO,WHEELIING,125,TRIADELPHIA MIDDLE SCHOOL,"1636 NATIONAL RD, WHEELIING, WV 26003"
WV,county,OHIO,WHEELING,127,WHEELING JESUIT UNIVERSITY,"316 WASHINGTON AVE, WHEELING, WV 26003"
WV,county,OHIO,WHEELIING,129,TRIADELPHIA MIDDLE SCHOOL,"1636 NATIONAL RD, WHEELIING, WV 26003"
WV,county,OHIO,,130,BRIDGE ST MIDDLE SCHOOL,"JUNIOR AVE, WV"
WV,county,OHIO,WHEELING,135,ELM GROVE CIVIC ASSOCIATION,"21 SYCAMORE AVE, WHEELING, WV 26003"
WV,county,OHIO,,141,BRIDGE ST MIDDLE SCHOOL,"JUNIOR AVE, WV"
WV,county,OHIO,WHEELING,148,STONE PRESBYTERIAN CHURCH,"25 E COVE AVE, WHEELING, WV 26003"
WV,county,OHIO,WHEELING,010A,CLEARVIEW FIRE STATION,"166 CLEARVIEW AVE, WHEELING, WV 26003"
WV,county,OHIO,WHEELING,010V,CLEARVIEW FIRE STATION,"166 CLEARVIEW AVE, WHEELING, WV 26003"
WV,county,OHIO,WHEELING,011A,LAWRENCEFIELD CHAPEL,"TABLE ROCK LN, WHEELING, WV 26003"
WV,county,OHIO,WHEELING,012A,SHORT CREEK METHODIST CHURCH,"NORTH FORK RD, WHEELING, WV 26003"
WV,county,OHIO,WHEELING,013A,LAWRENCEFIELD CHAPEL,"TABLE ROCK LN, WHEELING, WV 26003"
WV,county,OHIO,WHEELING,016A,OGLEBAY PARK PAR 3,"OGLEBAY PARK, WHEELING, WV 26003"
WV,county,OHIO,WHEELING,103A,RITCHIE ELEMENTARY SCHOOL,"3700 WOOD ST, WHEELING, WV 26003"
WV,county,OHIO,WHEELING,104A,RITCHIE ELEMENTARY SCHOOL,"3700 WOOD ST, WHEELING, WV 26003"
WV,county,OHIO,WHEELING,107A,Bethlehem Elementary,"22 CHAPEL RD, WHEELING, WV 26003"
WV,county,OHIO,WHEELING,108A,Bethlehem Elementary,"22 CHAPEL RD, WHEELING, WV 26003"
WV,county,OHIO,WHEELING,137A,ELM GROVE ELEMENTARY SCHOOL,"MIL ACRES DR, RD  2 BOX 444, WHEELING, WV 26003"
WV,county,OHIO,,141A,BRIDGE ST MIDDLE SCHOOL,"JUNIOR AVE, WV"
WV,county,OHIO,TRIADELPHIA,143A,TRIADELPHIA COMMUNITY CENTER,"RT 40 NATIONAL RD, TRIADELPHIA, WV 26059"
WV,county,OHIO,TRIADELPHIA,143V,TRIADELPHIA COMMUNITY CENTER,"RT 40 NATIONAL RD, TRIADELPHIA, WV 26059"
WV,county,OHIO,TRIADELPHIA,146A,TRIADELPHIA COMMUNITY CENTER,"RT 40 NATIONAL RD, TRIADELPHIA, WV 26059"
WV,county,OHIO,TRIADELPHIA,146V,TRIADELPHIA COMMUNITY CENTER,"RT 40 NATIONAL RD, TRIADELPHIA, WV 26059"
WV,county,OHIO,WEST LIBERTY,158A,WEST LIBERTY ELEMENTARY SCHOOL,"204 CHATHAM ST, WEST LIBERTY, WV 26074"
WV,county,OHIO,WEST LIBERTY,158V,WEST LIBERTY ELEMENTARY SCHOOL,"204 CHATHAM ST, WEST LIBERTY, WV 26074"
WV,county,OHIO,VALLEY GROVE,161A,VALLEY GROVE COMMUNITY CENTER,"RT 40, VALLEY GROVE, WV 26060"
WV,county,PENDLETON,,1,RURITAN BUILDING,
WV,county,PENDLETON,BRANDYWINE,2,BRANDYWINE FIRE HOUSE,"State Route 21, BRANDYWINE, WV"
WV,county,PENDLETON,,3,ELEMENTARY SCHOOL,
WV,county,PENDLETON,Franklin,5,COURTHOUSE - SOUTH,"100 S. Main Street, Franklin, WV"
WV,county,PENDLETON,Franklin,6,COURTHOUSE - NORTH,"100 S. Main Street, Franklin, WV"
WV,county,PENDLETON,,8,UPPER TRACT SCHOOL BLDG,"Rt. 220, WV"
WV,county,PENDLETON,,9,SCHMUCKER SCHOOL HOUSE,"SCHMUCKER ROAD, WV"
WV,county,PENDLETON,Sugar Grove,11,SUGAR GROVE RESCUE SQUAD BUILDING,"County Rd 21, Sugar Grove, WV"
WV,county,PENDLETON,,12,THORN CREEK YOUTH CENTER,"ST. RD 25, WV"
WV,county,PENDLETON,ONEGO,13,SENECA ROCKS FIREHOUSE,"RT. 33, ONEGO, WV"
WV,county,PENDLETON,,14,CLINTON HEDRICK COMMUNITY CENTER,"RT. 33, WV"
WV,county,PENDLETON,Franklin,07A,HIGH SCHOOL - SOUTH,"Rt. 33, Franklin, WV"
WV,county,PENDLETON,Franklin,07B,HIGH SCHOOL - NORTH,"Rt. 33, Franklin, WV"
WV,county,PLEASANTS,St. Marys,1,EUREKA,"5140 S. Pleasants Hwy., St. Marys, WV 26170"
WV,county,PLEASANTS,Belmont,2,BELMONT,"318 Main Street, Belmont, WV 26134"
WV,county,PLEASANTS,St. Marys,3,SCHULTZ,"4726 Cow Creek Rd., St. Marys, WV 26170"
WV,county,PLEASANTS,St. Marys,4,HEBRON,"13522 Hebron Rd., St. Marys, WV 26170"
WV,county,PLEASANTS,St. Marys,5,NINE MILE,"6454 Pike Rd., St. Marys, WV 26170"
WV,county,PLEASANTS,St. Marys,6,Mid Ohio Valley Technical Institute,"2134 N. Pleasants Hwy., St. Marys, WV 26170"
WV,county,PLEASANTS,Friendly,7,ARVILLA,"4516 Arvilla Rd., Friendly, WV 26146"
WV,county,PLEASANTS,St. Marys,8,CALCUTTA,"2553 Kings Ridge Rd., St. Marys, WV 26170"
WV,county,PLEASANTS,St. Marys,9,GRADE SCHOOL,"317 Washington St., St. Marys, WV 26170"
WV,county,PLEASANTS,St. Marys,11,PIONEER,"590 Shadow Hill Rd., St. Marys, WV 26170"
WV,county,POCAHONTAS,DURBIN,1,DURBIN FIRE STATION,"40 FOURTH AVENUE, PRECINCT 1, DURBIN, WV 26264"
WV,county,POCAHONTAS,FRANK,2,EAST FORK INDUSTRIAL PARK,"116 INDUSTRIAL PARK ROAD, PRECINCT 2, FRANK, WV 24920"
WV,county,POCAHONTAS,GREEN BANK,3,GREEN BANK ELEM. SCHOOL,"5917 POTOMAC HIGHLANDS TRAIL, PRECINCT 3, GREEN BANK, WV 24944"
WV,county,POCAHONTAS,CASS,4,CASS FIRE HOUSE,"40 FOURTH AVENUE, PRECINCT 4, CASS, WV 24927"
WV,county,POCAHONTAS,DUNMORE,6,DUNMORE COMMUNITY CENTER,"DUNMORE, PRECINCT 6, DUNMORE, WV 24934"
WV,county,POCAHONTAS,MARLINTON,10,MARLINTON ELEM SCHOOL,"400 9TH STREET, PRECINCT 10, MARLINTON, WV 24954"
WV,county,POCAHONTAS,MARLINTON,12,NAZARENE CHURCH,"20874 SENECA TRAIL, PRECINCT 12, MARLINTON, WV 24954"
WV,county,POCAHONTAS,MARLINTON,13,CENTRAL UNION COMM. CENTER,"BRUSH COUNTRY ROAD, PRECINCT 13, MARLINTON, WV 24954"
WV,county,POCAHONTAS,SLATYFORK,15,SENECA TRAIL COMM. CENTER,"34443 SENECA TRAIL, PRECINCT 15, SLATYFORK, WV 26291"
WV,county,POCAHONTAS,BUCKEYE,18,MARLINTON MIDDLE SCHOOL,"#1 COPPERHEAD RD, PRECINCT 18, BUCKEYE, WV 24924"
WV,county,POCAHONTAS,DUNMORE,21,FROST FIRE STATION,"217 POCAHONTAS HIGHWAY, PRECINCT 21, DUNMORE, WV 24934"
WV,county,POCAHONTAS,MARLINTON,23,HUNTERSVILLE BAPTIST CHURCH,"5837 HUNTERSVILLE RD, PRECINCT 23, MARLINTON, WV 24954"
WV,county,POCAHONTAS,BUCKEYE,26,TRINITY BAPTIST CHURCH,"12600 SENECA TRAIL, PRECINCT 26, BUCKEYE, WV 24924"
WV,county,POCAHONTAS,HILLSBORO,27,HILLSBORO SCHOOL,"7724 SENECA TRAIL, PRECINCT 27, HILLSBORO, WV 24946"
WV,county,POCAHONTAS,HILLSBORO,29,DROOP MT. OLIVET CHURCH,"374 SENECA TRAIL, PRECINCT 29, HILLSBORO, WV 24946"
WV,county,PRESTON,BRUCETON MILLS,1,BRUCETON MILLS FIRE HALL,"142 UNION ST, BRUCETON MILLS, WV 26525"
WV,county,PRESTON,BRUCETON MILLS,2,BRUCETON MILLS FIRE HALL,"142 UNION ST, BRUCETON MILLS, WV 26525"
WV,county,PRESTON,BRUCETON MILLS,3,SHADY GROVE CHURCH OF BRETHREN,"21 SHADY GROVE RD, BRUCETON MILLS, WV 26525"
WV,county,PRESTON,MASONTOWN,4,MASONTOWN VOL FIRE DEPT,"362 N MAIN ST, MASONTOWN, WV 26542"
WV,county,PRESTON,ALBRIGHT,5,MT MORIAH CHRISTIAN CTR,"8921 N PRESTON HWY, ALBRIGHT, WV 26519"
WV,county,PRESTON,ALBRIGHT,6,LENOX COMMUNITY CTR,"10782 BRANDONVILLE PKE, ALBRIGHT, WV 26519"
WV,county,PRESTON,KINGWOOD,7,CRAIG CIVIC CENTER,"311 TUNNELTON ST, KINGWOOD, WV 26537"
WV,county,PRESTON,KINGWOOD,8,ST JOSEPH'S CHURCH,"22 CHURCH DR, KINGWOOD, WV 26537"
WV,county,PRESTON,MASONTOWN,10,MASONTOWN VOL FIRE DEPT,"362 N MAIN ST, MASONTOWN, WV 26542"
WV,county,PRESTON,ARTHURDALE,11,ARTHURDALE HERITAGE BLDG,"18 Q RD, ARTHURDALE, WV 26520"
WV,county,PRESTON,ARTHURDALE,12,ARTHURDALE HERITAGE BLDG,"18 Q RD, ARTHURDALE, WV 26520"
WV,county,PRESTON,TERRA ALTA,14,TERRA ALTA AMBULANCE BLDG,"1124 E STATE AVE, TERRA ALTA, WV 26764"
WV,county,PRESTON,KINGWOOD,16,CRAIG CIVIC CENTER,"311 TUNNELTON ST, KINGWOOD, WV 26537"
WV,county,PRESTON,ALBRIGHT,17,ALBRIGHT COMMUNITY CTR,"2960 ST JOE RD, ALBRIGHT, WV 26519"
WV,county,PRESTON,TERRA ALTA,18,TERRA ALTA V F D,"1120 E STATE AVE, TERRA ALTA, WV 26764"
WV,county,PRESTON,AURORA,19,AURORA MEMORIAL BLDG,"24076 GEORGE WASHINGTON HWY, AURORA, WV 26705"
WV,county,PRESTON,TERRA ALTA,20,TERRA ALTA V F D,"1120 E STATE AVE, TERRA ALTA, WV 26764"
WV,county,PRESTON,INDEPENDENCE,21,GLADESVILLE COMMUNITY BLDG,"2929 GLADESVILLE RD, INDEPENDENCE, WV 26374"
WV,county,PRESTON,NEWBURG,22,NEWBURG SENIOR CENTER,"36 MORGANTOWN AVE, NEWBURG, WV 26410"
WV,county,PRESTON,EGLON,23,EGLON COMMUNITY BLDG,"25 MAIN ST, EGLON, WV 26716"
WV,county,PRESTON,TUNNELTON,24,FELLOWSVILLE V F D,"18 FIRE LOOP RD, TUNNELTON, WV 26444"
WV,county,PRESTON,TUNNELTON,25,TUNNELTON V F D,"42 BANK ST, TUNNELTON, WV 26444"
WV,county,PRESTON,TUNNELTON,26,TUNNELTON V F D,"42 BANK ST, TUNNELTON, WV 26444"
WV,county,PRESTON,ROWLESBURG,27,SZILAGYI CENTER,"20 N BUFFALO ST, ROWLESBURG, WV 26425"
WV,county,PRESTON,EGLON,28,FARMERS WILDLIFE CLUB BLDG,"295 HOGBACK RD, EGLON, WV 26716"
WV,county,PRESTON,BRUCETON MILLS,01T,BRUCETON MILLS FIRE HALL,"142 UNION ST, BRUCETON MILLS, WV 26525"
WV,county,PRESTON,BRUCETON MILLS,02T,BRUCETON MILLS FIRE HALL,"142 UNION ST, BRUCETON MILLS, WV 26525"
WV,county,PRESTON,MASONTOWN,09T,VALLEY DISTRICT SENIOR CTR,"54 W HIGHLAND AVE, MASONTOWN, WV 26542"
WV,county,PRESTON,ARTHURDALE,12T,ARTHURDALE HERITAGE BLDG,"18 Q RD, ARTHURDALE, WV 26520"
WV,county,PRESTON,KINGWOOD,13T,CRAIG CIVIC CENTER,"311 TUNNELTON ST, KINGWOOD, WV 26537"
WV,county,PRESTON,KINGWOOD,15T,CRAIG CIVIC CENTER,"311 TUNNELTON ST, KINGWOOD, WV 26537"
WV,county,PRESTON,ALBRIGHT,17T,ALBRIGHT COMMUNITY CTR,"2960 ST JOE RD, ALBRIGHT, WV 26519"
WV,county,PRESTON,TERRA ALTA,18T,TERRA ALTA V F D,"1120 E STATE AVE, TERRA ALTA, WV 26764"
WV,county,PRESTON,NEWBURG,22T,NEWBURG SENIOR CENTER,"36 MORGANTOWN AVE, NEWBURG, WV 26410"
WV,county,PRESTON,TUNNELTON,25T,TUNNELTON V F D,"42 BANK ST, TUNNELTON, WV 26444"
WV,county,PRESTON,ROWLESBURG,27T,SZILAGYI CENTER,"20 N BUFFALO ST, ROWLESBURG, WV 26425"
WV,county,PUTNAM,BUFFALO,1,BUFFALO HIGH SCHOOL,"3317 BUFFALO ROAD, BUFFALO, WV 25033"
WV,county,PUTNAM,BUFFALO,2,BUFFALO ELEMENTARY SCHOOL,"ROUTE 1 BOX 93, BUFFALO, WV 25033"
WV,county,PUTNAM,RED HOUSE,4,MIDWAY UNITED METHODIST ACT BLDG      ,"ROUTE 2, RED HOUSE, WV 25168"
WV,county,PUTNAM,HURRICANE,7,HURRICANE MIDDLE SCHOOL,"518 MIDLAND TRAIL, HURRICANE, WV 25526"
WV,county,PUTNAM,HURRICANE,9,HURRICANE MIDDLE SCHOOL,"518 MIDLAND TRAIL, HURRICANE, WV 25526"
WV,county,PUTNAM,WINFIELD,11,WINFIELD ELEMENTARY SCHOOL,"2 WALL STREET, WINFIELD, WV 25213"
WV,county,PUTNAM,POCA,14,POCA HIGH SCHOOL,"RR 1 BOX 5-B, POCA, WV 25159"
WV,county,PUTNAM,POCA,15,POCA MIDDLE SCHOOL CAFETERIA,"162 MAIN STREET, POCA, WV 25159"
WV,county,PUTNAM,POCA,16,POCA MIDDLE SCHOOL CAFETERIA,"162 MAIN STREET, POCA, WV 25159"
WV,county,PUTNAM,RED HOUSE,17,CONFIDENCE ELEMENTARY SCHOOL,"HC 63 BOX 163, RED HOUSE, WV 25168"
WV,county,PUTNAM,BANCROFT,18,BANCROFT FIRE STATION,"507 WASHINGTON STREET,  , BANCROFT, WV 25011"
WV,county,PUTNAM,POCA,19,HEIZER COM CHURCH ACT BLDG,"RR 1 HEIZER CREEK ROAD, POCA, WV 25159"
WV,county,PUTNAM,POCA,21,BLDG ADJ TO THOMAS GROCERY,"2494 POCA RIVER ROAD S, POCA, WV 25159"
WV,county,PUTNAM,NITRO,22,RESA III BLDG,"3942 39TH STREET EAST, NITRO, WV 25143"
WV,county,PUTNAM,NITRO,23,ROCK BRANCH ELEMENTARY,"4616 FIRST AVENUE, NITRO, WV 25143"
WV,county,PUTNAM,FRAZIERS BOTTOM,30,FRAZIERS BOTTOM FIRE STATION,"2051 US ROUTE 35, FRAZIERS BOTTOM, WV 25082"
WV,county,PUTNAM,HURRICANE,31,BETHEL BAPTIST CHURCH,"895 HURRICANE CREEK ROAD, HURRICANE, WV 25526"
WV,county,PUTNAM,HURRICANE,32,VALLEY PARK - THE COMMONS,"1 VALLEY PARK DRIVE, HURRICANE, WV 25526"
WV,county,PUTNAM,ELEANOR,34,G W MIDDLE SCHOOL,"RT 62 N ROOSEVELT BLVD, ELEANOR CIRCLE, ELEANOR, WV 25070"
WV,county,PUTNAM,LIBERTY,35,JAMES BUSH'S STORE BUILDING,"ROUTE 1 BOX 157, JIM RIDGE ROAD, LIBERTY, WV 25124"
WV,county,PUTNAM,HOMETOWN,37,HOMETOWN ELEMENTARY SCHOOL,"ROUTE 62, SCHOOL LANE, HOMETOWN, WV 25109"
WV,county,PUTNAM,RED HOUSE,38,ROUTE 34 FIRE STATION,"ROUTE 1 ,  , RED HOUSE, WV 25168"
WV,county,PUTNAM,ELEANOR,40,G W ELEMENTARY SCHOOL,"ELEANOR CIRCLE,  , ELEANOR, WV 25070"
WV,county,PUTNAM,HURRICANE,41,HOLIDAY INN EXPRESS,"4218 STATE ROUTE 34, HURRICANE, WV 25526"
WV,county,PUTNAM,HURRICANE,42,HURRICANE HIGH SCHOOL,"3350 TEAYS VALLEY ROAD, HURRICANE, WV 25526"
WV,county,PUTNAM,SCOTT DEPOT,47,TEAYS VALLEY CHURCH OF GOD,"4430 TEAYS VALLEY ROAD, P O BOX 270, SCOTT DEPOT, WV 25560"
WV,county,PUTNAM,HURRICANE,2019-06-01 00:00:00,HURRICANE MIDDLE SCHOOL,"518 MIDLAND TRAIL, HURRICANE, WV 25526"
WV,county,PUTNAM,HURRICANE,2019-06-02 00:00:00,HURRICANE MIDDLE SCHOOL,"518 MIDLAND TRAIL, HURRICANE, WV 25526"
WV,county,PUTNAM,HURRICANE,2019-08-01 00:00:00,CONNER STREET ELEMENTARY,"445 CONNER STREET, HURRICANE, WV 25526"
WV,county,PUTNAM,HURRICANE,2019-08-02 00:00:00,CONNER STREET ELEMENTARY,"445 CONNER STREET, HURRICANE, WV 25526"
WV,county,PUTNAM,HURRICANE,2019-10-01 00:00:00,LAKESIDE ELEMENTARY SCHOOL,"2550 US ROUTE 60, HURRICANE, WV 25526"
WV,county,PUTNAM,HURRICANE,2019-10-02 00:00:00,LAKESIDE ELEMENTARY SCHOOL,"2550 US ROUTE 60, HURRICANE, WV 25526"
WV,county,PUTNAM,SCOTT DEPOT,25-1,SCOTT TEAYS ELEMENTARY SCHOOL,"4308 TEAYS VALLEY ROAD, SCOTT DEPOT, WV 25560"
WV,county,PUTNAM,SCOTT DEPOT,25-2,SCOTT TEAYS ELEMENTARY SCHOOL,"4308 TEAYS VALLEY ROAD, SCOTT DEPOT, WV 25560"
WV,county,PUTNAM,WINFIELD,26-1,WINFIELD ELEMENTARY SCHOOL,"2 WALL STREET, WINFIELD, WV 25213"
WV,county,PUTNAM,WINFIELD,26-2,WINFIELD ELEMENTARY SCHOOL,"2 WALL STREET, WINFIELD, WV 25213"
WV,county,PUTNAM,SCOTT DEPOT,27-1,SCOTT TEAYS ELEMENTARY SCHOOL,"4308 TEAYS VALLEY ROAD, SCOTT DEPOT, WV 25560"
WV,county,PUTNAM,SCOTT DEPOT,27-2,SCOTT TEAYS ELEMENTARY SCHOOL,"4308 TEAYS VALLEY ROAD, SCOTT DEPOT, WV 25560"
WV,county,PUTNAM,WINFIELD,28-1,EASTBROOK ELEMENTARY SCHOOL,"1600 BILLS CREEK ROAD, WINFIELD, WV 25213"
WV,county,PUTNAM,WINFIELD,28-2,EASTBROOK ELEMENTARY SCHOOL,"1600 BILLS CREEK ROAD, WINFIELD, WV 25213"
WV,county,PUTNAM,HURRICANE,29-1,MOUNTAIN VIEW ELEMENTARY SCHOOL,"3967 TEAYS VALLEY ROAD,  , HURRICANE, WV 25526"
WV,county,PUTNAM,HURRICANE,29-2,MOUNTAIN VIEW ELEMENTARY SCHOOL,"3967 TEAYS VALLEY ROAD,  , HURRICANE, WV 25526"
WV,county,PUTNAM,HURRICANE,33-1,VALLEY PARK COMMUNITY CENTER,"1 VALLEY PARK DRIVE, HURRICANE, WV 25526"
WV,county,PUTNAM,HURRICANE,33-2,VALLEY PARK COMMUNITY CENTER,"1 VALLEY PARK DRIVE, HURRICANE, WV 25526"
WV,county,PUTNAM,HURRICANE,43-1,WEST TEAYS ELEMENTARY SCHOOL,"3676 TEAYS VALLEY ROAD, HURRICANE, WV 25526"
WV,county,PUTNAM,HURRICANE,43-2,WEST TEAYS ELEMENTARY SCHOOL,"3676 TEAYS VALLEY ROAD, HURRICANE, WV 25526"
WV,county,RALEIGH,BECKLEY,1,RALEIGH COUNTY COURTHOUSE,"215 MAIN STREET, BECKLEY, WV 25801"
WV,county,RALEIGH,BECKLEY,2,1ST CHURCH OF THE NAZARENE - LIFE CENTER,"607 JOHNSTOWN ROAD, BECKLEY, WV 25801"
WV,county,RALEIGH,BECKLEY,3,ELINOR HURT HEALTH CENTER,"1602 HARPER ROAD, BECKLEY, WV 25801"
WV,county,RALEIGH,BECKLEY,4,MAXWELL HILL BAPTIST CHURCH,"301 TEEL ROAD, BECKLEY, WV 25801"
WV,county,RALEIGH,BECKLEY,5,MAXWELL HILL ELEMENTARY SCHOOL,"1001 MAXWELL HILL ROAD, BECKLEY, WV 25801"
WV,county,RALEIGH,BECKLEY,6,MAXWELL HILL ELEMENTARY SCHOOL,"1001 MAXWELL HILL ROAD, BECKLEY, WV 25801"
WV,county,RALEIGH,BECKLEY,7,CRESCENT ELEMENTARY SCHOOL,"205 CRESCENT ROAD, BECKLEY, WV 25801"
WV,county,RALEIGH,BECKLEY,8,CRESCENT ELEMENTARY SCHOOL,"205 CRESCENT ROAD, BECKLEY, WV 25801"
WV,county,RALEIGH,BECKLEY,9,MAXWELL HILL BAPTIST CHURCH,"301 TEEL ROAD, BECKLEY, WV 25801"
WV,county,RALEIGH,BECKLEY,10,BECKLEY CITY HALL,"409 SOUTH KANAWHA STREET, BECKLEY, WV 25801"
WV,county,RALEIGH,BECKLEY,11,PARK MIDDLE SCHOOL,"212 PARK AVENUE, BECKLEY, WV 25801"
WV,county,RALEIGH,BECKLEY,12,PARK MIDDLE SCHOOL,"212 PARK AVENUE, BECKLEY, WV 25801"
WV,county,RALEIGH,BECKLEY,13,WOODROW WILSON HIGH SCHOOL,"400 STANAFORD ROAD, BECKLEY, WV 25801"
WV,county,RALEIGH,BECKLEY,14,WOODROW WILSON HIGH SCHOOL,"400 STANAFORD ROAD, BECKLEY, WV 25801"
WV,county,RALEIGH,BECKLEY ,15,BECKLEY-STRATTON MIDDLE SCHOOL,"401 GRAY FLATS ROAD, BECKLEY , WV 25801"
WV,county,RALEIGH,BECKLEY,16,MAXWELL HILL ELEMENTARY SCHOOL,"1001 MAXWELL HILL ROAD, BECKLEY, WV 25801"
WV,county,RALEIGH,BECKLEY,17,STRATTON ELEMENTARY SCHOOL,"1129 SOUTH FAYETTE STREET, BECKLEY, WV 25801"
WV,county,RALEIGH,BECKLEY,18,STRATTON ELEMENTARY SCHOOL,"1129 SOUTH FAYETTE STREET, BECKLEY, WV 25801"
WV,county,RALEIGH,BECKLEY,19,STRATTON ELEMENTARY SCHOOL,"1129 SOUTH FAYETTE STREET, BECKLEY, WV 25801"
WV,county,RALEIGH,BECKLEY ,20,BECKLEY-STRATTON MIDDLE SCHOOL,"401 GRAY FLATS ROAD, BECKLEY , WV 25801"
WV,county,RALEIGH,MABSCOTT,21,MABSCOTT ELEMENTARY SCHOOL,"104 PERSHING AVENUE, MABSCOTT, WV 25871"
WV,county,RALEIGH,MACARTHUR,22,HOLLYWOOD ELEMENTARY SCHOOL,"412 OLD MILL ROAD, MACARTHUR, WV 25873"
WV,county,RALEIGH,LESTER,23,LESTER ELEMENTARY SCHOOL,"1970 LESTER HIGHWAY, LESTER, WV 25865"
WV,county,RALEIGH,BECKLEY,24,MOUNT TABOR BAPTIST CHURCH,"262 MOUNT TABOR ROAD, BECKLEY, WV 25802"
WV,county,RALEIGH,RHODELL,25,RHODELL TOWN HALL,"7312 COAL CITY ROAD, RHODELL, WV 25915"
WV,county,RALEIGH,CRAB ORCHARD,26,CRAB ORCHARD ELEMENTARY SCHOOL,"1404 ROBERT C BYRD DRIVE, CRAB ORCHARD, WV 25827"
WV,county,RALEIGH,SOPHIA,27,SOPHIA UNITED METHODIST CHURCH,"506 WEST MAIN STREET, SOPHIA, WV"
WV,county,RALEIGH,CRAB ORCHARD,28,CRAB ORCHARD BAPTIST,"1501 ROBERT C BYRD DRIVE, CRAB ORCHARD, WV 25827"
WV,county,RALEIGH,COAL CITY,29,COAL CITY ELEMENTARY SCHOOL,"900 INDEPENDENCE ROAD, COAL CITY, WV 25823"
WV,county,RALEIGH,CRAB ORCHARD,30,CRAB ORCHARD ELEMENTARY SCHOOL,"1404 ROBERT C BYRD DRIVE, CRAB ORCHARD, WV 25827"
WV,county,RALEIGH,MACARTHUR,31,HOLLYWOOD ELEMENTARY SCHOOL,"412 OLD MILL ROAD, MACARTHUR, WV 25873"
WV,county,RALEIGH,HARPER HEIGHTS,32,HARPER HEIGHTS MISSIONARY BAPTIST CHURCH,"131 BERLIN COURT, HARPER HEIGHTS, WV"
WV,county,RALEIGH,CRAB ORCHARD,33,CRAB ORCHARD ELEMENTARY SCHOOL,"1404 ROBERT C BYRD DRIVE, CRAB ORCHARD, WV 25827"
WV,county,RALEIGH,CRAB ORCHARD,34,CRAB ORCHARD BAPTIST,"1501 ROBERT C BYRD DRIVE, CRAB ORCHARD, WV 25827"
WV,county,RALEIGH,MIDWAY,35,HILLTOP BAPTIST CHURCH,"320 FIRST AVENUE, MIDWAY, WV 25878"
WV,county,RALEIGH,LESTER,36,LESTER ELEMENTARY SCHOOL,"1970 LESTER HIGHWAY, LESTER, WV 25865"
WV,county,RALEIGH,SOPHIA,37,SOPHIA-SOAK CREEK ELEMENTARY SCHOOL,"200 MILL STREET, SOPHIA, WV 25921"
WV,county,RALEIGH,COAL CITY,38,COAL CITY ELEMENTARY SCHOOL,"900 INDEPENDENCE ROAD, COAL CITY, WV 25823"
WV,county,RALEIGH,LESTER,39,LESTER ELEMENTARY SCHOOL,"1970 LESTER HIGHWAY, LESTER, WV 25865"
WV,county,RALEIGH,COAL CITY,40,COAL CITY ELEMENTARY SCHOOL,"900 INDEPENDENCE ROAD, COAL CITY, WV 25823"
WV,county,RALEIGH,HELEN,41,POCKETS GAME ROOM,"104 KEESE DRIVE, HELEN, WV"
WV,county,RALEIGH,GHENT,42,GHENT ELEMENTARY SCHOOL,"2750 FLAT TOP ROAD, GHENT, WV 25843"
WV,county,RALEIGH,PINEY VIEW,43,PINEY VIEW BIBLE CHURCH,"2034 STANAFORD ROAD, PINEY VIEW, WV"
WV,county,RALEIGH,ECCLES,44,GRACEPOINTE FELLOWSHIP CHURCH,"3662 HARPER ROAD, ECCLES, WV"
WV,county,RALEIGH,GLEN DANIEL,45,LIBERTY HIGH SCHOOL,"1700 COAL RIVER ROAD, GLEN DANIEL, WV 25844"
WV,county,RALEIGH,FAIRDALE,46,FAIRDALE ELEMENTARY SCHOOL,"772 BOLT ROAD, FAIRDALE, WV 25839"
WV,county,RALEIGH,BOLT,47,BOLT CHURCH OF GOD,"2073 BOLT ROAD, BOLT, WV 25817"
WV,county,RALEIGH,JONBEN,48,VISION FREE WILL BAPTIST CHURCH,"137 ROARK DRIVE, JONBEN, WV 25856"
WV,county,RALEIGH,GHENT,49,GHENT ELEMENTARY SCHOOL,"2750 FLAT TOP ROAD, GHENT, WV 25843"
WV,county,RALEIGH,BECKLEY,50,"BOARD OF ED, CENTRAL OFFICE","105 ADAIR STREET, BECKLEY, WV 25801"
WV,county,RALEIGH,BECKLEY,51,FELLOWSHIP BIBLE CHURCH,"107 CHERRY STREET, BECKLEY, WV 25801"
WV,county,RALEIGH,PINEY VIEW,52,PINEY VIEW BIBLE CHURCH,"2034 STANAFORD ROAD, PINEY VIEW, WV"
WV,county,RALEIGH,BECKLEY,53,CRANBERRY-PROSPERITY ELEMENTARY SCHOOL,"4575 ROBERT C BYRD DRIVE, BECKLEY, WV 25801"
WV,county,RALEIGH,MT HOPE,54,BRADLEY ELEMENTARY SCHOOL,"210 BRADLEY SCHOOL ROAD, MT HOPE, WV 25880"
WV,county,RALEIGH,MT HOPE,55,BRADLEY ELEMENTARY SCHOOL,"210 BRADLEY SCHOOL ROAD, MT HOPE, WV 25880"
WV,county,RALEIGH,BECKLEY,56,MAXWELL HILL ELEMENTARY SCHOOL,"1001 MAXWELL HILL ROAD, BECKLEY, WV 25801"
WV,county,RALEIGH,BECKLEY,57,NEW PROSPECT BAPTIST CHURCH,"1853 SWEENEYSBURG ROAD, BECKLEY, WV 25801"
WV,county,RALEIGH,BECKLEY,58,CRANBERRY-PROSPERITY ELEMENTARY SCHOOL,"4575 ROBERT C BYRD DRIVE, BECKLEY, WV 25801"
WV,county,RALEIGH,MT HOPE,59,BRADLEY ELEMENTARY SCHOOL,"210 BRADLEY SCHOOL ROAD, MT HOPE, WV 25880"
WV,county,RALEIGH,ARNETT,60,ARNETT CHAPEL,"4472 COAL RIVER RD, ARNETT, WV 25007"
WV,county,RALEIGH,CLEAR CREEK,61,CLEAR FORK DISTRICT ELEMENTARY,"4851 CLEAR FORK ROAD, CLEAR CREEK, WV 25044"
WV,county,RALEIGH,COLCORD,62,COLCORD PRESBYTERIAN CHURCH,"275 HOME SCHOOL VILLAGE ROAD, COLCORD, WV 25048"
WV,county,RALEIGH,WHITESVILLE,63,NEW LIFE ASSEMBLY CHURCH,"12096 COAL RIVER ROAD, WHITESVILLE, WV 25209"
WV,county,RALEIGH,ROCK CREEK,64,MARSH FORK ELEMENTARY,"5960 COAL RIVER ROAD, ROCK CREEK, WV 25174"
WV,county,RALEIGH,CLEAR CREEK,65,CLEAR FORK DISTRICT ELEMENTARY,"4851 CLEAR FORK ROAD, CLEAR CREEK, WV 25044"
WV,county,RALEIGH,MT HOPE,66,MAPLE FORK BAPTIST CHURCH,"1288 MAPLE FORK ROAD, MT HOPE, WV 25880"
WV,county,RALEIGH,BECKLEY,67,DRY HILL PROSPERITY CENTER,"1829 MAXWELL HILL ROAD, BECKLEY, WV 25801"
WV,county,RALEIGH,ROCK CREEK,68,MARSH FORK ELEMENTARY,"5960 COAL RIVER ROAD, ROCK CREEK, WV 25174"
WV,county,RALEIGH,DANIELS,69,DANIELS MISS BAP CHURCH,"152 C AND O DAM RD, DANIELS, WV 25832"
WV,county,RALEIGH,BECKLEY,70,WOODROW WILSON HIGH SCHOOL,"400 STANAFORD ROAD, BECKLEY, WV 25801"
WV,county,RALEIGH,GLEN MORGAN,71,TILDEN COMMUNITY BAPTIST CHURCH,"133 TILDEN ROAD, GLEN MORGAN, WV"
WV,county,RALEIGH,BEAVER,72,BEAVER FIRST BAPTIST CHURCH,"251 OXLEY CIRCLE, BEAVER, WV 25813"
WV,county,RALEIGH,DANIELS,73,DANIELS ELEMENTARY SCHOOL,"351 4-H LAKE ROAD, DANIELS, WV 25832"
WV,county,RALEIGH,DANIELS,74,DANIELS ELEMENTARY SCHOOL,"351 4-H LAKE ROAD, DANIELS, WV 25832"
WV,county,RALEIGH,DANIELS,75,DANIELS BIBLE CHURCH,"1351 RITTER DRIVE, DANIELS, WV 25832"
WV,county,RALEIGH,SHADY SPRING,76,PERRY MEMORIAL UNITED METHODIST CHURCH,"202 LIVINGSTON STREET, SHADY SPRING, WV 25918"
WV,county,RALEIGH,SHADY SPRING,77,SHADY SPRING HIGH SCHOOL,"300 HINTON ROAD, SHADY SPRING, WV 25918"
WV,county,RALEIGH,DANIELS,78,DANIELS ELEMENTARY SCHOOL,"351 4-H LAKE ROAD, DANIELS, WV 25832"
WV,county,RALEIGH,SHADY SPRING,79,SHADY SPRING ELEMENTARY SCHOOL,"600 FLAT TOP ROAD, SHADY SPRING, WV 25918"
WV,county,RALEIGH,SHADY SPRING,80,CHURCH LANDS,"154 CRAB ORCHARD BAPTIST CAMP ROAD, SHADY SPRING, WV 25918"
WV,county,RALEIGH,HINTON,81,HOME OF DENNIS SURBER,"225 NEW RIVER DRIVE, HINTON, WV 25951"
WV,county,RALEIGH,DANIELS,82,DANIELS ELEMENTARY SCHOOL,"351 4-H LAKE ROAD, DANIELS, WV 25832"
WV,county,RALEIGH,DANIELS,83,DANIELS BIBLE CHURCH,"1351 RITTER DRIVE, DANIELS, WV 25832"
WV,county,RALEIGH,SHADY SPRING,84,PERRY MEMORIAL UNITED METHODIST CHURCH,"202 LIVINGSTON STREET, SHADY SPRING, WV 25918"
WV,county,RALEIGH,SHADY SPRING,85,SHADY SPRING HIGH SCHOOL,"300 HINTON ROAD, SHADY SPRING, WV 25918"
WV,county,RALEIGH,SHADY SPRING,86,OPEN DOOR BAPTIST CHURCH,"2875 RITTER DRIVE, SHADY SPRING, WV 25918"
WV,county,RALEIGH,SHADY SPRING,87,SHADY SPRING ELEMENTARY SCHOOL,"600 FLAT TOP ROAD, SHADY SPRING, WV 25918"
WV,county,RANDOLPH,ELKINS,23,JENNINGS RANDOLPH,"101 SCOTT FORD ROAD, ELKINS, WV 26241"
WV,county,RANDOLPH,ELKINS,24,JENNINGS RANDOLPH,"101 SCOTT FORD ROAD, ELKINS, WV 26241"
WV,county,RANDOLPH,ELKINS,25,COURTHOUSE ANNEX,"4 RANDOLPH AVE, ELKINS, WV 26241"
WV,county,RANDOLPH,ELKINS,27,ELKINS MIDDLE SCHOOL,"308 ROBERT E LEE AVENUE, ELKINS, WV 26241"
WV,county,RANDOLPH,ELKINS,28,ELKINS MIDDLE SCHOOL,"308 ROBERT E LEE AVENUE, ELKINS, WV 26241"
WV,county,RANDOLPH,ELKINS,30,COMMUNITY ARTS CENTER,"1 PARK STREET, ELKINS, WV 26241"
WV,county,RANDOLPH,ELKINS,31,ELKINS SENIOR CENTER,"5TH ST. & RAILROAD AVE., ELKINS, WV 26241"
WV,county,RANDOLPH,ELKINS,75,THIRD WARD SCHOOL,"111 NATHAN STREET, ELKINS, WV 26241"
WV,county,RANDOLPH,ELKINS,80,NORTH SCHOOL,"RT 2 BOX 320, ELKINS, WV 26241"
WV,county,RANDOLPH,ELKINS,85,MIDLAND SCHOOL,"150 KENNEDY DRIVE, ELKINS, WV 26241"
WV,county,RANDOLPH,COALTON,150,COALTON SCHOOL,"1 MAIN ST, PO BOX 129, COALTON, WV 26257"
WV,county,RANDOLPH,ELKINS,155,MIDLAND SCHOOL,"150 KENNEDY DRIVE, ELKINS, WV 26241"
WV,county,RANDOLPH,ELKINS,160,NORTH SCHOOL,"RT 2 BOX 320, ELKINS, WV 26241"
WV,county,RANDOLPH,KERENS,165,LEADING CREEK FIRE DEPT,"PO BOX 158, KERENS, WV 26276"
WV,county,RANDOLPH,ELKINS,170,NAZARENE FAMILY LIFE CENTER,"PO BOX 50, ELKINS, WV 26283"
WV,county,RANDOLPH,BOWDEN,180,BOWDEN FISH HATCHERY,"FAULKNER ROAD, BOWDEN, WV 26254"
WV,county,RANDOLPH,ELKINS,185,HARMAN HIGH SCHOOL,"PO BOX 130, ELKINS, WV 26241"
WV,county,RANDOLPH,WHITMER,190,WHITMER FIRE DEPT,"PO BOX 68, WHITMER, WV 26296"
WV,county,RANDOLPH,BEVERLY,200,BEVERLY FIRE HALL,"PO BOX 135, BEVERLY, WV"
WV,county,RANDOLPH,BEVERLY,202,BEVERLY FIRE HALL,"PO BOX 135, BEVERLY, WV"
WV,county,RANDOLPH,DAILEY,205,HOMESTEAD SCHOOL,"PO BOX 158, DAILEY, WV 26259"
WV,county,RANDOLPH,HUTTONSVILLE,210,HUTTONSVILLE COMMUNITY CENTER,"PO BOX 81, HUTTONSVILLE, WV 26273"
WV,county,RANDOLPH,VALLEY HEAD,215,VALLEY HEAD SCHOOL,"ROUTE 219 SOUTH, VALLEY HEAD, WV 26294"
WV,county,RANDOLPH,,220,PICKENS SCHOOL,"1 PANTHER PLACE, PO BOX 146, WV"
WV,county,RANDOLPH,MILL CREEK,225,GEORGE WARD SCHOOL,"HIGHWAY 219/250 SOUTH, MILL CREEK, WV 26280"
WV,county,RANDOLPH,MILL CREEK,227,GEORGE WARD SCHOOL,"HIGHWAY 219/250 SOUTH, MILL CREEK, WV 26280"
WV,county,RANDOLPH,ELKINS,28A,THIRD WARD SCHOOL,"111 NATHAN STREET, ELKINS, WV 26241"
WV,county,RITCHIE,ELLENBORO,1,ELLENBORO-FIRE DEPT BSMT,"103 E WASHINGTON STREET, ELLENBORO, WV 26346"
WV,county,RITCHIE,HARRISVILLE,2,PENNSBORO-LIBRARY BUILDING,"411 MAIN STREET, HARRISVILLE, WV 26362"
WV,county,RITCHIE,PENNSBORO,3,PENNSBORO-WOMANS CLUB,"MASONIC AVENUE, PENNSBORO, WV 26415"
WV,county,RITCHIE,PENNSBORO,4,PENNSBORO-CREED COLLINS SCHOOL,"COLLINS AVENUE, PENNSBORO, WV 26415"
WV,county,RITCHIE,CAIRO,5,CAIRO-SR. CITIZEN'S CENTER,"RAILROAD STREET, CAIRO, WV 26337"
WV,county,RITCHIE,GLENDALE,6,GLENDALE-COMMUNITY BLDG,"OLD ROUTE 50, GLENDALE, WV 26337"
WV,county,RITCHIE,PETROLEUM,7,RUSK-PETROLEUM COMMUNITY BLDG,"CISCO ROAD, PETROLEUM, WV 26161"
WV,county,RITCHIE,SMITHVILLE,8,SMITHVILLE-COMMUNITY BLDG,"STATE ROUTE 47, SMITHVILLE, WV 26178"
WV,county,RITCHIE,HARRISVILLE,9,INDIAN RUN-COM. OF CHRIST(CHURCH),"INDIAN CREEK ROAD, HARRISVILLE, WV 26362"
WV,county,RITCHIE,HARRISVILLE,10,HARRISVILLE-COURT HOUSE,"115 E MAIN STREET, HARRISVILLE, WV 26362"
WV,county,RITCHIE,PULLMAN,11,PULLMAN- COMMUNITY BLDG,"1 SCHOOL STREET, PULLMAN, WV 26421"
WV,county,RITCHIE,HARRISVILLE,12,HARRISVILLE-D.W.C. CENTER,"134 S PENN AVENUE, HARRISVILLE, WV 26362"
WV,county,RITCHIE,AUBURN,13,AUBURN-BAPTIST CHURCH,"12376 AUBURN ROAD, AUBURN, WV 26325"
WV,county,RITCHIE,HARRISVILLE,14,HARRISVILLE-WOMANS/LIONS CLUB,"121 W MAIN ST, HARRISVILLE, WV 26362"
WV,county,RITCHIE,ELLENBORO,15,ELLENBORO-FIRE DEPT MAIN FL,"103 E WASHINGTON STREET, ELLENBORO, WV 26346"
WV,county,ROANE,SPENCER,1,COURTHOUSE,"200 MAIN ST, SPENCER, WV 25276"
WV,county,ROANE,NEWTON,4,NEWTON COMMUNITY BLDG,"12330 CLAY RD, NEWTON, WV 25266"
WV,county,ROANE,LEFTHAND,5,GEARY ELEMENTARY SCHOOL,"9538 CLAY RD, LEFTHAND, WV 25251"
WV,county,ROANE,AMMA,6,AMMA SENIOR CITIZENS BLDG,"3401 AMMA RD, AMMA, WV 25005"
WV,county,ROANE,GANDEEVILLE,10,HARPER MEM CHURCH ACTIVITY RM,"789 JONES RIDGE, GANDEEVILLE, WV 25243"
WV,county,ROANE,REEDY,11,REEDY COMMUNITY BLDG,"126 MAIN ST, REEDY, WV 25276"
WV,county,ROANE,REEDY,12,REEDY SENIOR CITIZENS CENTER,"117 LATTIMER ST, REEDY, WV 25270"
WV,county,ROANE,LOONEYVILLE,15,LINDEN LODGE,"1841 LINDEN RD, LOONEYVILLE, WV 25259"
WV,county,ROANE,SPENCER,16,CLOVER PSD BLDG,"3369 CLAY RD, SPENCER, WV 25276"
WV,county,ROANE,SPENCER,18,SPENCER COMMUNITY BLDG,"110 CHURCH ST, SPENCER, WV 25276"
WV,county,ROANE,SPENCER,19,ROANE COUNTY LIBRARY,"110 PARKING PLAZA, SPENCER, WV 25276"
WV,county,ROANE,SPENCER,20,SPENCER MIDDLE SCHOOL,"BOWMAN ST, SPENCER, WV 25276"
WV,county,ROANE,SPENCER,21,SPENCER COA BLDG,"811 MADISON AVE, SPENCER, WV 25276"
WV,county,ROANE,SPENCER,22,ROANE COUNTY HIGH SCHOOL,"1 RAIDER WAY, SPENCER, WV 25276"
WV,county,ROANE,SPENCER,23,ROANE GENERAL HOSPITAL,"200 HOSPITAL DR, SPENCER, WV 25276"
WV,county,ROANE,SPENCER,25,SPENCER/ROANE FIRE DEPT,"209 EAST MAIN ST, SPENCER, WV 25276"
WV,county,ROANE,SPENCER,28,NATIONAL GUARD ARMORY,"207 EAST MAIN ST, SPENCER, WV 25276"
WV,county,ROANE,GANDEEVILLE,29,CAMP SHEPPARD,"249 CAMP SHEPPARD LANE, GANDEEVILLE, WV 25243"
WV,county,ROANE,WALTON,30,WALTON COMMUNITY CENTER,"6930 CHARLESTON RD, WALTON, WV 25286"
WV,county,ROANE,WALTON,32,WALTON ELEM/MIDDLE SCHOOL,"90 SCHOOL DR, WALTON, WV 25286"
WV,county,SUMMERS,FOREST HILL,1,FOREST HILL VFD,"16166 SR 12, FOREST HILL, WV 24935"
WV,county,SUMMERS,HINTON,4,WEST END-CITY GARAGE,"1800 TEMPLE STREET, HINTON, WV 25951"
WV,county,SUMMERS,HINTON,7,CITY HALL - HINTON TECHNOLOGY CENTER,"301 SUMMERS STREET, HINTON, WV 25951"
WV,county,SUMMERS,HINTON,9,HINTON AREA ELEM. SCHOOL,"121 PARK AVENUE, HINTON, WV 25951"
WV,county,SUMMERS,HINTON,11,BELLEPOINT -LIFELINE CHURCH,"505 STOKES DRIVE, HINTON, WV 25951"
WV,county,SUMMERS,HINTON,12,UPLAND-SCVFD SUBSTATION,"3737 ELK KNOB ROAD, HINTON, WV 25951"
WV,county,SUMMERS,HINTON,13,SUMMERS CO HOSPITAL CONFERENCE ROOM,"1500 TERRACE STREET, HINTON, WV 25951"
WV,county,SUMMERS,MEADOW BRIDGE,15,LICK CRK BAP FELLOWSHIP HALL,"13105 N SR 20, MEADOW BRIDGE, WV 25976"
WV,county,SUMMERS,SANDSTONE,17,GREEN SULPHUR DIST. VFD,"63 RIVER ROAD, SANDSTONE, WV 25985"
WV,county,SUMMERS,JUMPING BRANCH,22,JUMPING BRANCH SCHOOL,"6617 BEECH RUN ROAD, JUMPING BRANCH, WV 25969"
WV,county,SUMMERS,JUMPING BRANCH,23,WHITE OAK-JUMPING BR SCHOOL,"6617 BEECH RUN ROAD, JUMPING BRANCH, WV 25969"
WV,county,SUMMERS,HINTON,26,MADAMS CREEK MT. OLIVET CHURCH,"2291 MADAMS CREEK ROAD, HINTON, WV 25951"
WV,county,SUMMERS,PIPESTEM,27,PIPESTEM VOL. FIRE DEPARTMENT,"229 BROADWAY ROAD, PIPESTEM, WV 25979"
WV,county,SUMMERS,TALCOTT,30,TALCOTT SCHOOL,"133 TALCOTT SCHOOL ROAD, TALCOTT, WV 24981"
WV,county,SUMMERS,PENCE SPRINGS,32,PENCE SPRINGS AIRPORT OFFICE,"113 AIRPORT DRIVE, PENCE SPRINGS, WV 24962"
WV,county,SUMMERS,HINTON,04A,WEST END-CITY GARAGE,"1800 TEMPLE STREET, HINTON, WV 25951"
WV,county,TAYLOR,Flemington,1,WEST TAYLOR ELEMENTARY SCHOOL,"RR 1 Box 186-1, Flemington, WV 26347"
WV,county,TAYLOR,Grafton,2,TAYLOR COUNTY MIDDLE SCHOOL,"Valley Falls Rd Pruntytown, Grafton, WV 26354"
WV,county,TAYLOR,FAIRMONT,3,JANES MEMORIAL UM CHURCH,"RT. 250 FAIRMONT RD., FAIRMONT, WV 26554"
WV,county,TAYLOR,grafton,4,CALVARY BAPTIST CHURCH,"US Rt. 119 South, grafton, WV 26354"
WV,county,TAYLOR,Flemington,5,WEST TAYLOR ELEMENTARY SCHOOL,"RR 1 Box 186-1, Flemington, WV 26347"
WV,county,TAYLOR,GRAFTON,6,TAYLOR COUNTY SENIOR CENTER,"US RT 119 & US RT 250, GRAFTON, WV 26354"
WV,county,TAYLOR,GRAFTON,9,ANNA JARVIS ELEMENTARY SCHOOL,"650 N PIKE ST, GRAFTON, WV 26354"
WV,county,TAYLOR,GRAFTON,10,WILSON RIDGE CHURCH OF CHRIST,"WILSON RIDGE, GRAFTON, WV 26354"
WV,county,TAYLOR,Thornton,11,THORNTON FIRE HALL,"PO Box 97,  , Thornton, WV 26354"
WV,county,TAYLOR,Grafton,12,ANNA JARVIS SCHOOL,"650 N. Pike St., Grafton, WV 26354"
WV,county,TAYLOR,Grafton,14,FETTERMAN METHODIST CHURCH,"W. Main St., Grafton, WV 26354"
WV,county,TAYLOR,FLEMINGTON,17,FLEMINGTON COMM. BLDG,"47 E. VETERANS MEMORIAL DR., FLEMINGTON, WV 26347"
WV,county,TAYLOR,FLEMINGTON,19,FLEMINGTON COMM. BLDG.,"47 E. VETERANS MEMORIAL DR., FLEMINGTON, WV 26347"
WV,county,TAYLOR,Grafton,23,GRAFTON CITY BUILDING,"1 W. Main St., Grafton, WV 26354"
WV,county,TAYLOR,GRAFTON,25,BLUEVILLE CHURCH OF CHRIST,"RT 119 NORTH, GRAFTON, WV 26354"
WV,county,TAYLOR,GRAFTON,26,GRAFTON CITY BUILDING,"1 W. MAIN ST., GRAFTON, WV 26354"
WV,county,TAYLOR,grafton,29,GRAFTON HIGH SCHOOL ,"400 Riverside Drive, grafton, WV 26354"
WV,county,TAYLOR,Grafton,31,TAYLOR COUNTY LIBRARY,"200 Beech St., Grafton, WV 26354"
WV,county,TAYLOR,Grafton,36,PARADISE COVE COMMUNITY BLDG,"Knottsville Road, Grafton, WV 26354"
WV,county,TUCKER,HENDRICKS,1,HAMRICK PSD,"70 SECOND STREET, HENDRICKS, WV 26271"
WV,county,TUCKER,HAMBLETON,2,HAMBLETON CITY HALL,"105 FIFTH STREET, HAMBLETON, WV 26269"
WV,county,TUCKER,PARSONS,3,ST. JOHNS CHURCH,"107 RIVER STREET, PARSONS, WV 26287"
WV,county,TUCKER,PARSONS,4,TUCKER CO COURTHOUSE,"215 FIRST STREET, PARSONS, WV 26287"
WV,county,TUCKER,PARSONS,5,BOARD OF EDUCATION,"501 CHESTNUT STREET, PARSONS, WV 26287"
WV,county,TUCKER,PARSONS,10,SYCAMORE GROVE CHURCH,"219 BULL RUN ROAD, PARSONS, WV 26287"
WV,county,TUCKER,DAVIS,12,DAVIS CITY HALL,"505 WILLIAM AVE, DAVIS, WV 26260"
WV,county,TUCKER,RED CREEK,14,FLANAGAN HILL,"90 BUTCHERS RIDGE ROAD, RED CREEK, WV 26289"
WV,county,TUCKER,DAVIS,15,CANAAN VALLEY FIRE HALL,"6563 APPALACHIAN HIGHWAY, DAVIS, WV 26260"
WV,county,TUCKER,THOMAS,16,THOMAS CITY HALL,"307 SPRUCE STREET, THOMAS, WV 26292"
WV,county,TUCKER,PARSONS,24,ST. GEORGE UM CHURCH,"45 MINEARS MILL RUN ROAD, PARSONS, WV 26287"
WV,county,TYLER,Alma,1,VALLEY GRANGE,"State Route 18, Alma, WV 26320"
WV,county,TYLER,MIDDLEBOURNE,2,MIDDLEBOURNE FIRE HALL,"311 MAIN STREET, MIDDLEBOURNE, WV 26175"
WV,county,TYLER,Middlebourne,3,MIDDLEBOURNE STEALEY GREEN CEN,"Dodd Street, Middlebourne, WV 26149"
WV,county,TYLER,Sistersville,4,TYLER CONSOLIDATED HIGH SCHOOL,"1993 Silver Knight Drive, Sistersville, WV 26175"
WV,county,TYLER,Sistersville,5,SISTERSVILLE CHURCH OF CHRIST,"Oxford Street, Sistersville, WV 26175"
WV,county,TYLER,SISTERSVILLE,6,SISTERSVILLE METHODIST CHURCH,"610 MAIN STREET, SISTERSVILLE, WV 26175"
WV,county,TYLER,SHIRLEY,7,SHIRLEY VOLUNTEER FIRE DEPARTMENT,"State Route 23, SHIRLEY, WV 26434"
WV,county,TYLER,PADEN CITY,8,PADEN CITY (WETZEL-TYLER HEALTH DEPT.),"425 S 4TH AVENUE, PADEN CITY, WV 26159"
WV,county,TYLER,Wick,9,WICK PRECINCT,"County Rt. 7, Wick Road, Wick, WV 26135"
WV,county,TYLER,Middlebourne,10,BOREMAN SCHOOL,"State Route 18, Middlebourne, WV 26149"
WV,county,TYLER,Friendly,11,FRIENDLY BAPTIST CHURCH,"State Route 2, Friendly, WV 26146"
WV,county,TYLER,Alma,12,ALVY COMMUNITY BUILDING,"Indian Creek Road, Alma, WV 26320"
WV,county,UPSHUR,ROCK CAVE,4,ARLINGTON COMMUNITY BLDG,"15801 RT 20 SOUTH RD, ROCK CAVE, WV 26234"
WV,county,UPSHUR,ROCK CAVE,6,ROCK CAVE GRADE SCHOOL,"12292 RT 20 SOUTH RD, ROCK CAVE, WV 26234"
WV,county,UPSHUR,SELBYVILLE,7,SELBYVILLE FIRE DEPARTMENT,"264 BROOKS HILL RD, SELBYVILLE, WV 26236"
WV,county,UPSHUR,BUCKHANNON,8,BUCKHANNON ACADEMY SCHOOL,"16 COLLEGE AVE, BUCKHANNON, WV 26201"
WV,county,UPSHUR,BUCKHANNON,9,COURTHOUSE ANNEX,"38 W MAIN ST, BUCKHANNON, WV 26201"
WV,county,UPSHUR,Buckhannon,12,VO TECH SCHOOL,"RR 5 Box 2, Buckhannon, WV 26201"
WV,county,UPSHUR,BUCKHANNON,14,BUCKHANNON ACADEMY SCHOOL,"16 COLLEGE AVE, BUCKHANNON, WV 26201"
WV,county,UPSHUR,BUCKHANNON,16,BRUSHY FORK COMMUNITY BLDG,"649 BRUSHY FORK RD, BUCKHANNON, WV 26201"
WV,county,UPSHUR,Buckhannon,18,VO TECH SCHOOL,"RR 5 Box 2, Buckhannon, WV 26201"
WV,county,UPSHUR,BUCKHANNON,19,BU MIDDLE SCHOOL,"553 RT 20 SOUTH RD, BUCKHANNON, WV 26201"
WV,county,UPSHUR,BUCKHANNON,20,BU MIDDLE SCHOOL,"553 RT 20 SOUTH RD, BUCKHANNON, WV 26201"
WV,county,UPSHUR,FRENCH CREEK,25,FRENCH CREEK SCHOOL,"7619 RT 20 SOUTH RD, FRENCH CREEK, WV 26218"
WV,county,UPSHUR,FRENCH CREEK,27,FRENCH CREEK SCHOOL,"7619 RT 20 SOUTH RD, FRENCH CREEK, WV 26218"
WV,county,UPSHUR,BUCKHANNON,33,EXCELSIOR COMMUNITY BLDG,"2296 VEGAN RD, BUCKHANNON, WV 26201"
WV,county,UPSHUR,BUCKHANNON,35,UNION DISTRICT SCHOOL,"481 HEAVNER GROVE RD, BUCKHANNON, WV 26201"
WV,county,UPSHUR,BUCKHANNON,37,UNION DISTRICT SCHOOL,"481 HEAVNER GROVE RD, BUCKHANNON, WV 26201"
WV,county,UPSHUR,BUCKHANNON,38,HODGESVILLE GRADE SCHOOL,"918 TETER RD, BUCKHANNON, WV 26201"
WV,county,UPSHUR,BUCKHANNON,39,HODGESVILLE GRADE SCHOOL,"918 TETER RD, BUCKHANNON, WV 26201"
WV,county,UPSHUR,BUCKHANNON,40,BU MIDDLE SCHOOL,"553 RT 20 SOUTH RD, BUCKHANNON, WV 26201"
WV,county,UPSHUR,BUCKHANNON,44,BU MIDDLE SCHOOL,"553 RT 20 SOUTH RD, BUCKHANNON, WV 26201"
WV,county,UPSHUR,BUCKHANNON,47,WASHINGTON DIST SCHOOL,"5078 TALLMANSVILLE RD, BUCKHANNON, WV 26201"
WV,county,WAYNE,FORT GAY,1,FORT GAY PRE-K - 8,"1 VIKING DRIVE, FORT GAY, WV 25514"
WV,county,WAYNE,PRICHARD,5,PRICHARD ELEMENTARY ,"SCHOOL ROAD, PRICHARD, WV 25555"
WV,county,WAYNE,FORT GAY,6,FORT GAY PRE-K - 8,"1 VIKING DRIVE, FORT GAY, WV 25514"
WV,county,WAYNE,CEREDO,11,CEREDO ELEMENTARY ,"484 MAIN STREET, CEREDO, WV 25507"
WV,county,WAYNE,CEREDO,12,CEREDO ELEMENTARY CAFE ,"484 MAIN STREET, CEREDO, WV 25507"
WV,county,WAYNE,KENOVA,13,KENOVA VOL. FIRE DEPT,"1600 PINE STREET, KENOVA, WV 25530"
WV,county,WAYNE,KENOVA,14,BUFFALO ELEMENTARY-N END ,"331 BUFFALO CREEK RD , KENOVA, WV 25530"
WV,county,WAYNE,KENOVA,16,Kenova Vol. Fire Dept.,"1600 PINE STREET, KENOVA, WV 25530"
WV,county,WAYNE,KENOVA,17,BUFFALO ELEMENTARY ,"331 BUFFALO CREEK RD , KENOVA, WV 25530"
WV,county,WAYNE,PRICHARD ,18,PRICHARD ELEMENTARY GYM,"SCHOOL RD , PRICHARD , WV 25555"
WV,county,WAYNE,KENOVA,19,BISON CENTER ,"330 BUFFALO CREEK RD , KENOVA, WV 25530"
WV,county,WAYNE,KENOVA,20,KENOVA VOL. FIRE DEPT.,"1600 PINE STREET, KENOVA, WV 25530"
WV,county,WAYNE,KENOVA,21,Kenova Vol. Fire Dept.,"1600 PINE STREET, KENOVA, WV 25530"
WV,county,WAYNE,LAVALETTE,22,LAVALETTE WOMANS CLUB ,"RT 152 , LAVALETTE, WV 25535"
WV,county,WAYNE,GENOA,30,GENOA ELEMENTARY,"RT 152 , GENOA, WV 25517"
WV,county,WAYNE,FORT GAY ,31,THOMPSON CENTER ,"MILL CREEK RD, FORT GAY , WV 25514"
WV,county,WAYNE,CRUM,34,CRUM MIDDLE SCHOOL ,"150 SCHOOL STREET , CRUM, WV 25669"
WV,county,WAYNE,DUNLOW ,36,DUNLOW ELEMENTARY ,"RT 152 , DUNLOW , WV 25511"
WV,county,WAYNE,STEPPTOWN,37,STEPPTOWN SENIOR CITIZENS CENTER,"RT. 52, STEPPTOWN, WV 25674"
WV,county,WAYNE,EAST LYNN,41,EAST LYNN ELEMENTARY CAFE' ,"19594 EAST LYNN ROAD, EAST LYNN, WV 25512"
WV,county,WAYNE,EAST LYNN,42,ELDON PERRY STORE ,"BEECH FORK RD , EAST LYNN, WV 25512"
WV,county,WAYNE,EAST LYNN,45,EAST LYNN ELEMENTARY CAFE' ,"19594 EAST LYNN ROAD, EAST LYNN, WV 25512"
WV,county,WAYNE,LAVALETTE,48,LAVALETTE FIRE STATION ,"RT 152 8TH ST RD , LAVALETTE, WV 25535"
WV,county,WAYNE,LAVALETTE,49,LAVALETTE ELEMENTARY ,"BEECH FORK RD , LAVALETTE, WV 25535"
WV,county,WAYNE,WAYNE ,50,WAYNE MIDDLE SCHOOL ,"200 PIONEER WAY, WAYNE , WV 25570"
WV,county,WAYNE,WAYNE,51,WAYNE COMMUNITY CENTER,"1224 RT. 152, WAYNE, WV 25570"
WV,county,WAYNE,WAYNE,52,CROCKETT/BOOTEN FELLOWSHIP HALL ,"MILLERS FORK RD , WAYNE, WV 25570"
WV,county,WAYNE,WAYNE,53,WAYNE HIGH SCHOOL CAFE',"100 PIONEER WAY, WAYNE, WV 25570"
WV,county,WAYNE,WAYNE,54,WAYNE COMMUNITY CENTER,"1224 RT. 152, WAYNE, WV 25570"
WV,county,WAYNE,HUNTINGTON,56,SPRING VALLEY ACADEMIC CENTER ,"1640 SPRING VALLEY RD, HUNTINGTON, WV 25701"
WV,county,WAYNE,LAVALETTE ,57,LAVALETTE FIRE STATION ,"RT 152, 8TH ST RD , LAVALETTE , WV 25535"
WV,county,WAYNE,HUNTINGTON,59,KELLOGG ELEMENTARY,"4415 PIEDMONT RD , HUNTINGTON, WV 25701"
WV,county,WAYNE,HUNTINGTON,60,VINSON MIDDLE SCHOOL ,"3851 PIEDMONT RD , HUNTINGTON, WV 25704"
WV,county,WAYNE,HUNTINGTON,61,OLD WESTMORELAND MIDDLE SCHOOL ,"3609 HUGHES STREET, HUNTINGTON, WV 25701"
WV,county,WAYNE,HUNTINGTON,62,SPRING VALLEY ACADEMIC CENTER,"1640 SPRING VALLEY RD , HUNTINGTON, WV 25701"
WV,county,WAYNE,HUNTINGTON,63,OLD WESTMORELAND MIDDLE SCHOOL,"3609 HUGHES STREET , HUNTINGTON, WV 25701"
WV,county,WEBSTER,WEBSTER SPRINGS,2,BERGOO COMMUNITY BUILDING,"6 POST OFFICE LANE, WEBSTER SPRINGS, WV 26288"
WV,county,WEBSTER,WEBSTER SPRINGS,3,BOLAIR PUB. SER. DIST. BLDG.,"2199 WEBSTER ROAD, WEBSTER SPRINGS, WV 26288"
WV,county,WEBSTER,WEBSTER SPRINGS,4,WS ELEMENTARY SCHOOL,"55 RIVER DRIVE, WEBSTER SPRINGS, WV 26288"
WV,county,WEBSTER,DIANA,5,DIANA GRADE SCHOOL,"90 EAGLE LANE, DIANA, WV 26217"
WV,county,WEBSTER,WEBSTER SPRINGS,8,WS ELEMENTARY SCHOOL,"55 RIVER DRIVE, WEBSTER SPRINGS, WV 26288"
WV,county,WEBSTER,UPPER GLADE,10,WEBSTER COUNTY HIGH SCHOOL,"101 HIGHLANDER DRIVE, UPPER GLADE, WV 26266"
WV,county,WEBSTER,COWEN,15,GLADE ELEMENTARY SCHOOL,"25 MILL STREET, COWEN, WV 26206"
WV,county,WEBSTER,ERBACON,18,ERBACON COMMUNITY BUILDING,"5686 ERBACON ROAD, ERBACON, WV 26203"
WV,county,WEBSTER,COWEN,21,GLADE ELEMENTARY SCHOOL,"25 MILL STREET, COWEN, WV 26206"
WV,county,WEBSTER,CAMDEN ON GAULEY,22,CAMDEN SENIOR CITIZENS BLDG.,"9676 WEBSTER ROAD, CAMDEN ON GAULEY, WV 26208"
WV,county,WEBSTER,UPPER GLADE,23,WEBSTER COUNTY HIGH SCHOOL,"101 HIGHLANDER DRIVE, UPPER GLADE, WV 26266"
WV,county,WEBSTER,HACKER VALLEY,24,HACKER VALLEY GRADE SCHOOL,"60 SCHOOL LOOP ROAD, HACKER VALLEY, WV 26222"
WV,county,WEBSTER,DIANA,27,DIANA GRADE SCHOOL,"90 EAGLE LANE, DIANA, WV 26217"
WV,county,WEBSTER,WEBSTER SPRINGS,29,JUMBO COMMUNITY BUILDING,"13 LAUREL FORK ROAD, WEBSTER SPRINGS, WV 26288"
WV,county,WETZEL,WILEYVILLE,4,WILEYVILLE FIRE DEPARTMENT,"RT 7, WILEYVILLE, WV 26186"
WV,county,WETZEL,LITTLETON,5,LITTLETON CATHOLIC CHURCH,"2501 SUGAR RUN RD, LITTLETON, WV 26581"
WV,county,WETZEL,HUNDRED,10,HUNDRED HIGH SCHOOL,"RT 250, HUNDRED, WV 26575"
WV,county,WETZEL,PORTERS FALLS,15,RAYMOND LASURE HOME,"RT 20, PORTERS FALLS, WV 26162"
WV,county,WETZEL,READER,16,READER- SHORTLINE SCHOOL,"RT 20, READER, WV 26167"
WV,county,WETZEL,NEW MARTINSVILLE,18,BILLY HOWELL SR GARAGE,"RT 7, NEW MARTINSVILLE, WV 26155"
WV,county,WETZEL,PINE GROVE,21,VALLEY HIGH SCHOOL,"RT 20 1 LUMBERJACK LANE, PINE GROVE, WV 26419"
WV,county,WETZEL,JACKSONBURG,24,JACKSONBURG FIRE DEPT,"RT 20, JACKSONBURG, WV 26377"
WV,county,WETZEL,MOBLEY,27,MOBLEY SCHOOL HOUSE,"RT 15, MOBLEY, WV"
WV,county,WETZEL,FOLSOM,29,FOLSOM FIRE DEPARTMENT,"RT 20, FOLSOM, WV 26348"
WV,county,WETZEL,NEW MARTINSVILLE,33,CROSSROADS COMM NAZARENE CHURCH,"400 N MAIN ST, NEW MARTINSVILLE, WV 26155"
WV,county,WETZEL,NEW MARTINSVILLE,36,BOARD OF EDUCATION,"333 FOUNDRY ST, NEW MARTINSVILLE, WV 26155"
WV,county,WETZEL,PADEN CITY,38,CITY BUILDING,"208 WEST MAIN ST, PADEN CITY, WV 26159"
WV,county,WETZEL,PADEN CITY,39,PADEN CITY GRADE SCHOOL,"NORTH 2ND AVE, PADEN CITY, WV 26159"
WV,county,WETZEL,NEW MARTINSVILLE,40,FORMER DOOLIN CREEK ANTIQUES,"DOOLIN, NEW MARTINSVILLE, WV 26155"
WV,county,WETZEL,NEW MARTINSVILLE,42,LUTHERAN CHURCH,"196 NORTH ST RT 2, NEW MARTINSVILLE, WV 26155"
WV,county,WETZEL,NEW MARTINSVILLE,43,NEW MARTINSVILLE CH. OF GOD,"1249 NORTH ST RT 2, NEW MARTINSVILLE, WV 26155"
WV,county,WETZEL,NEW MARTINSVILLE,44,TRINITY PRESBYTERIAN CHURCH,"307 MCELDOWNEY AVE, NEW MARTINSVILLE, WV 26155"
WV,county,WETZEL,PROCTOR,45,GRANDVIEW DOOLIN PSD OFFICE,"RT 2, PROCTOR, WV 26055"
WV,county,WETZEL,GRANDVIEW,46,GRANDVIEW FIRE DEPARTMENT,"RT 89, GRANDVIEW, WV"
WV,county,WETZEL,NEW MARTINSVILLE,48,NEW MARTINSVILLE SCHOOL,"RT 2, NEW MARTINSVILLE, WV 26155"
WV,county,WETZEL,NEW MARTINSVILLE,50,CAREER CENTER,"RT 7, NEW MARTINSVILLE, WV 26155"
WV,county,WIRT,,1,BURNING SPRINGS,
WV,county,WIRT,,2,MUNDAY,
WV,county,WIRT,,7,ELIZABETH,
WV,county,WIRT,,8,PALESTINE,
WV,county,WIRT,,11,NEWARK,
WV,county,WIRT,,12,PEE WEE,
WV,county,WIRT,,17,MORRISTOWN,
WV,county,WIRT,,07A,NORTH ELIZABETH,
WV,county,WIRT,,11A,CENTER HILL,
WV,county,WOOD,PARKERSBURG,8,PARKERSBURG CITY BUILDING,"1 GOVERNMENT SQUARE, PARKERSBURG, WV 26101"
WV,county,WOOD,PARKERSBURG,10,GOOD SHEPHERD CHURCH,"903 CHARLES ST, PARKERSBURG, WV"
WV,county,WOOD,PARKERSBURG,13,JEFFERSON SCHOOL,"1103 PLUM ST, PARKERSBURG, WV 26101"
WV,county,WOOD,PARKERSBURG,16,16TH ST FIRE STATION,"500 16TH ST, PARKERSBURG, WV 26101"
WV,county,WOOD,PARKERSBURG,19,EMMANUEL BAPTIST CHURCH,"1710 23RD STREET, PARKERSBURG, WV 26101"
WV,county,WOOD,PARKERSBURG,27,CRISS SCHOOL/GYM,"2800 22ND ST, PARKERSBURG, WV"
WV,county,WOOD,PARKERSBURG,29,PKSBG HIGH SCHOOL/CAFE,"2101 DUDLEY AVE, PARKERSBURG, WV"
WV,county,WOOD,PARKERSBURG,32,MADISON SCHOOL,"1426 32ND ST, PARKERSBURG, WV"
WV,county,WOOD,PARKERSBURG,33,BEECHWOOD PRESBYTERIAN CHURCH,"703 30TH ST, PARKERSBURG, WV 26101"
WV,county,WOOD,PARKERSBURG,35,PKSBG/WOOD COUNTY LIBRARY,"3100 EMERSON AVE, PARKERSBURG, WV 26104"
WV,county,WOOD,PARKERSBURG,36,EMERSON SCHOOL/GYM,"1605 36TH ST, PARKERSBURG, WV"
WV,county,WOOD,PARKERSBURG,37,HAMILTON MIDDLE SCHOOL/GYM,"3501 CADILLAC DR, PARKERSBURG, WV"
WV,county,WOOD,PARKERSBURG,38,CALVARY MEMORIAL CHURCH,"607 WAYSIDE FARM RD, PARKERSBURG, WV 26101"
WV,county,WOOD,PARKERSBURG,40,WORTHINGTON SCHOOL/CAFE,"2500 36TH ST, PARKERSBURG, WV"
WV,county,WOOD,VIENNA,41,VIENNA LIBRARY,"2300 RIVER RD, VIENNA, WV 26105"
WV,county,WOOD,VIENNA,45,VIENNA SCHOOL/GYM,"700 41ST ST, VIENNA, WV"
WV,county,WOOD,VIENNA,46,GREENMONT SCHOOL/RIVER ENT,"209 58TH ST, VIENNA, WV"
WV,county,WOOD,VIENNA,47,FELLOWSHIP BAPTIST CHURCH,"3300 ROSEMAR ROAD, VIENNA, WV"
WV,county,WOOD,WILLIAMSTOWN,48,BOAZ LIONS CLUB,"315 VALLEY MANOR LN, WILLIAMSTOWN, WV 26187"
WV,county,WOOD,PARKERSBURG,49,MOVR AIRPORT/GENERAL AVIATION BLDG,"554 AIRPORT RD, PARKERSBURG, WV"
WV,county,WOOD,WILLIAMSTOWN,50,WILLIAMSTOWN ELEM SCHOOL/GYM,"418 WILLIAMS AVE, WILLIAMSTOWN, WV"
WV,county,WOOD,WILLIAMSTOWN,51,WILLIAMSTOWN ELEM SCHOOL/GYM,"418 WILLIAMS AVE, WILLIAMSTOWN, WV"
WV,county,WOOD,WILLIAMSTOWN,52,WILLIAMSTOWN CITY BLDG,"100 W 5TH ST, WILLIAMSTOWN, WV"
WV,county,WOOD,PARKERSBURG,53,UNION VALLEY BAPTIST CHURCH,"3349 OLD ST MARYS PIKE, PARKERSBURG, WV"
WV,county,WOOD,WAVERLY,54,WAVERLY SCHOOL/GYM,"422 VIRGINIA ST, WAVERLY, WV 26184"
WV,county,WOOD,DAVISVILLE,56,MURPHYTOWN DAV,"938 LITTLE STILLWELL RD, DAVISVILLE, WV"
WV,county,WOOD,PARKERSBURG,57,WVUP-WCE BUILDING,"300 CAMPUS DRIVE, PARKERSBURG, WV 26101"
WV,county,WOOD,DAVISVILLE,58,KANAWHA SCHOOL/CAFE,"6465 STAUNTON TPK, DAVISVILLE, WV"
WV,county,WOOD,DAVISVILLE,60,KANAWHA SCHOOL/CAFE,"6465 STAUNTON TPK, DAVISVILLE, WV"
WV,county,WOOD,WAVERLY,61,DEERWALK VOL FIRE DEPT,"9382 DEERWALK HWY, WAVERLY, WV"
WV,county,WOOD,WASHINGTON,62,WASHINGTON COMM BLDG,"10675 DUPONT RD, WASHINGTON, WV 26181"
WV,county,WOOD,PARKERSBURG,63,BLENNERHASSETT MIDDLE SCHOOL,"444 JEWELL RD, PARKERSBURG, WV 26101"
WV,county,WOOD,PARKERSBURG,64,BLENNERHASSETT ELEM SCHOOL,"444 JEWELL RD, PARKERSBURG, WV"
WV,county,WOOD,PARKERSBURG,67,LUBECK SCHOOL/GYM,"206 LUBECK RD, PARKERSBURG, WV 26101"
WV,county,WOOD,PARKERSBURG,69,FRANKLIN SCHOOL,"1511 DIVISION ST EXT, PARKERSBURG, WV 26101"
WV,county,WOOD,PARKERSBURG,71,FAIRPLAINS SCHOOL,"615 BROADWAY AVE, PARKERSBURG, WV"
WV,county,WOOD,PARKERSBURG,74,FRANKLIN SCHOOL,"1511 DIVISION ST EXT, PARKERSBURG, WV 26101"
WV,county,WOOD,PARKERSBURG,75,FAIRPLAINS ELEMENTARY,"615 BROADWAY AVE, PARKERSBURG, WV"
WV,county,WOOD,PARKERSBURG,77,EDISON MIDDLE SCHOOL,"1201 HILLCREST ST, PARKERSBURG, WV 26101"
WV,county,WOOD,PARKERSBURG,78,GRACE GOSPEL CHURCH,"6239 PIKE ST, PARKERSBURG, WV"
WV,county,WOOD,MINERAL WELLS,79,RODEWAY INN,"161 HOSPITALITY LN, MINERAL WELLS, WV 26150"
WV,county,WOOD,WASHINGTON,81,HOPEWELL CHURCH OF CHRIST,"6985 HARRIS HIGHWAY, WASHINGTON, WV 26181"
WV,county,WOOD,BELLEVILLE,82,BELLEVILLE COMM CENTER,"38 ROBINHOOD RD, BELLEVILLE, WV 26133"
WV,county,WOOD,BELLEVILLE,84,POND CREEK VOL FIRE DEPT,"6096 POND CREEK RD, BELLEVILLE, WV 26133"
WV,county,WOOD,ROCKPORT,85,ROCKPORT CHURCH OF CHRIST,"7173 SOUTHERN HWY, ROCKPORT, WV 26169"
WV,county,WOOD,MINERAL WELLS,86,MINERAL WELLS SCHOOL/GYM,"1776 ELIZABETH PIKE, MINERAL WELLS, WV 26150"
WV,county,WOOD,MINERAL WELLS,87,MINERAL WELLS SCHOOL/CAFE,"1776 ELIZABETH PIKE, MINERAL WELLS, WV 26150"
WV,county,WOOD,MINERAL WELLS,88,MINERAL WELLS SCHOOL/GYM,"1776 ELIZABETH PIKE, MINERAL WELLS, WV 26150"
WV,county,WOOD,MINERAL WELLS,89,MINERAL WELLS SCHOOL/CAFE,"1776 ELIZABETH PIKE, MINERAL WELLS, WV 26150"
WV,county,WOOD,PARKERSBURG,34A,VANDEVENDER MIDDLE SCHOOL,"918 31ST ST, PARKERSBURG, WV"
WV,county,WOOD,PARKERSBURG,36B,HAMILTON MIDDLE SCHOOL/GYM,"3501 CADILLAC DR, PARKERSBURG, WV"
WV,county,WOOD,PARKERSBURG,37A,CRISS SCHOOL/GYM,"2800 22ND ST, PARKERSBURG, WV"
WV,county,WOOD,VIENNA,40A,ROSEMAR UM CHURCH,"1272 ROSEMAR ROAD, VIENNA, WV"
WV,county,WOOD,VIENNA,41U,VIENNA LIBRARY,"2300 RIVER RD, VIENNA, WV 26105"
WV,county,WOOD,VIENNA,42A,NEALE SCHOOL/GYM,"2305 GRAND CENTRAL AVE, VIENNA, WV"
WV,county,WOOD,VIENNA,43A,NEALE SCHOOL/GYM,"2305 GRAND CENTRAL AVE, VIENNA, WV"
WV,county,WOOD,VIENNA,45A,VIENNA SCHOOL/CAFE,"700 41ST ST, VIENNA, WV"
WV,county,WOOD,VIENNA,46B,GREENMONT SCHOOL/RIVER ENT,"209 58TH ST, VIENNA, WV"
WV,county,WOOD,PARKERSBURG,49A,NEW HOPE BAPTIST CHURCH,"1777 ROSEMAR RD, PARKERSBURG, WV"
WV,county,WOOD,PARKERSBURG,53A,UNION VALLEY BAPTIST CHURCH,"3349 OLD ST MARYS PIKE, PARKERSBURG, WV"
WV,county,WOOD,WAVERLY,54A,WAVERLY SCHOOL/GYM,"422 VIRGINIA ST, WAVERLY, WV 26184"
WV,county,WOOD,PARKERSBURG,56A,RED HILL UM CHURCH/BASEMENT,"162 RED HILL CHURCH RD, PARKERSBURG, WV"
WV,county,WOOD,PARKERSBURG,57A,WVUP-WCE BUILDING,"300 CAMPUS DRIVE, PARKERSBURG, WV 26101"
WV,county,WOOD,WASHINGTON,62A,WASHINGTON COMM BLDG,"10675 DUPONT RD, WASHINGTON, WV 26181"
WV,county,WOOD,PARKERSURG,63A,BLENNERHASSETT ELEM SCHOOL,"444 JEWELL RD, PARKERSURG, WV 26101"
WV,county,WOOD,PARKERSBURG,63B,BLENNERHASSETT MIDDLE SCHOOL,"444 JEWELL RD, PARKERSBURG, WV 26101"
WV,county,WOOD,PARKERSBURG,67A,LUBECK  SCHOOL/GYM,"206 LUBECK RD, PARKERSBURG, WV 26101"
WV,county,WOOD,PARKERSBURG,71U,FAIRPLAINS SCHOOL,"615 BROADWAY AVE, PARKERSBURG, WV"
WV,county,WOOD,PARKERSBURG,74B,GIHON SCHOOL/MAIN HALL,"2300 BELMONT RD, PARKERSBURG, WV"
WV,county,WOOD,PARKERSBURG,74C,GIHON SCHOOL/BACK HALL,"2300 BELMONT RD, PARKERSBURG, WV"
WV,county,WOOD,PARKERSBURG,78A,THOMAS LAWNMOWER SERVICE,"119 THOMAS LN, PARKERSBURG, WV"
WV,county,WYOMING,GLEN FORK,101,GLEN FORK/GLEN FORK GRADE SCHOOL,"111 GLEN FORK HOLLOW RD, GLEN FORK, WV 25845"
WV,county,WYOMING,GLEN ROGERS,102,GLEN ROGERS COMMUNITY CHURCH,"2899 GLEN ROGERS RD, GLEN ROGERS, WV 25848"
WV,county,WYOMING,SAULSVILLE,103,MCGRAWS/SAULSVILLE/SWVCTC,"128 COLLEGE DR, SAULSVILLE, WV 25876"
WV,county,WYOMING,NEW RICHMOND,104,NEW RICHMOND/WYOMING EAST HIGH SCHOOL,"260 WARRIOR WAY, NEW RICHMOND, WV 24867"
WV,county,WYOMING,MABEN,105,MABEN/BILLY WAYNE BAILEY SR BUILDING,"3776 MOUNTAINEER HWY, MABEN, WV 25870"
WV,county,WYOMING,MULLENS,106,MULLENS/MORAN/MULLENS MIDDLE SCHOOL,"801 MORAN AVE, MULLENS, WV 25882"
WV,county,WYOMING,MULLENS,107,MULLENS TOWN/HILL/MOC,"300 FRONT ST, MULLENS, WV 25882"
WV,county,WYOMING,ALLEN JUNCTION,108,STEPHENSON/OLD WELTON CHAPEL CHURCH,"4017 GULF RD, ALLEN JUNCTION, WV 25810"
WV,county,WYOMING,BUD,109,BUD/HERNDON CONSOLIDATED GRADE SCHOOL,"4456 HERNDON RD, BUD, WV 24716"
WV,county,WYOMING,STEPHENSON,110,BASIN/BASIN COMMUNITY BUILDING,"5229 STEPHENSON BASIN RD, STEPHENSON, WV 25928"
WV,county,WYOMING,IKES FORK,201,IKES FORK/UMWA LOCAL 8783 UNION HALL,"8544 INTERSTATE HWY, IKES FORK, WV 24845"
WV,county,WYOMING,HANOVER,202,HANOVER/HUFF CONSOLIDATED GRADE SCHOOL,"5638 INTERSTATE HWY, HANOVER, WV 24839"
WV,county,WYOMING,BRENTON,203,BAILEYSVILLE/BAILEYSVILLE GRADE SCHOOL,"11618 RD BAILEY HWY, BRENTON, WV 24818"
WV,county,WYOMING,WYOMING,204,WYOMING/WYOMING COMMUNITY CHURCH,"4392 RD BAILEY HWY, WYOMING, WV 24898"
WV,county,WYOMING,PINEVILLE,205,PINEVILLE GRADE SCHOOL,"155 PARK ST, PINEVILLE, WV 24874"
WV,county,WYOMING,PINEVILLE,206,GULF FORK/NAZARENE CHURCH GYM,"1300 APPALACHIAN HWY, PINEVILLE, WV 24874"
WV,county,WYOMING,PINEVILLE,207,WOLF PEN/INDIAN CREEK COMMUNITY CHURCH,"5812 WELCH-PINEVILLE RD, PINEVILLE, WV 24874"
WV,county,WYOMING,MATHENY,301,MATHENY/MATHENY UNITED METHODIST CHURCH,"9561 APPALACHIAN HWY, MATHENY, WV 24860"
WV,county,WYOMING,OCEANA,302,KOPPERSTON/TONEY FK/OCEANA MIDDLE SCHOOL,"309 COOK PKWY, OCEANA, WV 24870"
WV,county,WYOMING,OCEANA,303,HATCHER/OCEANA MIDDLE SCHOOL,"309 COOK PKWY, OCEANA, WV 24870"
WV,county,WYOMING,OCEANA,304,OCEANA/OCEANA CITY HALL,"1285 COOK PKWY, OCEANA, WV 24870"
WV,county,WYOMING,CYCLONE,305,CYCLONE/ROAD BRANCH GRADE SCHOOL,"1165 HUFF CREEK RD, CYCLONE, WV 24827"
WV,county,WYOMING,CYCLONE,306,CYCLONE/ROAD BRANCH GRADE SCHOOL,"1165 HUFF CREEK RD, CYCLONE, WV 24827"
WV,county,WYOMING,CLEAR FORK,307,LYNCO/WEST SIDE HIGH SCHOOL,"122 RENEGADE RD, CLEAR FORK, WV 24822"
WV,county,WYOMING,CLEAR FORK,308,SUN HILL/WEST SIDE HIGH SCHOOL,"122 RENEGADE RD, CLEAR FORK, WV 24822"
WV,county,WYOMING,SIMON,309,SIMON GUYAN/HAZEL CONN'S BEAUTY SHOP,"1141 LONG BRANCH RD, SIMON, WV 24882"
WV,county,WYOMING,COAL MOUNTAIN,310,COAL MOUNTAIN FIRE DEPARTMENT,"8840 COAL MTN RD, COAL MOUNTAIN, WV 24823"
