address_location_name,address_line1,address_line2,address_line3,address_city,address_state,address_zip,directions,polling_hours,photo_url,id
"DAHLONEGAH SCHOOL","DAHLONEGAH SCHOOL","RT 1 BOX 351",,"STILWELL",OK,74960,,7:00 AM - 7:00 PM,,8811612
"PENTECOSTAL HOLINESS CHURCH","PENTECOSTAL HOLINESS CHURCH","102 N 6TH STREET",,"STILWELL",OK,74960,,7:00 AM - 7:00 PM,,8811615
"BELL SCHOOL","BELL SCHOOL","P O BOX  346",,"STILWELL",OK,74960,,7:00 AM - 7:00 PM,,8811621
"FOUR CORNER CHURCH OF CHRIST","FOUR CORNERS CHURCH OF CHRIST","HWY 100 EAST",,"STILWELL",OK,74960,,7:00 AM - 7:00 PM,,8811622
"WATTS BAPTIST CHURCH","WATTS BAPTIST CHURCH","",,"WATTS",OK,74964,,7:00 AM - 7:00 PM,,8811626
"BURLINGTON FIREHOUSE","BURLINGTON FIREHOUSE OFFICE","410 MAPLE",,"BURLINGTON",OK,73722,,7:00 AM - 7:00 PM,,8811629
"BM BAPTIST ASSOCIATION","1906 N WATTS","",,"SAYRE",OK,73662,,7:00 AM - 7:00 PM,,8811603
"CANTON COMMUNITY CENTER","301 NORTH GARFIELD","",,"CANTON",OK,73724,,7:00 AM - 7:00 PM,,8811610
"GREENFIELD BAPTIST CHURCH","GREENFIELD","",,"GREENFIELD",OK,73043,,7:00 AM - 7:00 PM,,8811632
"MEAD BAPTIST CHURCH","321 SOUTH CHURCH STREET","",,"MEAD",OK,73449,,7:00 AM - 7:00 PM,,8811256
"FIRST BAPTIST CHURCH","700 W. PETREE ROAD","PETREE AND MISSION",,"ANADARKO",OK,73005,,7:00 AM - 7:00 PM,,8811266
"MUSTANG NAZARENE CHURCH","700 E HIGHWAY 152","",,"MUSTANG",OK,73064,,7:00 AM - 7:00 PM,,8811297
"PIEDMONT UNITED METHODIST CHUR","2525 N PIEDMONT ROAD","",,"PIEDMONT",OK,73078,,7:00 AM - 7:00 PM,,8811420
"PIEDMONT FIRST BAPTIST CHURCH ","15 JACKSON AVE NW","",,"PIEDMONT",OK,73078,,7:00 AM - 7:00 PM,,8811421
"HFV WILSON COMMUNITY CENTER","625 E. MAIN","",,"ARDMORE",OK,73401,,7:00 AM - 7:00 PM,,8811424
"NEW HOPE F.W. BAPTIST CHURCH","9003 PRAIRIE VALLEY ROAD","",,"LONE GROVE",OK,73443,,7:00 AM - 7:00 PM,,8811437
"RATLIFF CITY HALL","RATLIFF CITY HALL","PO BOX 142",,"RATLIFF CITY",OK,73481,,7:00 AM - 7:00 PM,,8811183
"ARMORY MUNICIPAL CENTER","100 N WATER AVE","",,"TAHLEQUAH",OK,74464,,7:00 AM - 7:00 PM,,8811447
"WESLEY UNITED METHODIST CHURCH","504 SOUTH F ST.","",,"HUGO",OK,74743,,7:00 AM - 7:00 PM,,8828550
"LIBRARY","102 S.ELLIS AVE","",,"BOISE CITY",OK,73933,,7:00 AM - 7:00 PM,,8811479
"ST. JOHN'S EPISCOPAL CHURCH","235 W DUFFY","",,"NORMAN",OK,73069,,7:00 AM - 7:00 PM,,8811489
"CALVARY CHAPEL OF NORMAN","1401 W BOYD ST","",,"NORMAN",OK,73069,,7:00 AM - 7:00 PM,,8811492
"HEAVENLY HEIGHTS BAPT. CHURCH","3600 SE 89 ST","",,"OKLAHOMA CITY",OK,73135,,7:00 AM - 7:00 PM,,8811497
"GOODRICH MEM UNITED METHODIST ","200 W HAYES","",,"NORMAN",OK,73069,,7:00 AM - 7:00 PM,,8811192
"SOUTHWEST MANSIONS","9900 S WESTERN","",,"OKLAHOMA CITY",OK,73139,,7:00 AM - 7:00 PM,,8811510
"ENTERPRISE BAPTIST CHURCH","2425 SE 84TH","",,"NORMAN",OK,73026,,7:00 AM - 7:00 PM,,8811514
"MEMORIAL PRESBYTERIAN CHURCH","601 24TH AVE SW.","",,"NORMAN",OK,73069,,7:00 AM - 7:00 PM,,8811524
"ST. JOHN'S LUTHERAN CHURCH","1032 NW 12TH ST.","",,"MOORE",OK,73160,,7:00 AM - 7:00 PM,,8811525
"FAITHPOINTE CHURCH","3404 36TH AVE NW","",,"NORMAN",OK,73072,,7:00 AM - 7:00 PM,,8811536
"LAKESIDE CHURCH OF GOD","4400 E ALAMEDA","",,"NORMAN",OK,73026,,7:00 AM - 7:00 PM,,8813485
"VALLEY INSURANCE BUILDING","17 N MAIN STREET","",,"COALGATE",OK,74538,,7:00 AM - 7:00 PM,,8811551
"BETHLEHEM BAPTIST CHURCH","602 NW ARLINGTON AVE","",,"LAWTON",OK,73507,,7:00 AM - 7:00 PM,,8824685
"IMMANUEL BAPTIST CHURCH","1314 SW 11 ST","",,"LAWTON",OK,73501,,7:00 AM - 7:00 PM,,8811568
"CALVARY BAPTIST CHURCH","601 E. INDIANA ST.","",,"WALTERS",OK,73572,,7:00 AM - 7:00 PM,,8811302
"RANDLETT COMMUNITY BUILDING","RANDLETT COMMUNITY BUILDING","",,"RANDLETT",OK,73562,,7:00 AM - 7:00 PM,,8811307
"WHITE OAK BAPTIST CHURCH","154 KENNEDY ST","WHITE OAK",,"VINITA",OK,74301,,7:00 AM - 7:00 PM,,8811310
"COMMUNITY OF CHRIST ","HOPE AVE","",,"VINITA",OK,74301,,7:00 AM - 7:00 PM,,8811319
"EPISCOPAL CHURCH","1420 E. DEWEY","",,"SAPULPA",OK,74066,,7:00 AM - 7:00 PM,,8811208
"NAZARENE CHURCH","302 S. ELM","",,"SAPULPA",OK,74066,,7:00 AM - 7:00 PM,,8811325
"ST. JOSEPHS CATHOLIC CHURCH","308 N. ELM, BRISTOW","",,"BRISTOW",OK,74010,,7:00 AM - 7:00 PM,,8811328
"CANYON ROAD BAPTIST CHURCH","8550 S 49TH WEST AVE","",,"TULSA",OK,74131,,7:00 AM - 7:00 PM,,8811343
"THOMAS SENIOR CITIZENS' CENTER","101 1/2 NORTH MISSOURI","",,"THOMAS",OK,73669,,7:00 AM - 7:00 PM,,8811354
"TOPSY ASSEMBLY OF GOD CHURCH","40867 S 510 RD","",,"EUCHA",OK,74342,,7:00 AM - 7:00 PM,,8811368
"PUTNAM SENIOR CITIZENS CENTER","HI-WAY 183","PUTNAM, OK.",,"PUTNAM",OK,73659,,7:00 AM - 7:00 PM,,8811378
"FAY SCHOOL","--","",,"FAY",OK,73646,,7:00 AM - 7:00 PM,,8811385
"GAGE LIBRARY","510 N MAIN ST","",,"GAGE",OK,73843,,7:00 AM - 7:00 PM,,8811388
"GANTZ CENTER ROOM #100","100 S UNIVERSITY AVE","",,"ENID",OK,73701,,7:00 AM - 7:00 PM,,8811392
"CHISHOLM TRAIL EXPO CENTER","111 W PURDUE","",,"ENID",OK,73701,,7:00 AM - 7:00 PM,,8811401
"KREMLIN COMM UNITED METHODIST ","403 S 5TH","",,"KREMLIN",OK,73753,,7:00 AM - 7:00 PM,,8823873
"ELMORE CITY COMMUNITY CENTER","104 SOUTH MAIN","",,"ELMORE CITY",OK,73433,,7:00 AM - 7:00 PM,,8810214
"HENNEPIN COMMUNITY BUILDING","33789 N CR 3173","",,"HENNEPIN",OK,73444,,7:00 AM - 7:00 PM,,8810217
"MIDDLEBERG SCHOOL","2130 CR 1317","",,"BLANCHARD",OK,73010,,7:00 AM - 7:00 PM,,8810238
"NINNEKAH TOWN HALL","301 N OLD HWY 81","",,"NINNEKAH",OK,73067,,7:00 AM - 7:00 PM,,8810240
"CROSSROAD TO LIFE BAPTIST CH","1496 CS 2980","",,"BLANCHARD",OK,73010,,7:00 AM - 7:00 PM,,8810244
"NASH FIRE STATION CLASSROOM","115 N. MAIN","",,"NASH",OK,73761,,7:00 AM - 7:00 PM,,8810249
"CIVIC CENTER","208 WEST JONES","",,"HOLLIS",OK,73550,,7:00 AM - 7:00 PM,,8810269
"CIVIC CENTER","208 WEST JONES","",,"HOLLIS",OK,73550,,7:00 AM - 7:00 PM,,8810270
"GOULD COMMUNITY BUILDING","104 S. KENNEDY","",,"GOULD",OK,73544,,7:00 AM - 7:00 PM,,8810271
"MCCURTAIN SR. CITIZENS BLDG.","SOUTH SIDE, HWY. 31","",,"MCCURTAIN",OK,74944,,7:00 AM - 7:00 PM,,8810279
"KINTA COMMUNITY CENTER","SO. SIDE, HWY. 31","",,"KINTA",OK,74552,,7:00 AM - 7:00 PM,,8811235
"JEFFERSON COUNTY FAIR BARN","802 EAST D STREET","",,"WAURIKA",OK,73573,,7:00 AM - 7:00 PM,,8810323
"FIRST BAPTIST CHURCH","1ST & BRIDGE","",,"BLACKWELL",OK,74631,,7:00 AM - 7:00 PM,,8810343
"CHRIST'S CHURCH","1001 S. BOAZ","",,"NEWKIRK",OK,74647,,7:00 AM - 7:00 PM,,8810346
"BRAMAN TOWN HALL","302 BROADWAY","",,"BRAMAN",OK,74632,,7:00 AM - 7:00 PM,,8810349
"RANCH DRIVE VOL. FIRE DEPT.","3454 S. RANCH DRIVE","",,"PONCA CITY",OK,74601,,7:00 AM - 7:00 PM,,8810355
"VICTORY WORSHIP CENTER","618 EAST HARTFORD AVE","",,"PONCA CITY",OK,74601,,7:00 AM - 7:00 PM,,8810356
"FIRST CHURCH OF GOD","1101 WEST GRAND AVE","",,"PONCA CITY",OK,74601,,7:00 AM - 7:00 PM,,8811242
"OKARCHE HIGH SCHOOL","632 W. OKLAHOMA.","",,"OKARCHE",OK,73762,,7:00 AM - 7:00 PM,,8810557
"HOBART SCHOOL ADM. BLDG.","321 N. JEFFERSON","",,"HOBART",OK,73651,,7:00 AM - 7:00 PM,,8811753
"ROOSEVELT SENIOR CITIZEN","401 SOUTH MAIN","",,"ROOSEVELT",OK,73564,,7:00 AM - 7:00 PM,,8810378
"ROOSEVELT SENIOR CITIZEN","401 SOUTH MAIN","",,"ROOSEVELT",OK,73564,,7:00 AM - 7:00 PM,,8810379
"USWV COLONY ADMINISTRATION ","831 SE 172ND RD","",,"WILBURTON",OK,74578,,7:00 AM - 7:00 PM,,8810386
"PANOLA SCHOOL","5558 NE 104 RD","",,"WILBURTON",OK,74578,,7:00 AM - 7:00 PM,,8810389
"TUCKER COMMUNITY BLDG.","15335 RHINO RD","",,"TUCKER",OK,74941,,7:00 AM - 7:00 PM,,8810392
"PANAMA SR. CITIZENS BLDG.","309 MAIN ST","",,"PANAMA",OK,74951,,7:00 AM - 7:00 PM,,8810401
"BOB LEE KIDD III CIVIC CENTER","101 PIRATE LANE-POTEAU","",,"POTEAU",OK,74953,,7:00 AM - 7:00 PM,,8811732
"CLARK CHAPMAN COMM. CENTER","301 FIRST ST- TALIHINA","",,"TALIHINA",OK,74571,,7:00 AM - 7:00 PM,,8810413
"OCTAVIA BAPT CH FELLSHIP HALL","68623 US HWY 259","",,"OCTAVIA",OK,74957,,7:00 AM - 7:00 PM,,8810416
"STROUD CITY HALL","220 W. 2ND ST","",,"STROUD",OK,74079,,7:00 AM - 7:00 PM,,8810421
"FIRST ASSEMBLY OF GOD CHURCH","1/2 MI WEST OF WALMART","ON HWY 66",,"CHANDLER",OK,74834,,7:00 AM - 7:00 PM,,8810429
"SPARKS COMMUNITY BUILDING","1 BLOCK N. OF POST OFFICE","",,"SPARKS",OK,74869,,7:00 AM - 7:00 PM,,8810433
"PRAGUE FIRE DEPT. TRAIN. CTR.","1115 N. JIM THORPE BLVD.","",,"PRAGUE",OK,74864,,7:00 AM - 7:00 PM,,8811755
"FIRST ASSEMBLY OF GOD CHURCH","1900 S. DIVISION","",,"GUTHRIE",OK,73044,,7:00 AM - 7:00 PM,,8810454
"TURNER SCHOOL AUDITORIUM","HIGHWAY 32 WEST","",,"BURNEYVILLE",OK,73430,,7:00 AM - 7:00 PM,,8810460
"ROSEDALE FIRST BAPTIST CHURCH","37740 ARKANSAS AVE","",,"BYARS",OK,74831,,7:00 AM - 7:00 PM,,8810468
"BLANCHARD PUBLIC LIBRARY","205 NE 10TH STREET","",,"BLANCHARD",OK,73010,,7:00 AM - 7:00 PM,,8810476
"PURCELL FIRST BAPTIST CHURCH","400 MAIN ST","",,"PURCELL",OK,73080,,7:00 AM - 7:00 PM,,8810482
"CHAPEL OF THE PINES CHURCH","7 MI N BBOW ON HWY 259","HOCHATOWN",,"BROKEN BOW",OK,74728,,7:00 AM - 7:00 PM,,8810494
"CHURCH OF CHRIST","309 E. GENTRY","",,"CHECOTAH",OK,74426,,7:00 AM - 7:00 PM,,8810509
"TEXANNA FIRE DEPARTMENT","TEXANNA ROAD","",,"EUFAULA",OK,74432,,7:00 AM - 7:00 PM,,8810515
"KINGSTON SR. CITIZ. & COMM. BL","14 S. MAIN","",,"KINGSTON",OK,73439,,7:00 AM - 7:00 PM,,8828355
"ADAIR TOWN HALL","533 E MAIN ST","SUITE #4",,"ADAIR",OK,74330,,7:00 AM - 7:00 PM,,8810540
"1ST UNITED METHODIST LG","703 N HIGHWAY 82","",,"LOCUST GROVE",OK,74352,,7:00 AM - 7:00 PM,,8810556
"FIRST CHRISTIAN CHURCH YTH CTR","105 N VANN ST","",,"PRYOR",OK,74361,,7:00 AM - 7:00 PM,,8810550
"PRYOR CHURCH OF CHRIST","605 S COO-Y-YAH ST","",,"PRYOR",OK,74361,,7:00 AM - 7:00 PM,,8810553
"EASTERN HEIGHTS BAPTIST CHURCH","2401 HASKELL BLVD","",,"MUSKOGEE",OK,74403,,7:00 AM - 7:00 PM,,8810013
"SALVATION ARMY","700 INDEPENDENCE","",,"MUSKOGEE",OK,74403,,7:00 AM - 7:00 PM,,8810015
"YORK ST CHRISTIAN CHURCH","1125 S YORK","",,"MUSKOGEE",OK,74403,,7:00 AM - 7:00 PM,,8810016
"EMMANUEL PENTECOSTAL CHURCH","100 BUCE ST","",,"BRAGGS",OK,74423,,7:00 AM - 7:00 PM,,8810028
"FIRST ASSEMBLY OF GOD CHURCH","3100 GULICK","",,"MUSKOGEE",OK,74403,,7:00 AM - 7:00 PM,,8810030
"LIFEPOINT CHURCH","2200 S 32 ST","",,"MUSKOGEE",OK,74401,,7:00 AM - 7:00 PM,,8810031
"SUMMIT FIRST BAPTIST CHURCH","1ST & BROADWAY","",,"SUMMIT",OK,74401,,7:00 AM - 7:00 PM,,8810039
"CITIZENS STATE BANK","323 WEST BROADWAY","",,"OKEMAH",OK,74859,,7:00 AM - 7:00 PM,,8810064
"UNITED PENTECOSTAL CHURCH","104 E. BROADWAY","",,"OKEMAH",OK,74859,,7:00 AM - 7:00 PM,,8810069
"BETHANY 1ST CH OF THE NAZARENE","NW 41ST & N MUELLER","",,"OKLAHOMA CITY",OK,73008,,7:00 AM - 7:00 PM,,8811638
"CENTRAL 7TH DAY ADVENTIST CH","4747 NW 63RD ST","",,"OKLAHOMA CITY",OK,73132,,7:00 AM - 7:00 PM,,8811646
"CHURCH OF THE SAVIOR","5600 NW 63RD ST","",,"OKLAHOMA CITY",OK,73112,,7:00 AM - 7:00 PM,,8811813
"FIRST BAPTIST CHURCH OF NCP","1931 NICHOLS DR","",,"NICOMA PARK",OK,73066,,7:00 AM - 7:00 PM,,8811800
"WESTWOOD CHURCH OF CHRIST","3100 W DANFORTH RD","",,"EDMOND",OK,73012,,7:00 AM - 7:00 PM,,8811651
"EDMOND ROAD BAPTIST CHURCH","1207 W EDMOND RD","",,"EDMOND",OK,73003,,7:00 AM - 7:00 PM,,8811859
"CALVARY TEMPLE","1801 S KELLY AVE","",,"EDMOND",OK,73034,,7:00 AM - 7:00 PM,,8811656
"THE GARVEY CENTER","2501 E MEMORIAL RD","",,"OKLAHOMA CITY",OK,73136,,7:00 AM - 7:00 PM,,8811882
"PRESBYTERIAN CHURCH","1001 S RANKIN ST","",,"EDMOND",OK,73034,,7:00 AM - 7:00 PM,,8811657
"CROSS TIMBERS CHURCH","4201 E MEMORIAL RD","",,"EDMOND",OK,73013,,7:00 AM - 7:00 PM,,8811907
"LIFE CHURCH","4500 E 2ND STREET","",,"EDMOND",OK,73034,,7:00 AM - 7:00 PM,,8811908
"ST JAMES A M E CHURCH","700 N MAIN ST (ARCADIA)","",,"ARCADIA",OK,73007,,7:00 AM - 7:00 PM,,8811913
"LIFE CHURCH. TV","6809 E RENO","",,"MIDWEST CITY",OK,73110,,7:00 AM - 7:00 PM,,8811787
"SOONER BAPTIST CHURCH","5824 SE 15TH ST","",,"MIDWEST CITY",OK,73110,,7:00 AM - 7:00 PM,,8810106
"RIDGECREST CHURCH OF CHRIST","500 N AIR DEPOT","",,"MIDWEST CITY",OK,73110,,7:00 AM - 7:00 PM,,8811669
"CARL ALBERT MIDDLE SCHOOL","2515 S POST RD","",,"MIDWEST CITY",OK,73110,,7:00 AM - 7:00 PM,,8811674
"ALL SOULS FAMILY LIFE CENTER","6404 N PENNSYLVANIA AVE","",,"OKLAHOMA CITY",OK,73116,,7:00 AM - 7:00 PM,,8811886
"OUR LORD'S LUTHERAN CHURCH","2900 W HEFNER RD","",,"OKLAHOMA CITY",OK,73120,,7:00 AM - 7:00 PM,,8811856
"BRIDGEWAY CHURCH","228 W HEFNER RD","",,"OKLAHOMA CITY",OK,73114,,7:00 AM - 7:00 PM,,8811902
"THE FOUNTAINS AT CANTERBURY","1404 NW 122ND ST","",,"OKLAHOMA CITY",OK,73114,,7:00 AM - 7:00 PM,,8811900
"CHAPEL HILL UNITED METHODIST","2717 WEST HEFNER RD","",,"OKLAHOMA CITY",OK,73120,,7:00 AM - 7:00 PM,,8811899
"ST ELIJAH ANTIOCHIAN CHURCH","15000 N MAY AVE","",,"OKLAHOMA CITY",OK,73134,,7:00 AM - 7:00 PM,,8811693
"FRANCIS TUTTLE TECHNOLOGY CTR","12777 N ROCKWELL AVE","",,"OKLAHOMA CITY",OK,73142,,7:00 AM - 7:00 PM,,8811864
"EPISCOPAL CH OF RESURRECTION","13112 N ROCKWELL AVE","",,"OKLAHOMA CITY",OK,73142,,7:00 AM - 7:00 PM,,8811889
"OUR LORD'S LUTHERAN CHURCH","2900 W. HEFNER RD","",,"OKLAHOMA CITY",OK,73120,,7:00 AM - 7:00 PM,,8811893
"NEW HOPE CHURCH","11600 N COUNCIL RD","",,"OKLAHOMA CITY",OK,73162,,7:00 AM - 7:00 PM,,8811866
"HEFNER MANSIONS","7700 W HEFNER ROAD","",,"OKLAHOMA CITY",OK,73162,,7:00 AM - 7:00 PM,,8811412
"CHEROKEE HILLS BAPTIST CHURCH	","5700 NW 63RD","",,"OKLAHOMA CITY",OK,73132,,7:00 AM - 7:00 PM,,8811905
"HIGHLAND HILLS BAPTIST CHURCH","7900 DEVORE DRIVE","",,"OKLAHOMA CITY",OK,73162,,7:00 AM - 7:00 PM,,8811683
"PLUMBERS AND PIPEFITTERS #344","4335 SW 44TH ST","",,"OKLAHOMA CITY",OK,73119,,7:00 AM - 7:00 PM,,8811700
"PORTLAND AVENUE BAPTIST CHURCH","1301 N PORTLAND AVE","",,"OKLAHOMA CITY",OK,73127,,7:00 AM - 7:00 PM,,8811768
"NORTHWEST CHURCH OF CHRIST","4301 NW 23RD ST","",,"OKLAHOMA CITY",OK,73107,,7:00 AM - 7:00 PM,,8810318
"CENTRAL PRESBYTERIAN CHURCH","5101 N MAY AVE","",,"OKLAHOMA CITY",OK,73112,,7:00 AM - 7:00 PM,,8810272
"MAYFAIR CENTER","3200 NW 48TH ST","",,"OKLAHOMA CITY",OK,73112,,7:00 AM - 7:00 PM,,8811769
"NORTHWEST BAPTIST CHURCH","3030 NW 23RD ST","",,"OKLAHOMA CITY",OK,73107,,7:00 AM - 7:00 PM,,8811705
"PORTLAND AVENUE BAPTIST CH","1301 N PORTLAND AVE","",,"OKLAHOMA CITY",OK,73127,,7:00 AM - 7:00 PM,,8811706
"ANDREWS SQUARE","2101 S HARVEY AVE","",,"OKLAHOMA CITY",OK,73109,,7:00 AM - 7:00 PM,,8811911
"WOODSON PARK SR ACTIVITY CTR","3401 S MAY AVE","",,"OKLAHOMA CITY",OK,73119,,7:00 AM - 7:00 PM,,8811716
"WESTERN HILLS BAPTIST CHURCH","401 SW 44TH ST","",,"OKLAHOMA CITY",OK,73109,,7:00 AM - 7:00 PM,,8811720
"INNER-CITY ASSEMBLY OF GOD","2212 SW 55TH ST","",,"OKLAHOMA CITY",OK,73148,,7:00 AM - 7:00 PM,,8811829
"MAY AVENUE WESLEYAN CHURCH","5201 S MAY AVE","",,"OKLAHOMA CITY",OK,73144-0376,,7:00 AM - 7:00 PM,,8811830
"MCGUIRE COMMUNITY CENTER","1316 NE 12TH ST","",,"OKLAHOMA CITY",OK,73117,,7:00 AM - 7:00 PM,,8811784
"REDEEMER LUTHERAN CHURCH","1524 NE GRAND BLVD","",,"OKLAHOMA CITY",OK,73117,,7:00 AM - 7:00 PM,,8811785
"PARKVIEW ELEMENTARY SCHOOL","5701 S MACKLEMAN DR","",,"OKLAHOMA CITY",OK,73135,,7:00 AM - 7:00 PM,,8811749
"HARMONY CHRISTIAN CHURCH","7100 S CHOCTAW RD","",,"CHOCTAW",OK,73020,,7:00 AM - 7:00 PM,,8811848
"CORNERSTONE CHURCH","9900 SE 15TH ST","",,"MIDWEST CITY",OK,73130,,7:00 AM - 7:00 PM,,8811736
"PRESTON SCHOOL","10165 PRINGEY AVE","",,"PRESTON",OK,74456,,7:00 AM - 7:00 PM,,8810595
"SOUTH SIDE BAPTIST CHURCH","HWY 62 & LOOP 56 HWY","",,"OKMULGEE",OK,74447,,7:00 AM - 7:00 PM,,8810132
"KEYSTONE HILLS BAPTIST CHURCH","161 NEW PRUE ROAD","",,"SAND SPRINGS",OK,74063,,7:00 AM - 7:00 PM,,8810151
"COMMERCE FIRST BAPTIST CHURCH","109 NORTH CHERRY","",,"COMMERCE",OK,74339,,7:00 AM - 7:00 PM,,8810162
"AFTON CITY HALL","201 SOUTHWEST 1ST STREET","",,"AFTON",OK,74331,,7:00 AM - 7:00 PM,,8810169
"OLD SCHOOL COMMUNITY CENTER","211 E WICHITA ST","",,"CLEVELAND",OK,74020,,7:00 AM - 7:00 PM,,8810661
"WESTPORT BAPTIST CHURCH","7020 W OLD KEYSTONE RD","",,"CLEVELAND",OK,74020,,7:00 AM - 7:00 PM,,8810176
"LIFECHURCH.TV","1917 N. COUNTRY CLUB RD.","",,"STILLWATER",OK,74075,,7:00 AM - 7:00 PM,,8810196
"ARPELAR NAZARENE CHURCH","ARPELAR","",,"MC ALESTER",OK,74501,,7:00 AM - 7:00 PM,,8810736
"HIGHILL BAPT CHURCH","33 CHURCH RD","",,"MC ALESTER",OK,74501,,7:00 AM - 7:00 PM,,8810741
"PITTSBURG SCHOOL","200 W GRAND","",,"PITTSBURG",OK,74560,,7:00 AM - 7:00 PM,,8810754
"SAVANNA CITY HALL WEST","H STREET AND 69 HWY","",,"SAVANNA",OK,74565,,7:00 AM - 7:00 PM,,8810282
"ST. JOSEPH CATHOLIC CHURCH #22","1300 E BEVERLY","",,"ADA",OK,74820,,7:00 AM - 7:00 PM,,8810762
"WINTERSMITH LODGE - #53","1621 WINTERSMITH DRIVE","",,"ADA",OK,74820,,7:00 AM - 7:00 PM,,8810611
"OWL CREEK COMMUNITY CHUR #61","19500 CR 3640 RD","",,"STONEWALL",OK,74871,,7:00 AM - 7:00 PM,,8810771
"CROSS CONNECTION CHURCH","11TH & PESOTUM","",,"SHAWNEE",OK,74801,,7:00 AM - 7:00 PM,,8810783
"CHURCH OF CHRIST","905 E WALNUT ST","",,"TECUMSEH",OK,74873,,7:00 AM - 7:00 PM,,8810790
"TRIBBEY COMMUNITY CENTER","HWY 102 & SLAUGHTERVILLE RD,","1/4 W, S SIDE",,"MACOMB",OK,74852,,7:00 AM - 7:00 PM,,8810792
"CLAREMORE ASSEMBLY OF GOD ","2100 W BLUE STARR DR","",,"CLAREMORE",OK,74017,,7:00 AM - 7:00 PM,,8811819
"CHELSEA CIVIC CENTER","618 PINE ST","",,"CHELSEA",OK,74016,,7:00 AM - 7:00 PM,,8810831
"GORE SENIOR CITIZENS PP","313 STEVE OWENS RD","",,"GORE",OK,74435,,7:00 AM - 7:00 PM,,8810868
"ALL SAINTS EPISCOPAL CHURCH","809 W CEDAR AVE","",,"DUNCAN",OK,73533,,7:00 AM - 7:00 PM,,8810880
"WESTERN HEIGHTS BAPTIST","2305 W BEECH AVE","",,"DUNCAN",OK,73533,,7:00 AM - 7:00 PM,,8810884
"FIRST CHRISTIAN CHURCH","DISCIPLE HALL","802 N QUINN",,"GUYMON",OK,73942,,7:00 AM - 7:00 PM,,8823318
"CITY HALL    MANITOU","115 E. 3RD ST.","P.O. BOX 40",,"MANITOU",OK,73555,,7:00 AM - 7:00 PM,,8810916
"TURLEY ASSEMBLY OF GOD CHURCH","6301 N PEORIA AVE","",,"TULSA",OK,74126,,7:00 AM - 7:00 PM,,8810919
"CROSSTOWN LEARNING CENTER","2501 E ARCHER ST","",,"TULSA",OK,74110,,7:00 AM - 7:00 PM,,8810932
"ST ANTONY'S ORTHODOX CHR CH","2645 E 6 ST","",,"TULSA",OK,74104,,7:00 AM - 7:00 PM,,8810942
"SHERIDAN CHRISTIAN CENTER","205 S SHERIDAN RD","",,"TULSA",OK,74112,,7:00 AM - 7:00 PM,,8810946
"HOLY TRINITY COMMUNITY CENTER","1206 S GUTHRIE AVE","",,"TULSA",OK,74119,,7:00 AM - 7:00 PM,,8810638
"EASTWOOD BAPTIST CHURCH","949 S 91 E AVE","",,"TULSA",OK,74112,,7:00 AM - 7:00 PM,,8810961
"EASTLAND BAPT CH FAMILY CTR","2001 S 129 E AVE","",,"TULSA",OK,74108,,7:00 AM - 7:00 PM,,8825284
"SOUTHMINSTER PRESBY CHURCH","3500 S PEORIA AVE","",,"TULSA",OK,74105,,7:00 AM - 7:00 PM,,8810966
"WHITESIDE COMMUNITY CENTER","4009 S PITTSBURG AVE","",,"TULSA",OK,74135,,7:00 AM - 7:00 PM,,8810981
"ST PETER'S EPISCOPAL CHURCH","9100 E 21 PL","",,"TULSA",OK,74129,,7:00 AM - 7:00 PM,,8810989
"JOHN CALVIN PRESBYTERIAN CH","8181 E 31 ST ","",,"TULSA",OK,74145,,7:00 AM - 7:00 PM,,8810676
"DISNEY ELEMENTARY SCHOOL","11702 E 25 ST","",,"TULSA",OK,74129,,7:00 AM - 7:00 PM,,8810995
"COMMUNITY BAPTIST CHURCH","2805 S GARNETT RD","",,"TULSA",OK,74129,,7:00 AM - 7:00 PM,,8823687
"KIRK OF THE HILLS PRESB CHURCH","4102 E 61 ST","",,"TULSA",OK,74136,,7:00 AM - 7:00 PM,,8811014
"TULSA BIBLE CHURCH","5838 S SHERIDAN RD","",,"TULSA",OK,74145,,7:00 AM - 7:00 PM,,8810645
"PARKVIEW BAPTIST CHURCH","5805 S SHERIDAN RD","",,"TULSA",OK,74145,,7:00 AM - 7:00 PM,,8811019
"LAFORTUNE TOWERS","1725 SOUTHWEST BLVD","",,"TULSA",OK,74107,,7:00 AM - 7:00 PM,,8811027
"LIFE PARK CHRISTIAN FELLOWSHIP","5900 S UNION AVE","",,"TULSA",OK,74107,,7:00 AM - 7:00 PM,,8823391
"THE CHURCH AT BATTLECREEK","3025 N ASPEN AVE","",,"BROKEN ARROW",OK,74012,,7:00 AM - 7:00 PM,,8811037
"GRACE CHURCH","9610 S GARNETT RD","",,"BROKEN ARROW",OK,74012,,7:00 AM - 7:00 PM,,8828492
"WOODLAND ACRES BAPTIST CH","5511 S HARVARD AVE","",,"TULSA",OK,74135,,7:00 AM - 7:00 PM,,8810666
"EVERGREEN BAPTIST CHURCH","10301 E 111 ST SOUTH ","",,"BIXBY",OK,74008,,7:00 AM - 7:00 PM,,8811730
"CHURCH OF SAINT BENEDICT","2200 W. ITHICA STREET","",,"BROKEN ARROW",OK,74012,,7:00 AM - 7:00 PM,,8826230
"NAZARENE CHURCH - BROKEN ARROW","401 W NEW ORLEANS","",,"BROKEN ARROW",OK,74011,,7:00 AM - 7:00 PM,,8811076
"TRINITY LUTHERAN CHURCH","5750 S ELM PL","",,"BROKEN ARROW",OK,74011,,7:00 AM - 7:00 PM,,8811086
"MARANATHA BAPTIST TEMPLE","12602 N MEMORIAL DR","",,"COLLINSVILLE",OK,74021,,7:00 AM - 7:00 PM,,8811088
"RIVER OAKS CHRISTIAN CHURCH","300 N ELM ST","",,"JENKS",OK,74037,,7:00 AM - 7:00 PM,,8810110
"OWASSO FIRST ASSEMBLY OF GOD","9341 N 129 E AVE","",,"OWASSO",OK,74055,,7:00 AM - 7:00 PM,,8811105
"ROLLING HILLS COMMUNITY CENTER","20 S 200 E AVE","",,"TULSA",OK,74108,,7:00 AM - 7:00 PM,,8810081
"FIRST ASSEMBLY OF GOD","1998 W HIGHWAY 51","",,"WAGONER",OK,74467,,7:00 AM - 7:00 PM,,8810094
"HERITAGE METHODIST CHURCH","5300 E KENOSHA","",,"BROKEN ARROW",OK,74014,,7:00 AM - 7:00 PM,,8810087
"COWETA ASSEMBLY OF GOD CHURCH","29707 E HIGHWAY 51","",,"COWETA",OK,74429,,7:00 AM - 7:00 PM,,8810098
"OAK PARK METHODIST CHURCH","601 NW BRENTWOOD RD","",,"BARTLESVILLE",OK,74003,,7:00 AM - 7:00 PM,,8811127
"FIRST CHURCH OF GOD","222 S OSAGE AVE, DEWEY","",,"DEWEY",OK,74029,,7:00 AM - 7:00 PM,,8811131
"CITY CHURCH","4222 SE RICE CREEK RD","",,"BARTLESVILLE",OK,74006,,7:00 AM - 7:00 PM,,8826400
"SALEM BAPTIST CHURCH/ROCKY","213 E. 3RD","",,"ROCKY",OK,73661,,7:00 AM - 7:00 PM,,8811142
"ALVA CITY HALL","415 4TH STREET","",,"ALVA",OK,73717,,7:00 AM - 7:00 PM,,8811150
"FAITH UNITED METHODIST CHURCH","1402 TEXAS AVENUE","",,"WOODWARD",OK,73801,,7:00 AM - 7:00 PM,,8810657
"WOODWARD SENIOR CENTER","1420 DOWNS AVENUE","",,"WOODWARD",OK,73801,,7:00 AM - 7:00 PM,,8811156
"GOLTRY COMMUNITY BUILDING","124 E. MAIN","",,"GOLTRY",OK,73739,,7:00 AM - 7:00 PM,,8824186
"JET COMMUNITY BUILDING","JET COMMUNITY BUILDING","300 MAIN STREET",,"JET",OK,73749,,7:00 AM - 7:00 PM,,8810194
"MASONIC LODGE","1111 W 13 ST","",,"ATOKA",OK,74525,,7:00 AM - 7:00 PM,,8811590
"FARRIS COMMUNITY BUILDING","895 S. OLD FARRIS ROAD","",,"FARRIS",OK,74525,,7:00 AM - 7:00 PM,,8811163
"KNOWLES COMMUNITY CENTER","BROADWAY & MAIN ST. KNOWLES,OK","",,"KNOWLES",OK,73847,,7:00 AM - 7:00 PM,,8811599
"BEAVER FAIRGROUNDS","1107 DOUGLAS AVE - BEAVER, OK","",,"BEAVER",OK,73932,,7:00 AM - 7:00 PM,,8811600
"FIRST PRESBYTERIAN CHURCH","217 N WASHINGTON AVE","",,"ELK CITY",OK,73644,,7:00 AM - 7:00 PM,,8825905
"EASTSIDE BAPTIST CHURCH","HENRY FLETCHER BUILDING","422 N BOOTH",,"ELK CITY",OK,73644,,7:00 AM - 7:00 PM,,8811606
"ACHILLE CITY HALL","211 WEST MAIN","",,"ACHILLE",OK,74720,,7:00 AM - 7:00 PM,,8830754
"BOKCHITO FIRST BAPTIST CHURCH","202 NORTH EDENS STREET","",,"BOKCHITO",OK,74726,,7:00 AM - 7:00 PM,,8811248
"WEFIRST BAPTIST CH. CARTWRIGHT","187 WILLAFA WOODS ROAD","",,"CARTWRIGHT",OK,74731,,7:00 AM - 7:00 PM,,8811252
"PHYSICIANS HOSP. CONFERENCE RM","1002 E. CENTRAL BLVD.","",,"ANADARKO",OK,73005,,7:00 AM - 7:00 PM,,8811265
"CARNEGIE MEMORIAL BLDG-COMM RM","CARNEGIE PUBLIC SCHOOLS","215 S CARNEGIE/MAIL 315 S. CA",,"CARNEGIE",OK,73015,,7:00 AM - 7:00 PM,,8811173
"GRACEMONT BAPTIST CHURCH","210 EAST ISOM STREET","",,"GRACEMONT",OK,73042,,7:00 AM - 7:00 PM,,8811271
"LOOKEBA CITY HALL","103 WICHITA","",,"LOOKEBA",OK,73053,,7:00 AM - 7:00 PM,,8810674
"YUKON FIRST CHURCH OF NAZARENE","525 E MAIN STREET IN YUKON","",,"YUKON",OK,73099,,7:00 AM - 7:00 PM,,8811178
"YUKON FINE ARTS AUDITORIUM","850 YUKON AVE","",,"YUKON",OK,73099,,7:00 AM - 7:00 PM,,8810103
"CHURCH OF CHRIST","11700 NW 10TH STREET","",,"YUKON",OK,73099,,7:00 AM - 7:00 PM,,8810672
"DALE ROBERTSON CENTER","1200 LAKESHORE DRIVE","",,"YUKON",OK,73099,,7:00 AM - 7:00 PM,,8811289
"MUSTANG COMMUNITY CENTER","1201 N MUSTANG ROAD","",,"MUSTANG",OK,73064,,7:00 AM - 7:00 PM,,8811296
"MUSTANG HEIGHTS BAPTIST CHURCH","646 W HIGHWAY 152","",,"MUSTANG",OK,73064,,7:00 AM - 7:00 PM,,8811411
"SO TECH CENTER","2610 SAN NOBLE PKWY","",,"ARDMORE",OK,73401,,7:00 AM - 7:00 PM,,8811427
"ASBURY METHODIST CHURCH","516 MAXWELL","",,"ARDMORE",OK,73401,,7:00 AM - 7:00 PM,,8811430
"GA COMMUNITY CENTER","136 TUMBLEWEED ROAD","",,"GENE AUTRY",OK,73436,,7:00 AM - 7:00 PM,,8829215
"LONE GROVE COMMUNITY CENTER","32 LILAC STREET","",,"LONE GROVE",OK,73443,,7:00 AM - 7:00 PM,,8811438
"HEALDTON 1ST BAPTIST CHURCH","107 S 4TH","",,"HEALDTON",OK,73438,,7:00 AM - 7:00 PM,,8811439
"MARANATHA CHURCH","1906 MYALL ROAD","",,"ARDMORE",OK,73401,,7:00 AM - 7:00 PM,,8811441
"GO YE VILLAGE RICHARDSON HALL","1201 W. 4 ST","",,"TAHLEQUAH",OK,74464,,7:00 AM - 7:00 PM,,8811446
"RIVER VALLEY CHURCH","8229 HIGHWAY 10","",,"TAHLEQUAH",OK,74464,,7:00 AM - 7:00 PM,,8811458
"TENKILLER SCHOOL","25106 E 863 RD","",,"WELLING",OK,74471,,7:00 AM - 7:00 PM,,8811461
"COMMUNITY CHURCH OF NAZARENE","1801 N PORTER","",,"NORMAN",OK,73071,,7:00 AM - 7:00 PM,,8811484
"WILDWOOD COMMUNITY CHURCH","1501 24TH AVE NE","",,"NORMAN",OK,73071,,7:00 AM - 7:00 PM,,8811493
"FRESH START COMMUNITY CHURCH","309 N EASTERN","",,"MOORE",OK,73160,,7:00 AM - 7:00 PM,,8811501
"SOUTHMOORE BAPTIST CHURCH","3801 S BROADWAY","",,"MOORE",OK,73160,,7:00 AM - 7:00 PM,,8821875
"FIRST BAPTIST CHURCH","900 E. BROADWAY","",,"LEXINGTON",OK,73051,,7:00 AM - 7:00 PM,,8811506
"LITTLE AXE AMERICAN LEGION","2020 156 AVE. NE","",,"NORMAN",OK,73026,,7:00 AM - 7:00 PM,,8811517
"SOUTHMOORE BAPTIST CHURCH","3801 S BROADWAY","",,"MOORE",OK,73160,,7:00 AM - 7:00 PM,,8811502
"SOONER MALL","3301 W. MAIN ST","",,"NORMAN",OK,73072,,7:00 AM - 7:00 PM,,8811534
"NORTH HAVEN CHURCH","4600 36TH AVE NW","",,"NORMAN",OK,73072,,7:00 AM - 7:00 PM,,8811538
"NEW LIFE UNITED METHODIST CHUR","1105 NW 27","",,"MOORE",OK,73160,,7:00 AM - 7:00 PM,,8824534
"SOUTHPARK BAPTIST CHURCH","2900 SW 119TH ST","",,"OKLAHOMA CITY",OK,73170,,7:00 AM - 7:00 PM,,8811545
"OWENS MULTI-PURPOSE CENTER","1405 SW 11 ST","",,"LAWTON",OK,73505,,7:00 AM - 7:00 PM,,8811567
"CELEBRATION CHURCH","3802 SE FORD RD","",,"LAWTON",OK,73501,,7:00 AM - 7:00 PM,,8811573
"LADY'S TOWN & COUNTRY","220 W MAIN STREET","",,"STERLING",OK,73567,,7:00 AM - 7:00 PM,,8811206
"WT MT ESTATES FIRE STATION","HWY 49 & BEAVER RD","",,"LAWTON",OK,73501,,7:00 AM - 7:00 PM,,8811298
"HULEN METHODIST CHURCH","5 E - 10 N - 1/4 E OF WALTERS","",,"WALTERS",OK,73572,,7:00 AM - 7:00 PM,,8811299
"TEMPLE CITY HALL","201 S. COMMERCIAL AVE.","",,"TEMPLE",OK,73568,,7:00 AM - 7:00 PM,,8811303
"WELCH CIVIC CENTER","610 S CURTIS","",,"WELCH",OK,74369,,7:00 AM - 7:00 PM,,8811308
"BLUEJACKET COMMUNITY CENTER","137 E MAIN ST","",,"BLUEJACKET",OK,74333,,7:00 AM - 7:00 PM,,8811309
"CENTRAL VO TECH","1720 S MAIN","",,"SAPULPA",OK,74066,,7:00 AM - 7:00 PM,,8811324
"TRINITY BAPTIST CHURCH","4TH AND ROLAND","",,"BRISTOW",OK,74010,,7:00 AM - 7:00 PM,,8811326
"BRISTOW HOUSING AUTHORITY BLDG","1110 S. CHESTNUT","",,"BRISTOW",OK,74010,,7:00 AM - 7:00 PM,,8811327
"MT. OLIVE BAPTIST CHURCH","130 N. GRAY","",,"SAPULPA",OK,74066,,7:00 AM - 7:00 PM,,8829103
"MANNFORD TOWN HALL","300 COONROD","",,"MANNFORD",OK,74044,,7:00 AM - 7:00 PM,,8811332
"ST. EUGENE'S CATHOLIC CHURCH","704 NORTH BRYAN","",,"WEATHERFORD",OK,73096,,7:00 AM - 7:00 PM,,8811351
"BUTLER CITIZENS CENTER","CORNER HIGHWAYS 33 & 44","",,"BUTLER",OK,73625,,7:00 AM - 7:00 PM,,8811355
"BIBLE BAPTIST CHURCH","28050 S 630 RD","",,"GROVE",OK,74344,,7:00 AM - 7:00 PM,,8811365
"UNITED METHODIST CHURCH","700 S. OLIVE STREET","",,"SHATTUCK",OK,73858,,7:00 AM - 7:00 PM,,8811387
"ZOE BIBLE CHURCH OF ENID","729 E MAINE AVE","",,"ENID",OK,73701,,7:00 AM - 7:00 PM,,8821390
"COVINGTON MUNICIPAL BUILDING","224 W MAIN","",,"COVINGTON",OK,73730,,7:00 AM - 7:00 PM,,8811394
"PLEASANT VALLEY CHURCH","3 MILES S & 1 1/2 E OF","PIONEER-PV HIGH SCHOOL",,"WAUKOMIS",OK,73773,,7:00 AM - 7:00 PM,,8811220
"WOODRING AIRPORT TERMINAL","EAST OF ENID","",,"ENID",OK,73701,,7:00 AM - 7:00 PM,,8811395
"ZION LUTHERAN CHURCH","507 FAIRMONT RD","",,"FAIRMONT",OK,73736,,7:00 AM - 7:00 PM,,8811396
"ENID HEALTH CENTER","915 E GARRIOTT RD","",,"ENID",OK,73701,,7:00 AM - 7:00 PM,,8811397
"WALKER VOLUNTEER FIRE DEPT","18059 N CR 3330","",,"STRATFORD",OK,74872,,7:00 AM - 7:00 PM,,8810226
"AGGREKO I.C.T.","1335 HWY 62","",,"CHICKASHA",OK,73018,,7:00 AM - 7:00 PM,,8810686
"RIDGECREST BAPTIST CHURCH","1118 CS 2970","",,"BLANCHARD",OK,73010,,7:00 AM - 7:00 PM,,8811230
"FIRST NATIONAL BANK & TRUST CO","5311 E HWY 37","",,"TUTTLE",OK,73089,,7:00 AM - 7:00 PM,,8810246
"SOUTH FIRE STATION","1015 S. COUNTY LINE ROAD","",,"LAVERNE",OK,73848,,7:00 AM - 7:00 PM,,8813905
"WETUMKA CITY HALL","202 N MAIN","",,"WETUMKA",OK,74883,,7:00 AM - 7:00 PM,,8810293
"NAZARENE CHURCH","323 S OAK","",,"HOLDENVILLE",OK,74848,,7:00 AM - 7:00 PM,,8810300
"MASONIC LODGE","1120 N. HUDSON","",,"ALTUS",OK,73521,,7:00 AM - 7:00 PM,,8811239
"WARREN CHURCH OF CHRIST","15399 S CR 211","",,"BLAIR",OK,73526,,7:00 AM - 7:00 PM,,8811240
"TOWN OF HEADRICK","P.O. BOX 153","",,"HEADRICK",OK,73549,,7:00 AM - 7:00 PM,,8810314
"TERRAL COMMUNITY CENTER","405 APACHE STREET","",,"TERRAL",OK,73569,,7:00 AM - 7:00 PM,,8810322
"GRADY COMMUNITY CENTER","27034 STATE HWY 32","",,"GRADY",OK,73569,,7:00 AM - 7:00 PM,,8810325
"UNITED METHODIST CHURCH","202 N. NESHOBA STREET","",,"TISHOMINGO",OK,73460,,7:00 AM - 7:00 PM,,8810328
"KILDARE SCHOOL","1265 CHURCH STREET","",,"KILDARE",OK,74604,,7:00 AM - 7:00 PM,,8810351
"MT. VIEW SENIOR CITIZEN BLDG","106 N 4TH ST","",,"MT. VIEW",OK,73062,,7:00 AM - 7:00 PM,,8810376
"MT. PARK SENIOR CITIZEN BLDG","518 HWY 183","",,"MT. PARK",OK,73559,,7:00 AM - 7:00 PM,,8810380
"KIAMICHI ELECTRIC CO-OP","966 S HWY 2","",,"WILBURTON",OK,74578,,7:00 AM - 7:00 PM,,8810383
"SPIRO TOWN HALL","510 S. MAIN ST","",,"SPIRO",OK,74959,,7:00 AM - 7:00 PM,,8810393
"SPIRO CIVIC CENTER","WEST BROADWAY","",,"SPIRO",OK,74959,,7:00 AM - 7:00 PM,,8810394
"FIRST BAPTIST CHURCH","300 N. WITTE-POTEAU","",,"POTEAU",OK,74953,,7:00 AM - 7:00 PM,,8810408
"SUGARLOAF CHRISTIAN FELLOWSHIP","35204 MIDWAY RD","",,"POTEAU",OK,74953,,7:00 AM - 7:00 PM,,8810409
"NORTHWEST VOLUNTEER FIRE DEPT ","3 3/4 MI. WEST OF 105/177","332292 E. HIGHWAY 105",,"PERKINS",OK,74059,,7:00 AM - 7:00 PM,,8824689
"HILLSIDE BAPTIST CHURCH","3 1/2 MI W OF JACKTOWN ON 62","333892 E. HWY. 62",,"MCLOUD",OK,74851,,7:00 AM - 7:00 PM,,8810431
"METHODIST CHURCH","1/2 MILE E. OF MEEKER","ON HWY 62",,"MEEKER",OK,74855,,7:00 AM - 7:00 PM,,8810434
"SEWARD ROAD BAPTIST CHURCH","4801 WEST SEWARD ROAD","",,"GUTHRIE",OK,73044,,7:00 AM - 7:00 PM,,8810439
"COYLE CHRISTIAN CHURCH","200 W MAIN STREET","",,"COYLE",OK,73027,,7:00 AM - 7:00 PM,,8810714
"HISPANIC BAPTIST CHURCH","12800 S. SOONER ROAD","",,"EDMOND",OK,73034,,7:00 AM - 7:00 PM,,8810445
"SHADYDALE BAPTIST CHURCH","SHADYDALE ROAD","",,"MARIETTA",OK,73448,,7:00 AM - 7:00 PM,,8810457
"THACKERVILLE FIRST BAPTIST CHU","HWY 77","",,"THACKERVILLE",OK,73459,,7:00 AM - 7:00 PM,,8810458
"LEON COMMUNITY BUILDING","NORTH AND ACROSS STREET FROM","LEON POST OFFICE",,"LEON",OK,73441,,7:00 AM - 7:00 PM,,8810461
"WAYNE HIGH SCHOOL LIBRARY","212 S. SEIFRIED ST","",,"WAYNE",OK,73095,,7:00 AM - 7:00 PM,,8810569
"BLANCHARD FIRST BAPTIST CHURCH","919 E 10TH ST","",,"BLANCHARD",OK,73010,,7:00 AM - 7:00 PM,,8810479
"GOLDSBY COMMUNITY CENTER","164 E. CENTER RD","",,"GOLDSBY",OK,73093-9112,,7:00 AM - 7:00 PM,,8810692
"FREE WILL BAPTIST CHURCH","5 NW 7TH","",,"IDABEL",OK,74745,,7:00 AM - 7:00 PM,,8810485
"IDABEL PUBLIC LIBRARY","103 E. MAIN","",,"IDABEL",OK,74745,,7:00 AM - 7:00 PM,,8810486
"REDLAND COMMUNITY BUILDING","8 MI E & 1 MI N OF IDABEL","",,"HAWORTH",OK,74740,,7:00 AM - 7:00 PM,,8811644
"FIRST UNITED METHODIST CHURCH","MEMORIAL DRIVE","",,"BROKEN BOW",OK,74728,,7:00 AM - 7:00 PM,,8810493
"EAGLETOWN SCHOOL BUILDING","EAGLETOWN COMMUNITY","",,"EAGLETOWN",OK,74734,,7:00 AM - 7:00 PM,,8810495
"FIRST BAPTIST CHURCH","101 E. WILSON","",,"VALLIANT",OK,74764,,7:00 AM - 7:00 PM,,8810504
"HITCHITA FIRE DEPARTMENT","MAIN STREET, HITCHITA","",,"HITCHITA",OK,74438,,7:00 AM - 7:00 PM,,8810522
"ELM GROVE BAPTIST CHURCH","RT 1 BOX 1870","",,"COUNCIL HILL",OK,74428,,7:00 AM - 7:00 PM,,8810523
"RINGWOOD TOWN HALL","200 N. MAIN ST.","",,"RINGWOOD",OK,73768,,7:00 AM - 7:00 PM,,8810525
"CIMARRON CLUBHOUSE","228979 E. COUNTY ROAD 36","",,"WAYNOKA",OK,73860,,7:00 AM - 7:00 PM,,8810528
"AMES CITY HALL","106 E. CORP. DR.","",,"AMES",OK,73718,,7:00 AM - 7:00 PM,,8811921
"LITTLE CITY BAPTIST CHURCH","4636 HWY 199","",,"MADILL",OK,73446,,7:00 AM - 7:00 PM,,8810537
"MURPHY CHURCH OF GOD","68 SPRING CREEK AVE","",,"MURPHY",OK,74352,,7:00 AM - 7:00 PM,,8810566
"LANGLEY CITY HALL","324 W OSAGE AVE","",,"LANGLEY",OK,74350,,7:00 AM - 7:00 PM,,8810583
"SPAVINAW CITY HALL","119 S. MAIN","",,"SPAVINAW",OK,74366,,7:00 AM - 7:00 PM,,8829792
"OAK GROVE COMMUNITY BLDG","RT. 2, BOX 271","",,"SULPHUR",OK,73086,,7:00 AM - 7:00 PM,,8810005
"CROSSWAY BAPTIST CHURCH","2108 WEST BROADWAY","",,"SULPHUR",OK,73086,,7:00 AM - 7:00 PM,,8810011
"FT GIBSON CHURCH OF CHRIST","806 S LEE ST","",,"FORT GIBSON",OK,74434,,7:00 AM - 7:00 PM,,8810026
"SUMNER BAPTIST CHURCH","20325 CR 200","",,"PERRY",OK,73077,,7:00 AM - 7:00 PM,,8810848
"NOWATA GARDENS","931 NOWATA GARDENS","",,"NOWATA",OK,74048,,7:00 AM - 7:00 PM,,8810050
"JACK MORRIS RESIDENCE","3 M NORTHEAST OF CHILDERS","STORE ON RD 422",,"DELAWARE",OK,74027,,7:00 AM - 7:00 PM,,8810591
"LAST CHANCE BAPTIST CHURCH","383094 E 1020 RD","",,"OKEMAH",OK,74859,,7:00 AM - 7:00 PM,,8810063
"CENTRAL 7TH DAY ADVENTIST CH","4747 NW 63RD ST","",,"OKLAHOMA CITY",OK,73132,,7:00 AM - 7:00 PM,,8811815
"CHURCH OF THE SAVIOR","5600 NW 63RD ST","",,"OKLAHOMA CITY",OK,73112,,7:00 AM - 7:00 PM,,8811647
"EASTERN OK CO TECHNOLOGY CTR","4601 N CHOCTAW RD","",,"CHOCTAW",OK,73020,,7:00 AM - 7:00 PM,,8811845
"FIRST BAPTIST CHURCH OF NCP","1931 NICHOLS DR","",,"NICOMA PARK",OK,73066,,7:00 AM - 7:00 PM,,8811842
"DEL CITY COMMUNITY CENTER","4505 SE 15TH ST","",,"DEL CITY",OK,73155,,7:00 AM - 7:00 PM,,8811915
"TOWNSEND ELEMENTARY SCHOOL","4000 EPPERLY DR","",,"DEL CITY",OK,73105,,7:00 AM - 7:00 PM,,8811786
"ST MARK LUTHERAN CHURCH","1501 N BRYANT AVE","",,"EDMOND",OK,73034,,7:00 AM - 7:00 PM,,8811880
"BRADFORD VILLAGE","300 ENZ DR","",,"EDMOND",OK,73034,,7:00 AM - 7:00 PM,,8811851
"FIRST BAPTIST CH OF NEWALLA","20800 SE 59TH ST","",,"NEWALLA",OK,74857,,7:00 AM - 7:00 PM,,8811662
"HARRAH CHURCH","101 S DOBBS RD","",,"HARRAH",OK,73045,,7:00 AM - 7:00 PM,,8811663
"NEW CHANCE MISSIONARY BAPTIST","7908 SPENCER JONES RD","",,"SPENCER",OK,73084,,7:00 AM - 7:00 PM,,8810259
"SPENCER UNITED METHODIST CHURC","5201 N. PALMER AVE","",,"SPENCER",OK,73084,,7:00 AM - 7:00 PM,,8811667
"ST CHRISTOPHER'S EPISCOPAL CH","800 S MIDWEST BLVD","",,"MIDWEST CITY",OK,73140,,7:00 AM - 7:00 PM,,8811791
"ALL SOULS FAMILY LIFE CENTER","6404 N PENNSYLVANIA AVE","",,"OKLAHOMA CITY",OK,73116,,7:00 AM - 7:00 PM,,8811676
"BRITTON ROAD CHURCH OF CHRIST","2520 W BRITTON RD","",,"OKLAHOMA CITY",OK,73120,,7:00 AM - 7:00 PM,,8811916
"OAKDALE BAPTIST CHURCH","10920 N SOONER RD","",,"OKLAHOMA CITY",OK,73013,,7:00 AM - 7:00 PM,,8811799
"EMMANUEL TABERNACLE CHURCH","9700 N WESTERN AVENUE","",,"OKLAHOMA CITY",OK,73114,,7:00 AM - 7:00 PM,,8811688
"RAINDANCE APARTMENTS","2201 NW 122ND ST","",,"OKLAHOMA CITY",OK,73120,,7:00 AM - 7:00 PM,,8811690
"EPWORTH VILLA","14901 N PENNSYLVANIA AVE","",,"OKLAHOMA CITY",OK,73134,,7:00 AM - 7:00 PM,,8811692
"NORTHWEST CHRISTIAN CENTER","8601 N COUNCIL RD","",,"OKLAHOMA CITY",OK,73132,,7:00 AM - 7:00 PM,,8811867
"GETHSEMANE LUTHERAN CH OF OKC","8811 W. WILSHIRE BLVD","",,"OKLAHOMA CITY",OK,73132,,7:00 AM - 7:00 PM,,8811802
"ANN ARBOR CHURCH OF CHRIST","2501 N ANN ARBOR","",,"OKLAHOMA CITY",OK,73122,,7:00 AM - 7:00 PM,,8810308
"FAITH TABERNACLE ASSEM OF GOD","800 S PORTLAND AVE","",,"OKLAHOMA CITY",OK,73108,,7:00 AM - 7:00 PM,,8811909
"TRINITY BAPTIST CHURCH","1329 NW 23RD ST","",,"OKLAHOMA CITY",OK,73106,,7:00 AM - 7:00 PM,,8811713
"ASBURY UNITED METHODIST CHURCH","1320 SW 38TH ST","",,"OKLAHOMA CITY",OK,73119,,7:00 AM - 7:00 PM,,8811827
"OK SCH OF SCIENCE & MATH LIB","331 NE 10TH ST","",,"OKLAHOMA CITY",OK,73104,,7:00 AM - 7:00 PM,,8811798
"EPISCOPAL CH OF THE REDEEMER","2100 N MARTIN LUTHER KING AVE","",,"OKLAHOMA CITY",OK,73111,,7:00 AM - 7:00 PM,,8811747
"OKMULGEE NAZARENE CHURCH","711 N OKMULGEE AVE","",,"OKMULGEE",OK,74447,,7:00 AM - 7:00 PM,,8810113
"HENRYETTA HOUSING AUTHORITY","1708 W RAGAN ST","",,"HENRYETTA",OK,74437,,7:00 AM - 7:00 PM,,8810123
"BEGGS CITY HALL","108 N BROADWAY ST","",,"BEGGS",OK,74421,,7:00 AM - 7:00 PM,,8810126
"SONRISE COMMUNITY CHURCH","2980 N 205 ROAD","",,"BEGGS",OK,74421,,7:00 AM - 7:00 PM,,8810594
"STRIKEAXE NON-PROFIT WATER","811 CR2425","",,"BARTLESVILLE",OK,74003,,7:00 AM - 7:00 PM,,8810134
"PUBLIC SERVICE BUILDING","409 W MAIN BARNSDALL","",,"BARNSDALL",OK,74002,,7:00 AM - 7:00 PM,,8810140
"FIRST BAPTIST CHURCH","825 W. ROGERS BLVD.","",,"SKIATOOK",OK,74070,,7:00 AM - 7:00 PM,,8822788
"FIRST ASSEMBLY OF GOD","313 SOUTH SHE SHE","",,"HOMINY",OK,74035,,7:00 AM - 7:00 PM,,8810149
"FIRST CHRISTIAN CHURCH","2424 N MAIN","",,"MIAMI",OK,74354,,7:00 AM - 7:00 PM,,8810154
"ROXY WEBER","807 S. LOWRY STREET","",,"STILLWATER",OK,74074,,7:00 AM - 7:00 PM,,8810178
"FIRST PRESBYTERIAN CHURCH","524 S. DUNCAN","",,"STILLWATER",OK,74074,,7:00 AM - 7:00 PM,,8810184
"CAREERTECH","1500 W. 7TH AVE","",,"STILLWATER",OK,74074,,7:00 AM - 7:00 PM,,8810185
"CUSHING CHRISTIAN CHURCH","302 S. LINWOOD","",,"CUSHING",OK,74023,,7:00 AM - 7:00 PM,,8811764
"YALE CHURCH OF CHRIST","826 E. DETROIT AVE.","",,"YALE",OK,74085,,7:00 AM - 7:00 PM,,8810606
"CHURCH OF CHRIST","1700 S. MAIN","",,"MCALESTER",OK,74501,,7:00 AM - 7:00 PM,,8820533
"ASSEMBLY OF GOD CHURCH EAST","1800 HARDY SPRINGS RD","",,"MC ALESTER",OK,74501,,7:00 AM - 7:00 PM,,8810729
"ARROWHEAD ESTATES OFFICE","815 ARROWHEAD DR","",,"CANADIAN",OK,74425,,7:00 AM - 7:00 PM,,8810743
"TI VALLEY BAPTIST CHURCH","JACK FORK","",,"JACK FORK",OK,74528,,7:00 AM - 7:00 PM,,8810750
"FITZHUGH METHODIST CHURCH #55","21965 CR 3499 RD","",,"FITZHUGH",OK,74843,,7:00 AM - 7:00 PM,,8810768
"ROFF TOWN HALL #63","110 W MAIN ST.","",,"ROFF",OK,74865,,7:00 AM - 7:00 PM,,8810614
"UNIVERSITY BAPTIST CHURCH","2500 N KICKAPOO","",,"SHAWNEE",OK,74804,,7:00 AM - 7:00 PM,,8810779
"NORTH ROCK CREEK SCHOOL","EW 111 & HWY 18, 1/4 E, N SIDE","",,"SHAWNEE",OK,74801,,7:00 AM - 7:00 PM,,8810785
"MAUD COMMUNITY CENTER","310 W MAIN","",,"MAUD",OK,74854,,7:00 AM - 7:00 PM,,8810794
"CLOUDY COMMUNITY CENTER","3/4 MI NE CLOUDY STORE","",,"CLOUDY",OK,74562,,7:00 AM - 7:00 PM,,8810808
"CLAYTON CITY HALL","0000","",,"CLAYTON",OK,74536,,7:00 AM - 7:00 PM,,8810618
"CLAREMORE BAPTIST TEMPLE","16404 E. HIGHWAY 20","",,"CLAREMORE",OK,74019,,7:00 AM - 7:00 PM,,8813245
"CATOOSA COMMUNITY CENTER","105 EAST OAK","",,"CATOOSA",OK,74015,,7:00 AM - 7:00 PM,,8810833
"COMMUNITY OF CHRIST","9717 N. 154TH E. AVE.","",,"OWASSO",OK,74055,,7:00 AM - 7:00 PM,,8813247
"SASAKWA CITY HALL","SASAKWA","",,"SASAKWA",OK,74867,,7:00 AM - 7:00 PM,,8810846
"WEWOKA SENIOR CITIZENS CENTER","214 S BROWN","",,"WEWOKA",OK,74884,,7:00 AM - 7:00 PM,,8810593
"WEWOKA SENIOR CITIZEN CENTER","214 S BROWN","",,"WEWOKA",OK,74884,,7:00 AM - 7:00 PM,,8810854
"WEST TENKILLER FIRE DEPT. PP","446027 E LAKE VIEW DR","",,"GORE",OK,74435,,7:00 AM - 7:00 PM,,8810869
"CALVARY TEMPLE CHURCH PP","104703 S 4620 RD","",,"SALLISAW",OK,74955,,7:00 AM - 7:00 PM,,8810874
"STEPHENS CO FAIRGROUNDS","2002 S 13 ST","",,"DUNCAN",OK,73533,,7:00 AM - 7:00 PM,,8811925
"GRACEWAY BAPTIST CHURCH","220  N F ST","",,"DUNCAN",OK,73533,,7:00 AM - 7:00 PM,,8821433
"TYRONE CITY HALL","102 W MAIN ST","",,"TYRONE",OK,73951,,7:00 AM - 7:00 PM,,8810901
"FREDERICK FIRE STATION","120 S. 8TH ST","",,"FREDERICK",OK,73542,,7:00 AM - 7:00 PM,,8810911
"FIRST UNITED METHODIST CHURCH","12TH & GRAND AVE","",,"FREDERICK",OK,73542,,7:00 AM - 7:00 PM,,8810912
"SUBURBAN ACES LIBRARY","4606 N GARRISON AVE","",,"TULSA",OK,74126,,7:00 AM - 7:00 PM,,8810917
"TULSA TECH CTR (PEORIA CAMPUS)","3850 N PEORIA AVE","",,"TULSA",OK,74106,,7:00 AM - 7:00 PM,,8810920
"RUDISILL NORTH REG LIBRARY","1520 N HARTFORD AVE","",,"TULSA",OK,74106,,7:00 AM - 7:00 PM,,8825978
"SHERIDAN AVE UNITED METHO CH","1621 N SHERIDAN RD","",,"TULSA",OK,74115,,7:00 AM - 7:00 PM,,8813949
"MAXWELL PARK LIBRARY","1313 N CANTON AVE","",,"TULSA",OK,74115,,7:00 AM - 7:00 PM,,8810936
"FIRST CHRISTIAN CHURCH","902 S MAIN ST","",,"TULSA",OK,74119,,7:00 AM - 7:00 PM,,8810940
"UNIVERSITY UNITED METHO CHURCH","2915 E 5 ST","",,"TULSA",OK,74104,,7:00 AM - 7:00 PM,,8824083
"BELL PRIMARY SCHOOL","209 S LAKEWOOD AVE","",,"TULSA",OK,74112,,7:00 AM - 7:00 PM,,8813957
"MARTIN REGIONAL LIBRARY","2601 S GARNETT RD","",,"TULSA ",OK,74129,,7:00 AM - 7:00 PM,,8828770
"FAITH CUMBERLAND PRESBY CH","2801 S 129 E AVE","",,"TULSA",OK,74134,,7:00 AM - 7:00 PM,,8810963
"ALL SOULS UNITARIAN CHURCH","2952 S PEORIA AVE","",,"TULSA",OK,74114,,7:00 AM - 7:00 PM,,8810965
"BROOKSIDE BAPTIST CHURCH","3615 S PEORIA AVE","",,"TULSA",OK,74105,,7:00 AM - 7:00 PM,,8824178
"FELLOWSHIP CONGREGATIONAL CH","2900 S HARVARD AVE","",,"TULSA",OK,74114,,7:00 AM - 7:00 PM,,8810975
"FAITH ASSEMBLY OF GOD","7500 E 21 ST","",,"TULSA",OK,74129,,7:00 AM - 7:00 PM,,8810978
"ALDERSGATE UNITED METHO CHURCH","3702 S 90 E AVE","",,"TULSA",OK,74145,,7:00 AM - 7:00 PM,,8810991
"RIVERSIDE BAPTIST CHURCH","6363 S PEORIA AVE","",,"TULSA",OK,74136,,7:00 AM - 7:00 PM,,8811004
"UNIVERSITY VILLAGE RET COMM","8555 S LEWIS AVE","",,"TULSA",OK,74137,,7:00 AM - 7:00 PM,,8811006
"WORLD OUTREACH CHURCH","8863 E 91 ST","",,"TULSA",OK,74137,,7:00 AM - 7:00 PM,,8829110
"ST DUNSTAN'S CHURCH","5635 E 71 ST","",,"TULSA",OK,74136,,7:00 AM - 7:00 PM,,8811016
"LIBERTY CHURCH","7777 S GARNETT RD","",,"BROKEN ARROW",OK,74012,,7:00 AM - 7:00 PM,,8811020
"PARK ELEMENTARY SCHOOL","3205 W 39 ST","",,"TULSA",OK,74107,,7:00 AM - 7:00 PM,,8811031
"GRACE UNITED METHODIST CHURCH","519 S 49 W AVE","",,"TULSA",OK,74127,,7:00 AM - 7:00 PM,,8811036
"HARDESTY REGIONAL LIBRARY","8316 E 93 STREET","",,"TULSA",OK,74133,,7:00 AM - 7:00 PM,,8811046
"FELLOWSHIP BIBLE CHURCH","5434 E 91 ST","",,"TULSA",OK,74137,,7:00 AM - 7:00 PM,,8811052
"BETHANY CHRISTIAN CHURCH","6730 S SHERIDAN RD","",,"TULSA",OK,74133,,7:00 AM - 7:00 PM,,8811054
"TRINITY PRESBYTERIAN CHURCH","9303 E 111 ST SOUTH","",,"BIXBY",OK,74008,,7:00 AM - 7:00 PM,,8811063
"RHEMA - F.A.C. BUILDING","940 W KENOSHA ST","",,"BROKEN ARROW",OK,74012,,7:00 AM - 7:00 PM,,8811071
"JUDY KISHNER LIBRARY","10150 N CINCINNATI AVE","",,"SPERRY",OK,74073,,7:00 AM - 7:00 PM,,8811918
"TULSA GOSPEL ASSEMBLY","8515 WHIRLPOOL DR","",,"SPERRY",OK,74073,,7:00 AM - 7:00 PM,,8811106
"CLYDE BOYD MIDDLE SCHOOL","305 W 35 ST","",,"SAND SPRINGS",OK,74063,,7:00 AM - 7:00 PM,,8811112
"CHURCH OF CHRIST","4301 S 113 W AVE","",,"SAND SPRINGS",OK,74063,,7:00 AM - 7:00 PM,,8811113
"IMMANUEL BAPT CH OF SKIATOOK","625 S BROADWAY ST","",,"SKIATOOK",OK,74070,,7:00 AM - 7:00 PM,,8811117
"LIVING STONE TEACHING CHURCH","28288 E 141 ST S","",,"COWETA",OK,74429,,7:00 AM - 7:00 PM,,8810084
"CHURCH OF GOD","115 S STATE ST","",,"WAGONER",OK,74467,,7:00 AM - 7:00 PM,,8810073
"FOREST RIDGE BAPTIST CHURCH","8300 S ONETA ROAD ( 65TH)","",,"BROKEN ARROW",OK,74014,,7:00 AM - 7:00 PM,,8810092
"STONE BLUFF SR. CITIZENS CTR.","19249 US HIGHWAY 64","",,"HASKELL",OK,74436,,7:00 AM - 7:00 PM,,8810078
"SPIRIT CHURCH","900 SE DEWEY AVE","",,"BARTLESVILLE",OK,74003,,7:00 AM - 7:00 PM,,8811125
"DEWEY CHURCH OF CHRIST","1313 N OSAGE AVE, DEWEY","",,"DEWEY",OK,74029,,7:00 AM - 7:00 PM,,8811133
"WILLIAMS CENTER NORTH-VERA","295 N MAIN","",,"VERA",OK,74082,,7:00 AM - 7:00 PM,,8811136
"RAMONA SENIOR CITIZENS CENTER","401 4TH ST, RAMONA","",,"RAMONA",OK,74061,,7:00 AM - 7:00 PM,,8811137
"CANEY VALLEY SENIOR CENTER","329 N OCHELATA ST","",,"OCHELATA",OK,74051,,7:00 AM - 7:00 PM,,8811138
"NORTHWEST TECHNOLOGY CENTER","1801 SOUTH 11TH STREET","",,"ALVA",OK,73717,,7:00 AM - 7:00 PM,,8811148
"WOODWARD HOSP. HEALTH CENTER","1650 MAIN AVENUE","",,"WOODWARD",OK,73801,,7:00 AM - 7:00 PM,,8811153
"SHARON UNITED METHODIST CHURCH","SHARON UNITED METHODIST CHURCH","",,"SHARON",OK,73857,,7:00 AM - 7:00 PM,,8811157
"HIGHLAND PARK GRADE SCHOOL","2730 WEBSTER","",,"WOODWARD",OK,73801,,7:00 AM - 7:00 PM,,8810659
"CHURCH OF CHRIST HWY 100W","CHURCH OF CHRIST","SECTION LINE ROAD",,"STILWELL",OK,74960,,7:00 AM - 7:00 PM,,8811618
"CHRISTIE BAPTIST CHURCH","CHRISTIE BAPTIST CHURCH","",,"STILWELL",OK,74960,,7:00 AM - 7:00 PM,,8811620
"FIRST UNITED METHODIST CHURCH","FIRST UNITED METHODIST CHURCH","BUSHYHEAD HEIGHTS 900 TAFT",,"WESTVILLE",OK,74965,,7:00 AM - 7:00 PM,,8811628
"HARMONY COMMUNITY BUILDING","489 S BENTLEY RD","",,"ATOKA",OK,74525,,7:00 AM - 7:00 PM,,8811594
"OVERSTREET SCHOOL","INTERSECTION OF NS 162 & EW","",,"LAVERNE",OK,73848,,7:00 AM - 7:00 PM,,8824493
"GRANDVIEW CHURCH","PIONEER & COUNTRY CLUB","",,"ELK CITY",OK,73644,,7:00 AM - 7:00 PM,,8811759
"CHURCH OF GOD","501 W. 1ST STREET","",,"ELK CITY",OK,73644,,7:00 AM - 7:00 PM,,8811608
"ROCK COMMUNITY BUILDING","ROCK COMMUNITY BUILDING","211 WEST BUFFALO STREET",,"CADDO",OK,74729,,7:00 AM - 7:00 PM,,8811249
"COLEMAN AVE. CH. OF CHRIST","212 WEST COLEMAN AVENUE","",,"COLBERT",OK,74733,,7:00 AM - 7:00 PM,,8811254
"SEVENTH DAY ADVENTIST CHURCH","225 SUNNY MEADOW DRIVE","",,"DURANT",OK,74701,,7:00 AM - 7:00 PM,,8811258
"FT COBB COMMUNITY CENTER","312 MAIN STREET","",,"FORT COBB",OK,73038,,7:00 AM - 7:00 PM,,8811269
"FIRST FREE WILL BAPTIST CHURCH","1505 W ELM ST","",,"EL RENO",OK,73036,,7:00 AM - 7:00 PM,,8811282
"COVENANT COMMUNITY CHURCH","2250 YUKON PARKWAY","",,"YUKON",OK,73099,,7:00 AM - 7:00 PM,,8811180
"LAKEHOMA CHURCH OF CHRIST","2124 W STATE HWY 152","",,"MUSTANG",OK,73064,,7:00 AM - 7:00 PM,,8813201
"SCOTT BAPTIST CHURCH","24550 STATE HIGHWAY 37","",,"HINTON",OK,73047,,7:00 AM - 7:00 PM,,8811414
"NEW HOPE CHURCH OF GOD","412 E. LAKE MURRAY DRIVE","",,"ARDMORE",OK,73401,,7:00 AM - 7:00 PM,,8811426
"ARDMORE VILLAGE","2401 VILLAGE LANE","",,"ARDMORE",OK,73401,,7:00 AM - 7:00 PM,,8811428
"BOY SCOUTS OF AMERICA","529 W VETERANS BLVD","",,"ARDMORE",OK,73401,,7:00 AM - 7:00 PM,,8811431
"JEHOVAH MISSIONARY BAPTIST","6277 JEHOVAH BAPTIST CHURCH","",,"ARDMORE",OK,73401,,7:00 AM - 7:00 PM,,8811182
"SPRINGER COMMUNITY CENTER","551 MAIN ST.","",,"SPRINGER",OK,73458,,7:00 AM - 7:00 PM,,8811436
"FIRST UNITED METHODIST CHURCH","301 W DELAWARE ST","",,"TAHLEQUAH",OK,74464,,7:00 AM - 7:00 PM,,8811185
"BLUFF FIRE DEPARTMENT","4 MILES SOUTH ON HWY 271","11 MILES WEST",,"SOPER",OK,74759,,7:00 AM - 7:00 PM,,8811466
"GRANT NUTRITION CENTER","EAST OF OLD POST OFFICE NEXT","DOOR TO GRANT FIRE DEPARTMENT",,"GRANT",OK,74738,,7:00 AM - 7:00 PM,,8811467
"SWINK SCHOOL ","3 BLKS S HWY 70E IN SWINK","LUNCHROOM NEXT TO OFFICE",,"SWINK",OK,74761,,7:00 AM - 7:00 PM,,8811476
"METHODIST CHURCH(WEST DOOR)","ST.PAULS METHODIST CHURCH","400 E.MAIN ST.",,"BOISE CITY",OK,73933,,7:00 AM - 7:00 PM,,8811480
"ST. JOSEPH'S CATHOLIC CHURCH","421 EAST ACRES","",,"NORMAN",OK,73071,,7:00 AM - 7:00 PM,,8811483
"ST ANDREWS UNITED METHODIST CH","2727 SW 119TH ST.","",,"OKLAHOMA CITY",OK,73170,,7:00 AM - 7:00 PM,,8811485
"MID-AMERICA CHRISTIAN UNIV.","3500 SW 119 ST","",,"OKLAHOMA CITY",OK,73170,,7:00 AM - 7:00 PM,,8811488
"ST. THOMAS MORE UNIV. PARISH","100 E STINSON STREET","",,"NORMAN",OK,73072,,7:00 AM - 7:00 PM,,8811495
"FIRST BAPTIST CHURCH OF MOORE","301 NE 27","",,"MOORE",OK,73160,,7:00 AM - 7:00 PM,,8811195
"GRACE LIVING CENTER","201 48TH AVENUE SW","",,"NORMAN",OK,73072,,7:00 AM - 7:00 PM,,8810688
"NOBLE PUBLIC LIBRARY","204 N 5 ST","",,"NOBLE",OK,73068,,7:00 AM - 7:00 PM,,8811522
"FIRST BAPTIST CHURCH OF MOORE","301 NE 27","",,"MOORE",OK,73160,,7:00 AM - 7:00 PM,,8811523
"GRACEWAY BAPTIST CHURCH","1100 SW 104TH ST","",,"OKLAHOMA CITY",OK,73139,,7:00 AM - 7:00 PM,,8811199
"PECAN VALLEY BAPTIST CHURCH","18901 PECAN VALLEY RD","",,"NEWALLA",OK,74857,,7:00 AM - 7:00 PM,,8811528
"PENN SOUTH CHURCH OF CHRIST","2444 SW 89","",,"OKLAHOMA CITY",OK,73189,,7:00 AM - 7:00 PM,,8811532
"THE CROSS CHURCH","3201 60TH AVE. NW","",,"NORMAN",OK,73072,,7:00 AM - 7:00 PM,,8811537
"NORTHWEST BAPTIST CHURCH","1601 NW 52 ST","",,"LAWTON",OK,73505,,7:00 AM - 7:00 PM,,8811557
"BLVD CHRISTIAN CHURCH","5319 W GORE BLVD","",,"LAWTON",OK,73505,,7:00 AM - 7:00 PM,,8811558
"GREAT PLAINS COLISEUM ANNEX","920 SW SHERIDAN RD","",,"LAWTON",OK,73505,,7:00 AM - 7:00 PM,,8811569
"PATTERSON CENTER","#4 NE ARLINGTON","",,"LAWTON",OK,73507,,7:00 AM - 7:00 PM,,8811572
"MEERS COMMUNITY CENTER","1/2 MI NORTH OR MEERS STORE","",,"MEERS",OK,73501,,7:00 AM - 7:00 PM,,8811205
"SR CITIZENS ROOM","900 POST OAK PLAZA","",,"INDIAHOMA",OK,73552,,7:00 AM - 7:00 PM,,8811579
"FLOWER MOUND SCHOOL","2901 SE FLOWER MOUND RD","",,"LAWTON",OK,73501,,7:00 AM - 7:00 PM,,8811581
"LETITIA BAPTIST CHURCH","1 MI S OF HWY 7 ON HWY 65","",,"LAWTON",OK,73501,,7:00 AM - 7:00 PM,,8811584
"COTTON COUNTY COURTHOUSE","301 N. BROADWAY ST.","",,"WALTERS",OK,73572,,7:00 AM - 7:00 PM,,8811301
"CHURCH OF THE NAZARINE","350 S SCRAPER ST","",,"VINITA",OK,74301,,7:00 AM - 7:00 PM,,8811314
"CRAIG COUNTY BAPTIST CHURCH","1517 E COUNTRY CLUB DR","",,"VINITA",OK,74301,,7:00 AM - 7:00 PM,,8811315
" FOUNDATION CHURCH","7785 S. HIGHWAY 97","",,"SAPULPA",OK,74066,,7:00 AM - 7:00 PM,,8810218
"MT. OLIVE BAPTIST CHURCH","130 N. GRAY","",,"SAPULPA",OK,74066,,7:00 AM - 7:00 PM,,8829101
"WESTSIDE BAPTIST CHURCH","811 W. TAFT","",,"SAPULPA",OK,74066,,7:00 AM - 7:00 PM,,8811323
"1ST UNITED METHODIST CHURCH","118 N. CHESTNUT, BRISTOW","",,"BRISTOW",OK,74010,,7:00 AM - 7:00 PM,,8811209
"ADVENT CHRISTIAN CHURCH","1700 S. CHESTNUT, BRISTOW","",,"BRISTOW",OK,74010,,7:00 AM - 7:00 PM,,8811213
"MOUNDS COMM. CENTER","15 WEST 14TH ST. MOUNDS","",,"MOUNDS",OK,74047,,7:00 AM - 7:00 PM,,8810685
"CANYON ROAD BAPTIST CHURCH","8550 S 49TH WEST AVE","",,"TULSA",OK,74131,,7:00 AM - 7:00 PM,,8811342
"ST. MARY'S CATHOLIC CHURCH ","1218 KNOX AVENUE","",,"CLINTON",OK,73601,,7:00 AM - 7:00 PM,,8811347
"ZION CHURCH","701 NORTH DANIEL ST","",,"WEATHERFORD",OK,73096,,7:00 AM - 7:00 PM,,8813141
"BERNICE SENIOR CITIZENS BLDG","211 S BROADWAY","",,"BERNICE",OK,74331,,7:00 AM - 7:00 PM,,8811357
"MONKEY ISLAND FIRE DEPT","56298 E 295 RD","",,"MONKEY ISLAND",OK,74331,,7:00 AM - 7:00 PM,,8811358
"TALOGA SENIOR CITIZENS CENTER","111 S. BROADWAY","TALOGA, OK",,"TALOGA",OK,73667,,7:00 AM - 7:00 PM,,8811377
"REDEEMER LUTHERAN CHURCH","215 S CLEVELAND","",,"ENID",OK,73703,,7:00 AM - 7:00 PM,,8811221
"FIRST ASSEMBLY OF GOD CHURCH","905 N OAKWOOD RD","",,"ENID",OK,73703,,7:00 AM - 7:00 PM,,8811400
"CHURCH OF THE COVENANT","1205 S. CLEVELAND","",,"ENID",OK,73703,,7:00 AM - 7:00 PM,,8811405
"BRADLEY COMMUNITY CENTER","220 S MCKEE","",,"BRADLEY",OK,73011,,7:00 AM - 7:00 PM,,8810233
"COX CITY BAPTIST CHURCH","2443 COX CITY RD","",,"RUSH SPRINGS",OK,73082,,7:00 AM - 7:00 PM,,8810236
"POND CREEK SUNSHINE COM CENTER","104 S. FIRST","",,"POND CREEK",OK,73766,,7:00 AM - 7:00 PM,,8810250
"GRACE CHRISTIAN FELLOWSHIP","128 N PENNSYLVANIA","",,"MANGUM",OK,73554,,7:00 AM - 7:00 PM,,8811233
"LAVERNE DELPHIAN LIBRARY","106 W JANE JAYROE BLVD","",,"LAVERNE",OK,73848,,7:00 AM - 7:00 PM,,8810274
"TAMAHA 1ST SOUTHERN BAPTIST ","201 NE HIGH ST","",,"STIGLER",OK,74462,,7:00 AM - 7:00 PM,,8830357
"ENTERPRISE BAPTIST CHURCH","1/2 MI. S.OF HWY.9 ON HW .71","",,"ENTERPRISE",OK,74561,,7:00 AM - 7:00 PM,,8810286
"STIGLER PUBLIC LIBRARY","410 N.E. 6TH ST","",,"STIGLER",OK,74462,,7:00 AM - 7:00 PM,,8811234
"HOLDENVILLE SUPERINTENDENT OFF","210 GRIMES","",,"HOLDENVILLE",OK,74848,,7:00 AM - 7:00 PM,,8810290
"PENTECOSTAL HOLINESS CHURCH","310 N. ECHO","",,"HOLDENVILLE",OK,74848,,7:00 AM - 7:00 PM,,8811236
"YEAGER COMMUNITY BUILDING","2815 7TH ST","",,"HOLDENVILLE",OK,74848,,7:00 AM - 7:00 PM,,8810291
"SPAULDING COMMUNITY BUILDING","3822 N 369 RD","",,"HOLDENVILLE",OK,74848,,7:00 AM - 7:00 PM,,8811756
"LAMAR COMMUNITY CENTER","3238 WALNUT","",,"LAMAR",OK,74850,,7:00 AM - 7:00 PM,,8811237
"STUART CHURCH OF CHRIST","418 ROOSEVELT AVE","",,"STUART",OK,74570,,7:00 AM - 7:00 PM,,8810298
"MARGARET JOHNSON RESIDENCE","903 E. GILMORE ST.","",,"ALLEN",OK,74825,,7:00 AM - 7:00 PM,,8811238
"BANCFIRST","820 E. MAIN ST","",,"TISHOMINGO",OK,73460,,7:00 AM - 7:00 PM,,8810326
"BROMIDE CITY HALL","103 N. MAIN STREET","",,"BROMIDE",OK,74530,,7:00 AM - 7:00 PM,,8810333
"PRESBYTERIAN CHURCH","14TH & GRAND AVE.","",,"PONCA CITY",OK,74604,,7:00 AM - 7:00 PM,,8810353
"CIMARRON ELECTRIC CO-OP","19306 HWY 81 NORTH","",,"KINGFISHER",OK,73750,,7:00 AM - 7:00 PM,,8810362
"WESTERN TECH-HOBART CAMPUS","1000 SOUTH BAILEY","",,"HOBART",OK,73651,,7:00 AM - 7:00 PM,,8810374
"LONE WOLF SENIOR CITIZEN BLDG","1101 MAIN STREET","",,"LONE WOLF",OK,73655,,7:00 AM - 7:00 PM,,8810375
"SENIOR CITIZENS CENTER","309 W ADA","",,"WILBURTON",OK,74578,,7:00 AM - 7:00 PM,,8810382
"SALONIA COMMUNITY CENTER","16439 SE 116 RD","",,"RED OAK",OK,74563,,7:00 AM - 7:00 PM,,8810391
"MUSE BAPTIST CHURCH","28128 STATE HIGHWAY 63","",,"MUSE",OK,74949,,7:00 AM - 7:00 PM,,8810415
"AGRA SENIOR CITIZENS CENTER","1 SOUTH MAIN","",,"AGRA",OK,74824,,7:00 AM - 7:00 PM,,8810564
"WELLSTON CITY HALL","211 CEDAR","",,"WELLSTON",OK,74881,,7:00 AM - 7:00 PM,,8810426
"PRAGUE HOUSING AUTHORITY BLDG","600 MITACEK AVE.","",,"PRAGUE",OK,74855,,7:00 AM - 7:00 PM,,8810568
"GUTHRIE HOUSING AUTHORITY","1524 EAST PERKINS","",,"GUTHRIE",OK,73044,,7:00 AM - 7:00 PM,,8810443
"WESLEY FOUNDATION AT LANGSTON","777 SAMMY DAVIS JR.","",,"LANGSTON",OK,73050,,7:00 AM - 7:00 PM,,8810455
"LOVE COUNTY FAIR BUILDING","500 NW 2 AVE.","",,"MARIETTA",OK,73448,,7:00 AM - 7:00 PM,,8810464
"DIBBLE FREEWILL BAPTIST CHURCH","22275 OLD TOWN 1ST ST","",,"DIBBLE",OK,73031,,7:00 AM - 7:00 PM,,8810475
"PURCELL EMMANUEL BAPTIST CH","2705 N 9TH AVE","",,"PURCELL",OK,73080,,7:00 AM - 7:00 PM,,8810483
"HAWORTH SENIOR CITIZENS","3 MAIN STREET","",,"HAWORTH",OK,74740,,7:00 AM - 7:00 PM,,8810491
"WATSON VOLUNTEER FIRE DEPT.","WATSON COMMUNITY","",,"WATSON",OK,74963,,7:00 AM - 7:00 PM,,8810498
"CLEO SPRINGS FIRE STATION","202 E SQUARE ST","E SIDE OF THE TOWN SQUARE",,"CLEO SPRINGS",OK,73729,,7:00 AM - 7:00 PM,,8810526
"AMES CITY HALL","106 E. CORP. DR.","",,"AMES",OK,73718,,7:00 AM - 7:00 PM,,8810698
"NUTRITION CENTER","408 W. OVERTON","BUILDING #2",,"MADILL",OK,73446,,7:00 AM - 7:00 PM,,8810710
"POWELL CHURCH OF CHRIST","18934 POWELL ROAD","",,"KINGSTON",OK,73439,,7:00 AM - 7:00 PM,,8810579
"ENOS VOLUNTEER FIRE DEPT.","12451 FIREHOUSE RD","",,"KINGSTON",OK,73439,,7:00 AM - 7:00 PM,,8810539
"PRYOR FAIRGROUNDS AG BUILDING","2200 NE 1ST","",,"PRYOR",OK,74361,,7:00 AM - 7:00 PM,,8810582
"ST MARK CATHOLIC CHURCH","1507 S VANN ST","",,"PRYOR",OK,74361,,7:00 AM - 7:00 PM,,8810554
"DAVIS SENIOR CITIZENS","103 S 4TH","",,"DAVIS",OK,73030,,7:00 AM - 7:00 PM,,8810004
"BOSTON AVE BAPTIST CHURCH","201 S 30TH ST","",,"MUSKOGEE",OK,74401,,7:00 AM - 7:00 PM,,8810018
"WAINWRIGHT SCHOOL","100 WALNUT ST","",,"WAINWRIGHT",OK,74468,,7:00 AM - 7:00 PM,,8810585
"GREEN VALLEY BAPTIST CHURCH","19702 S ROSS ROAD","",,"WEBBERS FALLS",OK,74470,,7:00 AM - 7:00 PM,,8810038
"PERRY GOLF & COUNTRY CLUB","2001 N 9TH ST ","FROM FIR N ON 9 TO END OF ST",,"PERRY",OK,73077,,7:00 AM - 7:00 PM,,8810587
"PERRY MUNICIPAL AIRPORT ","15500 COUNTY RD 110","FROM FIR AVE N ON HWY 77",,"PERRY",OK,73077,,7:00 AM - 7:00 PM,,8810041
"BILLINGS COMMUNITY BLDG","200 W MAIN ","EAST SIDE OF BLDG",,"BILLINGS",OK,74630,,7:00 AM - 7:00 PM,,8810042
"BOLEY NEW AGE NUTRITION CENTER","13 NORTH PECAN STREET","",,"BOLEY",OK,74829,,7:00 AM - 7:00 PM,,8825497
"GRAHAM-DUSTIN SCHOOL","116118 HWY 84","",,"WELEETKA",OK,74880,,7:00 AM - 7:00 PM,,8810068
"AMERICAN LEGION POST #12","6101 NW 50TH ST","",,"OKLAHOMA CITY",OK,73122,,7:00 AM - 7:00 PM,,8811641
"GRACE CHURCH","100 S. CHOCTAW RD.","",,"CHOCTAW",OK,73020,,7:00 AM - 7:00 PM,,8811849
"EASTWOOD BAPTIST CHURCH","12251 E RENO AVE","",,"MIDWEST CITY",OK,73130,,7:00 AM - 7:00 PM,,8811844
"CHOCTAW COMMUNITY CENTER","2500 N CHOCTAW ROAD","",,"CHOCTAW",OK,73020,,7:00 AM - 7:00 PM,,8811843
"DEL CITY FIRST CH OF NAZARENE","4701 SE 26TH","",,"DEL CITY",OK,73115,,7:00 AM - 7:00 PM,,8811650
"HOLY TRINITY LUTHERAN CHURCH","308 NW 164TH ST","",,"EDMOND",OK,73013,,7:00 AM - 7:00 PM,,8811860
"CALVARY TEMPLE","1801 S KELLY AVE","",,"EDMOND",OK,73034,,7:00 AM - 7:00 PM,,8811652
"REVIVE CHURCH ASSEMBLY OF GOD ","400 W DANFORTH","",,"EDMOND",OK,73003,,7:00 AM - 7:00 PM,,8811879
"EDMOND CHURCH OF GOD","1005 N BROADWAY","",,"EDMOND",OK,73034,,7:00 AM - 7:00 PM,,8811655
"THE CROSSING CLUBHOUSE","13801 CROSSING WAY EAST","",,"EDMOND",OK,73013,,7:00 AM - 7:00 PM,,8811861
"FIRST CHRISTIAN CHURCH","2ND AND BOULEVARD","",,"EDMOND",OK,73083,,7:00 AM - 7:00 PM,,8811658
"WATERLOO ROAD BAPTIST CHURCH","3100 E WATERLOO RD","",,"EDMOND",OK,73034,,7:00 AM - 7:00 PM,,8811906
"SPRING CREEK ASSEMBLY OF GOD","1600 SE 15TH ST","",,"EDMOND",OK,73013,,7:00 AM - 7:00 PM,,8811660
"FAITH BAPTIST CHURCH","142 N. DOBBS","",,"HARRAH",OK,73045,,7:00 AM - 7:00 PM,,8811847
"SPENCER CENTER","8306 NE 36TH ST","",,"SPENCER",OK,73084,,7:00 AM - 7:00 PM,,8811794
"SOONER BAPTIST CHURCH","5824 SE 15TH ST","",,"MIDWEST CITY",OK,73110,,7:00 AM - 7:00 PM,,8811788
"MIDWEST CITY ELEMENTARY SCHOOL","2211 S MIDWEST BLVD","",,"MIDWEST CITY",OK,73110,,7:00 AM - 7:00 PM,,8811668
"MONRONEY MIDDLE SCHOOL","7400 E RENO AVE","",,"MIDWEST CITY",OK,73110,,7:00 AM - 7:00 PM,,8811203
"MIDWEST BOULEVARD CHRISTIAN CH","320 MIDWEST BLVD","",,"MIDWEST CITY",OK,73110,,7:00 AM - 7:00 PM,,8811789
"CHRIST THE KING CHURCH ATRIUM","8005 DORSET DR","",,"OKLAHOMA CITY",OK,73120,,7:00 AM - 7:00 PM,,8811896
"LONE STAR BAPTIST CHURCH","1805 E HEFNER RD","",,"OKLAHOMA CITY",OK,73131,,7:00 AM - 7:00 PM,,8811782
"SANTA FE FAMILY LIFE CENTER","6300 N. SANTA FE AVE.","",,"OKLAHOMA CITY",OK,73118,,7:00 AM - 7:00 PM,,8811681
"LORD OF LIFE LUTHERAN CHURCH","15400 N WESTERN AVE","",,"EDMOND",OK,73013,,7:00 AM - 7:00 PM,,8811735
"EDMOND FREE METHODIST CHURCH","1500 NW 178TH ST","",,"EDMOND",OK,73003,,7:00 AM - 7:00 PM,,8811869
"FRANCIS TUTTLE TECHNOLOGY CTR","12777 N ROCKWELL AVE","",,"OKLAHOMA CITY",OK,73142,,7:00 AM - 7:00 PM,,8811917
"SPRING CREEK BAPTIST CHURCH","11701 N MACARTHUR BLVD","",,"OKLAHOMA CITY",OK,73162,,7:00 AM - 7:00 PM,,8811892
"WHEATLAND METHODIST CHURCH","6920 KLEINER ST","",,"WHEATLAND",OK,73097,,7:00 AM - 7:00 PM,,8811824
"CHURCH OF PENTACOST","3106 N UTAH AVE","",,"OKLAHOMA CITY",OK,73112,,7:00 AM - 7:00 PM,,8811767
"NORTHWEST CHRISTIAN CHURCH","2828 NW 30TH","",,"OKLAHOMA CITY",OK,73112,,7:00 AM - 7:00 PM,,8811773
"TRINITY BAPTIST CHURCH","1329 NW 23RD ST","",,"OKLAHOMA CITY",OK,73106,,7:00 AM - 7:00 PM,,8811714
"ST LUKE'S METHODIST CHURCH","222 NW 15TH ST","",,"OKLAHOMA CITY",OK,73103,,7:00 AM - 7:00 PM,,8811778
"CROSS OF CAL INT'L AT AGNEW","2401 SW 32ND ST","",,"OKLAHOMA CITY",OK,73119,,7:00 AM - 7:00 PM,,8811828
"ASBURY UNITED METHODIST CHURCH","1320 SW 38TH ST","",,"OKLAHOMA CITY",OK,73119,,7:00 AM - 7:00 PM,,8811717
"LIBERTY WORSHIP CENTER","1200 SW 44TH ST","",,"OKLAHOMA CITY",OK,73109,,7:00 AM - 7:00 PM,,8811834
"MAYRIDGE BAPTIST CHURCH","4617 S. MAY","",,"OKLAHOMA CITY",OK,73119,,7:00 AM - 7:00 PM,,8811725
"FRONTLINE CHURCH","4501 S. I-35 SERVICE ROAD","",,"OKLAHOMA CITY",OK,73129,,7:00 AM - 7:00 PM,,8811741
"BARNES ELEMENTARY SCHOOL","10551 SE 59TH ST","",,"MIDWEST CITY",OK,73110,,7:00 AM - 7:00 PM,,8811840
"CRESTVIEW BAPTIST CHURCH","7715 S HIWASSEE RD","",,"OKLAHOMA CITY",OK,73150,,7:00 AM - 7:00 PM,,8811751
"OKMULGEE PRESBYTERIAN CHURCH","401 S SEMINOLE AVE","",,"OKMULGEE",OK,74447,,7:00 AM - 7:00 PM,,8810114
"OKMULGEE EASTSIDE SCHOOL","1614 E 9 ST","",,"OKMULGEE",OK,74447,,7:00 AM - 7:00 PM,,8810695
"GRAYSON COMMUNITY CENTER","21460 MARTIN LUTHER KING","",,"HENRYETTA",OK,74437,,7:00 AM - 7:00 PM,,8810696
"WILSON SCHOOL","8867 CHESTNUT ROAD","",,"HENRYETTA",OK,74437,,7:00 AM - 7:00 PM,,8810596
"BOWRING SCHOOL","87 CR 3304 RD","",,"PAWHUSKA",OK,74056,,7:00 AM - 7:00 PM,,8810133
"SHIDLER COMMUNITY BUILDING","269 S COSDEN","",,"SHIDLER",OK,74652,,7:00 AM - 7:00 PM,,8810135
"PRESBYTERIAN CHURCH","101 E 12 ST PAWHUSKA","",,"PAWHUSKA",OK,74056,,7:00 AM - 7:00 PM,,8810138
"MIAMI FRIENDS CHURCH","209 I NE","",,"MIAMI",OK,74354,,7:00 AM - 7:00 PM,,8810852
"OTTAWA TRIBAL BLDG.","11400 S 613 RD","",,"MIAMI",OK,74354,,7:00 AM - 7:00 PM,,8810168
"TOWN OF LONE CHIMNEY","52976 S 349 RD","",,"PAWNEE",OK,74058,,7:00 AM - 7:00 PM,,8810170
"SUNNYBROOK CHRISTIAN CHURCH","419 RICHMOND RD.","",,"STILLWATER",OK,74075,,7:00 AM - 7:00 PM,,8810183
"FORMAN HARLEY DAVIDSON","3512 S. BOOMER RD.","",,"STILLWATER",OK,74074,,7:00 AM - 7:00 PM,,8811766
"GRACE MISSIONARY CHURCH","5704 N. WASHINGTON","",,"STILLWATER",OK,74075,,7:00 AM - 7:00 PM,,8827680
"LIVING WORD CHURCH","103 W. TAYLOR AVE","",,"MC ALESTER",OK,74501,,7:00 AM - 7:00 PM,,8824442
"ALDERSON TOWN HALL","103 WASHINGTON","",,"ALDERSON",OK,74522,,7:00 AM - 7:00 PM,,8824803
"JONELL RAY RESIDENCE","ARCH COMMUNITY","NEAR HAILEYVILLE",,"HAILEYVILLE",OK,74546,,7:00 AM - 7:00 PM,,8810735
"HAYWOOD SCHOOL","HAYWOOD SCHOOL","11461 W STATE HWY 31",,"MCALESTER",OK,74501,,7:00 AM - 7:00 PM,,8810748
"LATTA SCHOOL LIBRARY #58","13925 CR 1560","",,"ADA",OK,74820-0804,,7:00 AM - 7:00 PM,,8810769
"HAPPYLAND FW BAPTIST CHUR. #64","23453 HIGHWAY 1E","",,"ADA",OK,74820,,7:00 AM - 7:00 PM,,8810773
"UNION HILL BAPTIST CHURCH #66","10041 CR 3500 RD","",,"ADA",OK,74820,,7:00 AM - 7:00 PM,,8810615
"VANOSS SCHOOL, AG BLDG #67","4665 CR 1555","",,"ADA",OK,74820,,7:00 AM - 7:00 PM,,8810775
"TEMPLE BAPTIST CHURCH  ","1244 E. ADA","",,"SHAWNEE",OK,74801,,7:00 AM - 7:00 PM,,8810782
"CHURCH OF CHRIST LAKEVIEW","15301 HWY 102","",,"SHAWNEE",OK,74801,,7:00 AM - 7:00 PM,,8810786
"MCLOUD BOARD OF EDUCATION","117 N MAIN","",,"MCLOUD",OK,74851,,7:00 AM - 7:00 PM,,8810700
"ST LOUIS CITY HALL","P.O. BOX 141","",,"ST LOUIS",OK,74866,,7:00 AM - 7:00 PM,,8810793
"COMMUNITY BUILDING","304 SW B","",,"ANTLERS",OK,74523,,7:00 AM - 7:00 PM,,8810797
"ANTLERS CITY LIBRARY","102 SE 2","",,"ANTLERS",OK,74523,,7:00 AM - 7:00 PM,,8810798
"MILLER COMMUNITY BUILDING","WAYLON MCMAHAN","HC 66 BOX 590",,"MOYERS",OK,74557,,7:00 AM - 7:00 PM,,8810800
"SNOW COMMUNITY BUILDING","0000","",,"SNOW",OK,74567,,7:00 AM - 7:00 PM,,8810804
"TUSKAHOMA SCHOOL HOUSE","0000			","",,"TUSKAHOMA",OK,74574,,7:00 AM - 7:00 PM,,8810809
"BERLIN COMMUNITY BLDG","RM EW108 & RM NS1882","",,"BERLIN",OK,73662,,7:00 AM - 7:00 PM,,8810812
"BLUE STARR CHURCH OF CHRIST","319 E BLUE STARR DR","",,"CLAREMORE",OK,74017,,7:00 AM - 7:00 PM,,8810820
"LIFECHANGER CHURCH","2221 CORNERSTONE AVE","",,"CLAREMORE",OK,74017,,7:00 AM - 7:00 PM,,8810827
"VERDIGRIS UNITED METHODIST  ","8936 E. 530 ROAD","",,"CLAREMORE",OK,74019,,7:00 AM - 7:00 PM,,8810830
"SEQUOYAH SCHOOL-SOUTH CAMPUS","16441 S 4180 RD","",,"CLAREMORE",OK,74017,,7:00 AM - 7:00 PM,,8810623
"INOLA FIRST BAPTIST CHURCH","500 E COMMERCIAL ST","",,"INOLA",OK,74036,,7:00 AM - 7:00 PM,,8810624
"INOLA UNITED METHODIST CHURCH","125 S. BROADWAY","",,"INOLA",OK,74036,,7:00 AM - 7:00 PM,,8810667
"ASSEMBLY OF GOD CHURCH","205 W 3","",,"KONAWA",OK,74849,,7:00 AM - 7:00 PM,,8810845
"LITTLE CHURCH OF CHRIST","1/4 S OF 99A & 99","",,"SEMINOLE",OK,74868,,7:00 AM - 7:00 PM,,8810847
"STROTHER SCHOOL","36085 EW 1140","",,"SEMINOLE",OK,74868,,7:00 AM - 7:00 PM,,8810716
"MULDROW CHEROKEE COMM. BLDG PP","603 N. MAIN","",,"MULDROW",OK,74948,,7:00 AM - 7:00 PM,,8810855
"RURAL WATER DEPARTMENT PP","2000 E. SHAWNTEL SMITH BLVD","",,"MULDROW",OK,74948,,7:00 AM - 7:00 PM,,8810856
"ROLAND NUTRITION CENTER PP","300 S. ROLAND RD.","",,"ROLAND",OK,74954,,7:00 AM - 7:00 PM,,8810859
"LANDMARK MISSIONARY CHURCH PP","1 MILE NO ON HWY 82  ON THE","WEST SIDE OF THE ROAD",,"VIAN",OK,74962,,7:00 AM - 7:00 PM,,8810861
"VIAN UNITED METHODIST CHURCH","CORNER OF LEE & BLKSTONE","",,"VIAN",OK,74962,,7:00 AM - 7:00 PM,,8810862
"MCKEY FIRE DEPARTMENT PP","107362 S. 4570 RD","",,"SALLISAW",OK,74955,,7:00 AM - 7:00 PM,,8810863
"GANS CITY HALL PP","102 S STACY","",,"GANS",OK,74936,,7:00 AM - 7:00 PM,,8810876
"THE CHRISTIAN CENTER","720 E PLATO RD","",,"DUNCAN",OK,73533,,7:00 AM - 7:00 PM,,8810878
"FIRST UNITED METHODIST CHURCH","2300 N COUNTRY CLUB RD","",,"DUNCAN",OK,73533,,7:00 AM - 7:00 PM,,8810879
"CAMERON UNIVERSITY-DUNCAN","3100 W BOIS D'ARC AVE","",,"DUNCAN",OK,73533,,7:00 AM - 7:00 PM,,8810883
"CENTRAL HIGH COMMUNITY CENTER","7TH & BRONCHO RD","",,"MARLOW",OK,73055,,7:00 AM - 7:00 PM,,8811927
"WEST SIDE CHRISTIAN CHURCH","1801 W BEECH AVE","",,"DUNCAN",OK,73533,,7:00 AM - 7:00 PM,,8811926
"HARDESTY HIGH SCHOOL","5TH & CRAWFORD","",,"HARDESTY",OK,73944,,7:00 AM - 7:00 PM,,8810902
"PTCI CONFERENCE ROOM-METAL BLD","607 S. MAIN ST.","",,"GUYMON",OK,73942,,7:00 AM - 7:00 PM,,8813891
"TESCA BAPTIST CHURCH","311 S. 22","P.O. BOX 459",,"FREDERICK",OK,73542,,7:00 AM - 7:00 PM,,8811919
"JACKSON ELEMENTARY SCHOOL","2137 N PITTSBURG AVE","",,"TULSA",OK,74115,,7:00 AM - 7:00 PM,,8810927
"RUDISILL NORTH REG LIBRARY","1520 N HARTFORD AVE","",,"TULSA",OK,74106,,7:00 AM - 7:00 PM,,8810632
"CROSSTOWN CHURCH OF CHRIST","3400 E ADMIRAL PL","",,"TULSA",OK,74115,,7:00 AM - 7:00 PM,,8830299
"UAW LOCAL NO 952","1414 N MEMORIAL DR","",,"TULSA",OK,74115,,7:00 AM - 7:00 PM,,8810939
"MEMORIAL DRIVE CH OF CHRIST","747 S MEMORIAL DR","",,"TULSA",OK,74112,,7:00 AM - 7:00 PM,,8810947
"WILL ROGERS METHODIST CHURCH","1138 S YALE AVE","",,"TULSA",OK,74112,,7:00 AM - 7:00 PM,,8810957
"IN THE SPIRIT CHRISTIAN CHURCH","1020 S GARNETT RD","",,"TULSA",OK,74128,,7:00 AM - 7:00 PM,,8811686
"ZARROW INTERNATIONAL SCH","3613 S HUDSON AVE","",,"TULSA",OK,74135,,7:00 AM - 7:00 PM,,8810663
"CHURCH OF CHRIST/PARK PLAZA","5925 E 51 ST","",,"TULSA",OK,74135,,7:00 AM - 7:00 PM,,8810713
"HICKS COMMUNITY CENTER","3443 S MINGO RD","",,"TULSA",OK,74146,,7:00 AM - 7:00 PM,,8823407
"PLAINVIEW BAPTIST CHURCH","14531 E 21 ST","",,"TULSA ",OK,74134,,7:00 AM - 7:00 PM,,8829011
"ST MATTHEWS UNITED METH CH","12424 E 31 ST","",,"TULSA",OK,74146,,7:00 AM - 7:00 PM,,8827174
"BOEVERS ELEMENTARY SCHOOL","3433 S 133 E AVE","",,"TULSA",OK,74134,,7:00 AM - 7:00 PM,,8811000
"ROSA PARKS ELEMENTARY SCHOOL","13702 E 46 PL  ","",,"TULSA",OK,74134,,7:00 AM - 7:00 PM,,8811001
"SOUTHERN HILLS BAPTIST CHURCH","5590 S LEWIS AVE","",,"TULSA",OK,74105,,7:00 AM - 7:00 PM,,8811002
"HELMERICH  LIBRARY","5131 E 91 STREET","",,"TULSA",OK,74137,,7:00 AM - 7:00 PM,,8830992
"ABERDEEN HEIGHTS","7220 S YALE AVE","",,"TULSA",OK,74136,,7:00 AM - 7:00 PM,,8810644
"CHRISTIAN CHAPEL","7807 E 76 ST","",,"TULSA",OK,74133,,7:00 AM - 7:00 PM,,8811021
"VIEW ACRES BAPTIST CHURCH","2327 S 65 W AVE","",,"TULSA",OK,74107,,7:00 AM - 7:00 PM,,8811030
"TULSA TECH ALLIANCE & CONF CTR","801 E 91 ST","",,"TULSA",OK,74132,,7:00 AM - 7:00 PM,,8811033
"FOREST PARK CHRISTIAN CHURCH","9102 S MINGO RD","",,"TULSA",OK,74133,,7:00 AM - 7:00 PM,,8811041
"JOY LUTHERAN CHURCH","9940 S YALE AVE","",,"TULSA",OK,74137,,7:00 AM - 7:00 PM,,8811044
"SOUTH TULSA BAPTIST CHURCH","10310 S SHERIDAN RD","",,"TULSA",OK,74133,,7:00 AM - 7:00 PM,,8811056
"ST BERNARD CHURCH","4001 E 101 ST","",,"TULSA",OK,74137,,7:00 AM - 7:00 PM,,8821825
"ORU MABEE CENTER","7777 S LEWIS AVE","",,"TULSA",OK,74171,,7:00 AM - 7:00 PM,,8811817
"NORTH HEIGHTS CHURCH OF CHRIST","11710 S MEMORIAL DR","",,"BIXBY",OK,74008,,7:00 AM - 7:00 PM,,8811067
"EVERGREEN BAPTIST CHURCH","10301 E 111 ST  SOUTH","",,"BIXBY",OK,74008,,7:00 AM - 7:00 PM,,8810109
"NEW LIFE BAPTIST CHURCH","851 W NORMAN ST","",,"BROKEN ARROW",OK,74012,,7:00 AM - 7:00 PM,,8810709
"FIRST UNITED METHODIST CHURCH","112 E COLLEGE ST","",,"BROKEN ARROW",OK,74012,,7:00 AM - 7:00 PM,,8810649
"UNION 8TH GRADE CENTER","6501 S GARNETT RD","",,"BROKEN ARROW",OK,74012,,7:00 AM - 7:00 PM,,8811079
"UNITED PENTECOSTAL CH OF BA","1730 N 9 ST","",,"BROKEN ARROW",OK,74012,,7:00 AM - 7:00 PM,,8811080
"ASPEN CREEK ASSEMBLY OF GOD","5100 S ASPEN AVE","",,"BROKEN ARROW",OK,74011,,7:00 AM - 7:00 PM,,8814291
"CEDAR RIDGE CHRISTIAN CHURCH","4010 W NEW ORLEANS ST","",,"BROKEN ARROW",OK,74011,,7:00 AM - 7:00 PM,,8811084
"GRACE BAPTIST CHURCH","4316 E 96 ST N","",,"SPERRY",OK,74073,,7:00 AM - 7:00 PM,,8811092
"GLENPOOL CONFERENCE CENTER","12205 S YUKON AVE","",,"GLENPOOL",OK,74033,,7:00 AM - 7:00 PM,,8811097
"FIRST CHRISTIAN CHURCH OWASSO","10100 N GARNETT RD","",,"OWASSO",OK,74055,,7:00 AM - 7:00 PM,,8810683
"OWASSO COMMUNITY CENTER","301 S CEDAR ST","",,"OWASSO",OK,74055,,7:00 AM - 7:00 PM,,8811101
"OWASSO CHURCH OF CHRIST","10510 N 129 E AVE","",,"OWASSO",OK,74055,,7:00 AM - 7:00 PM,,8811103
"FIRST CHRISTIAN CHURCH OWASSO","10100 N GARNETT RD","",,"OWASSO",OK,74055,,7:00 AM - 7:00 PM,,8811727
"SOLACE CHURCH","7314 W 41 ST","",,"TULSA",OK,74107,,7:00 AM - 7:00 PM,,8831410
"SOLACE CHURCH","7314 W 41 ST","",,"TULSA",OK,74107,,7:00 AM - 7:00 PM,,8829471
"AMAZING GRACE HOLINESS CHURCH","807 W 2 ST","",,"SAND SPRINGS",OK,74063,,7:00 AM - 7:00 PM,,8811111
"BA POLICE & FIRE TRAINING CTR","4205 E OMAHA","",,"BROKEN ARROW",OK,74014,,7:00 AM - 7:00 PM,,8810089
"SUNNYSIDE CHURCH","8091 S 305 E AVE","",,"BROKEN ARROW",OK,74014,,7:00 AM - 7:00 PM,,8810097
"PORTER CIVIC CENTER","529 S MAIN","",,"PORTER",OK,74454,,7:00 AM - 7:00 PM,,8810075
"TULLAHASSEE CIVIC CENTER","675 LINCOLN ST","",,"TULLAHASSEE",OK,74454,,7:00 AM - 7:00 PM,,8810096
"MUTUAL GIRLS CLUB","3401 SE PRICE RD","",,"BARTLESVILLE",OK,74006,,7:00 AM - 7:00 PM,,8811122
"ROSE HILL CHURCH","12950 N 4000 RD, DEWEY","",,"DEWEY",OK,74029,,7:00 AM - 7:00 PM,,8811134
"GRACE COMMUNITY CHURCH","1500 SE KINGS DR, BARTLESVILLE","",,"BARTLESVILLE",OK,74006,,7:00 AM - 7:00 PM,,8811821
"BESSIE TOWN HALL","714 MAIN","",,"BESSIE",OK,73622,,7:00 AM - 7:00 PM,,8811143
"BURNS FLAT COMMUNITY CENTER","98 FRONTIER WAY","",,"BURNS FLAT",OK,73624,,7:00 AM - 7:00 PM,,8811144
"METHODIST FELLOWSHIP HALL","800 EAGLE PASS","",,"FREEDOM",OK,73842,,7:00 AM - 7:00 PM,,8811152
"MUTUAL HIGH SCHOOL GYM","MUTUAL HIGH SCHOOL GYM","",,"MUTUAL",OK,73853,,7:00 AM - 7:00 PM,,8810191
"WOODWARD HIGH SCHOOL","2406 13TH STREET","",,"WOODWARD",OK,73801,,7:00 AM - 7:00 PM,,8810190
"FAITH TABERNACLE CHURCH","FAITH TABERNACLE CHURCH","CHALK BLUFF HWY 51 EAST",,"STILWELL",OK,74960,,7:00 AM - 7:00 PM,,8811623
"AMORITA-BYRON FIRE DEPARTMENT","BYRON COMMUNITY CENTER","502 4TH STREET",,"BYRON",OK,73722,,7:00 AM - 7:00 PM,,8826533
"ALFALFA COUNTY FAIRGROUNDS","ALFALFA COUNTY FAIRGROUNDS","WEST 5TH STREET",,"CHEROKEE",OK,73728,,7:00 AM - 7:00 PM,,8810717
"WILSON COMMUNITY BUILDING","310 S WILSON RD","",,"ATOKA",OK,74525,,7:00 AM - 7:00 PM,,8811592
"KIAMICHI TECH. WES WATKINS RM.","810 WALDRON ROAD","S. END VERNON ANDERSON SECTION",,"DURANT",OK,74701,,7:00 AM - 7:00 PM,,8811251
"COBB COMMUNITY BUILDING","3825 BRYAN ROAD  (HWY 78","8 MI. NW OF DURANT) COBB",,"DURANT",OK,74701,,7:00 AM - 7:00 PM,,8811253
"ALDEN FIRE DEPARTMENT","40030 SH 58","",,"CARNEGIE",OK,73015,,7:00 AM - 7:00 PM,,8810247
"BAYMONT INN & SUITES","1707 SW 27TH ST","",,"EL RENO",OK,73036,,7:00 AM - 7:00 PM,,8811177
"EL RENO PUBLIC SAFETY CENTER ","(NEW EL RENO FIRE STATION)","2707 FAITH AVENUE",,"EL RENO",OK,73036,,7:00 AM - 7:00 PM,,8811280
"RICHLAND NAZARENE CHURCH","10825 N 6TH ST","IN RICHLAND COMMUNITY",,"YUKON",OK,73099,,7:00 AM - 7:00 PM,,8811284
"RICHLAND NAZARENE CHURCH","10825 N 6TH ST","(IN RICHLAND COMMUNITY)",,"YUKON",OK,73099,,7:00 AM - 7:00 PM,,8813281
"THE PAVILLION AT SPANISH COVE","11 PALM AVENUE","",,"YUKON",OK,73099,,7:00 AM - 7:00 PM,,8811288
"UNITED METHODIST CHURCH","10928 SW 15 ST","",,"YUKON",OK,73099,,7:00 AM - 7:00 PM,,8811294
"SARA ROAD BAPTIST CHURCH","2015 N SARA ROAD","",,"YUKON",OK,73099,,7:00 AM - 7:00 PM,,8810105
"LIGHT YOUR WORLD CHURCH","4550 NW EXPRESSWAY","",,"OKARCHE",OK,73762,,7:00 AM - 7:00 PM,,8811419
"COLVERT MINISTRY BLDG.","503 W BROADWAY","",,"ARDMORE",OK,73401,,7:00 AM - 7:00 PM,,8811422
"ST. BRIGID CATHOLIC CHURCH","807 CRAFTON ST","",,"TAHLEQUAH",OK,74464,,7:00 AM - 7:00 PM,,8811444
"UKB WELLNESS CENTER","18263 W. KEETOOWAH CIRCLE","",,"TAHLEQUAH",OK,74464,,7:00 AM - 7:00 PM,,8824626
"EASTERN STAR BAPTIST CHURCH","5.5 MI S OFF HWY 70E ON HWY","109 GO .5 MI W THEN 1/4 MI N",,"FORT TOWSON",OK,74735,,7:00 AM - 7:00 PM,,8811468
"MESSER COMMUNITY CENTER","6 MI N ON HWY 93 .2 MI","EAST NEXT DOOR TO FIRE DEPT",,"HUGO",OK,74743,,7:00 AM - 7:00 PM,,8811472
"FORT TOWSON CITY HALL","HWY 70E AND S 3RD STREET","112 E VALLIANT",,"FORT TOWSON",OK,74735,,7:00 AM - 7:00 PM,,8811475
"CHICKEN HOUSE","RT. 1-BOX 55","",,"TEXHOMA",OK,73949,,7:00 AM - 7:00 PM,,8811482
"BETH HAVEN CHURCH","12400 S WESTERN","",,"OKLAHOMA CITY",OK,73170,,7:00 AM - 7:00 PM,,8811486
"ADMINISTRATION SERVICES CENTER","131 S. FLOOD","",,"NORMAN",OK,73069,,7:00 AM - 7:00 PM,,8811487
"LAKEVIEW BAPTIST CHURCH","10510 ALAMEDA DRIVE","",,"NORMAN",OK,73026,,7:00 AM - 7:00 PM,,8811503
"SEVENTH DAY ADVENTIST CHURCH","1818 E. ALAMEDA","",,"NORMAN",OK,73071,,7:00 AM - 7:00 PM,,8811194
"HEARTLAND FREEWILL BAP.CHURCH","17601 S SANTA FE","",,"OKLAHOMA CITY",OK,73170,,7:00 AM - 7:00 PM,,8811512
"MOORE SCHOOLS ADMIN CENTER","1500 SE 4TH","",,"MOORE",OK,73160,,7:00 AM - 7:00 PM,,8811533
"ENTERPRISE BAPTIST CHURCH","2425 SE 84TH","",,"NORMAN",OK,73026,,7:00 AM - 7:00 PM,,8824595
"EASTLAKE CHURCH","700 SW 134TH STREET","",,"OKLAHOMA CITY",OK,73170,,7:00 AM - 7:00 PM,,8811543
"MAGUIRE BAPTIST CHURCH","9801 MAGUIRE RD","",,"NOBLE",OK,73068,,7:00 AM - 7:00 PM,,8810877
"CROSBY PARK SCHOOL","1602 NW HORTON","",,"LAWTON",OK,73505,,7:00 AM - 7:00 PM,,8811556
"ALMOR WEST SCHOOL","6902 SW DELTA AVE","",,"LAWTON",OK,73505,,7:00 AM - 7:00 PM,,8811201
"GOODWILL ADULT AND YOUTH SERV","923 HILLTOP DR","",,"LAWTON",OK,73507,,7:00 AM - 7:00 PM,,8811562
"LIBERTY HEIGHTS CHURCH","1802 NW ELM AVE","",,"LAWTON",OK,73505,,7:00 AM - 7:00 PM,,8811564
"MEDICINE PARK TOWN HALL","154 E LAKE DRIVE","",,"MEDICINE PARK",OK,73557,,7:00 AM - 7:00 PM,,8811575
"ASSEMBLY OF GOD CHURCH","225 W. VIRGINIA ST.","",,"WALTERS",OK,73572,,7:00 AM - 7:00 PM,,8830130
"SENIOR CITIZENS BLDG","222 W SEQUOYAH ST","",,"VINITA",OK,74301,,7:00 AM - 7:00 PM,,8811311
"FIRST CHRISTIAN CHURCH","226 W CANADIAN AVE","",,"VINITA",OK,74301,,7:00 AM - 7:00 PM,,8811313
"BIG CABIN COMMUNITY CENTER","264 MAIN ST","",,"BIG CABIN",OK,74332,,7:00 AM - 7:00 PM,,8811317
"LONE STAR SCHOOL","4000 S. HICKORY","",,"SAPULPA",OK,74066,,7:00 AM - 7:00 PM,,8811320
"NAZARENE CHURCH","320 S. PENN","",,"DRUMRIGHT",OK,74030,,7:00 AM - 7:00 PM,,8811329
"1ST BAPTIST CHURCH, SHAMROCK","FIFTH AND CORK, SHAMROCK","",,"SHAMROCK",OK,74068,,7:00 AM - 7:00 PM,,8811335
"KIEFER MUNICIPAL BLDG.","401 E.INDIANA","",,"KIEFER",OK,74041,,7:00 AM - 7:00 PM,,8811341
"CLINTON CITY HALL","417 GARY BOULEVARD","",,"CLINTON",OK,73601,,7:00 AM - 7:00 PM,,8811216
"UNITED METHODIST CHURCH","817 NORTH 7TH ST.","",,"WEATHERFORD",OK,73096,,7:00 AM - 7:00 PM,,8811353
"HICKORY GROVE FIRE DEPT","59691 E 250 RD","",,"GROVE",OK,74334,,7:00 AM - 7:00 PM,,8811359
"JAY COMMUNITY CENTER ","429 S 9TH ST","",,"JAY",OK,74346,,7:00 AM - 7:00 PM,,8811369
"MOUNT HERMON CHURCH REC BLDG","18035 E 420 RD","",,"JAY",OK,74346,,7:00 AM - 7:00 PM,,8811371
"COLCORD CHURCH OF CHRIST","175 N COLCORD AVE","",,"COLCORD",OK,74338,,7:00 AM - 7:00 PM,,8811372
"OAKWOOD COMMUNITY CENTER","--","",,"OAKWOOD",OK,73658,,7:00 AM - 7:00 PM,,8811384
"FARGO TOWN HALL","200 MAIN ST.","",,"FARGO",OK,73840,,7:00 AM - 7:00 PM,,8811389
"CENTRAL CHRISTIAN CHURCH","1111 W BROADWAY","",,"ENID",OK,73703,,7:00 AM - 7:00 PM,,8811398
"HILLSDALE BIBLE CHURCH","200 N OAK","",,"HILLSDALE",OK,73743,,7:00 AM - 7:00 PM,,8823871
"BRECKINRIDGE COMMUNITY CENTER","215 DON KROLL ST","",,"BRECKINRIDGE",OK,73727,,7:00 AM - 7:00 PM,,8811404
"ERIN SPRINGS BAPTIST CHURCH","13053 HWY 76 N","",,"LINDSAY",OK,73052,,7:00 AM - 7:00 PM,,8810210
"METHODIST CHURCH MAYSVILLE","705 MAYS STREET","",,"MAYSVILLE",OK,73057,,7:00 AM - 7:00 PM,,8810211
"PAULS VALLEY NATL BK-MERIDIAN","101 N INDIAN MERIDIAN ROAD","",,"PAULS VALLEY",OK,73075,,7:00 AM - 7:00 PM,,8810212
"PAULS VALLEY METHODIST CHURCH","401 WILLOW ST. ","",,"PAULS VALLEY",OK,73075,,7:00 AM - 7:00 PM,,8810221
"SOUTHERN OAKS CHURCH OF CHRIST","3320 S 16","",,"CHICKASHA",OK,73018,,7:00 AM - 7:00 PM,,8810228
"HOLIDAY INN EXPRESS","CONFERENCE ROOM, 2610 S 4","",,"CHICKASHA",OK,73018,,7:00 AM - 7:00 PM,,8810229
"MINCO CHURCH OF CHRIST","500 W MAIN","",,"MINCO",OK,73059,,7:00 AM - 7:00 PM,,8811228
"WAKITA SENIOR CITIZENS CLUB","1678 MAIN","",,"WAKITA",OK,73771,,7:00 AM - 7:00 PM,,8810251
"MEDFORD CIVIC CENTER","123 S. MAIN","",,"MEDFORD",OK,73759,,7:00 AM - 7:00 PM,,8810253
"SACRED HEART CATHOLIC CHURCH","409 N BYERS","",,"MANGUM",OK,73554,,7:00 AM - 7:00 PM,,8810254
"HARPER CO. FAIRGROUNDS BLDG.","FAIRGROUNDS COMPLEX","",,"BUFFALO",OK,73834,,7:00 AM - 7:00 PM,,8810275
"MAY TOWN HALL","MAY TOWN HALL","247 E RACE ST",,"MAY",OK,73851,,7:00 AM - 7:00 PM,,8810276
"BUFFALO PUBLIC LIBRARY","11 E TURNER","",,"BUFFALO",OK,73834,,7:00 AM - 7:00 PM,,8810678
"ANTIOCH BAPTIST CHURCH","2MI. E., 2/10MI.S., RT. SD. RD","",,"STIGLER",OK,74462,,7:00 AM - 7:00 PM,,8810721
"CATHOLIC CHURCH","517 E HIGHWAY","",,"HOLDENVILLE",OK,74848,,7:00 AM - 7:00 PM,,8810294
"DAYS INN OF ALTUS","2804 N. MAIN","",,"ALTUS",OK,73521,,7:00 AM - 7:00 PM,,8810301
"ALTUS COMMUNITY CENTER","401 FALCON RD","",,"ALTUS",OK,73521,,7:00 AM - 7:00 PM,,8810302
"ST. JOHN'S BAPTIST CHURCH","620 W. MARTIN L. KING","",,"ALTUS",OK,73521,,7:00 AM - 7:00 PM,,8810307
"ELMER COMMUNITY BUILDING","HWY 5","",,"ELMER",OK,73539,,7:00 AM - 7:00 PM,,8810313
"OLUSTEE COMMUNITY BUILDING","105 E. 4TH ST.","",,"OLUSTEE",OK,73560,,7:00 AM - 7:00 PM,,8810316
"FIRST UNITED METHODIST CHURCH","438 EAST D STREET","",,"WAURIKA",OK,73573,,7:00 AM - 7:00 PM,,8810317
"HASTINGS SENIOR CITIZEN CENTER","116 W MAIN STREET","",,"HASTINGS",OK,73548,,7:00 AM - 7:00 PM,,8810319
"ADDINGTON BAPTIST CHURCH","201 PURDY STREET","",,"ADDINGTON",OK,73520,,7:00 AM - 7:00 PM,,8811873
"RAVIA COMMUNITY CENTER","100 S. 2ND ST","",,"RAVIA",OK,73455,,7:00 AM - 7:00 PM,,8810330
"MILBURN COMMUNITY CENTER","102 W. F AVE","",,"MILBURN",OK,73450,,7:00 AM - 7:00 PM,,8810336
"FIRST CHRISTIAN CHURCH","306 EAST COOLIDGE","",,"BLACKWELL",OK,74631,,7:00 AM - 7:00 PM,,8810342
"MASONIC LODGE","103 W. BOAZ","",,"NEWKIRK",OK,74647,,7:00 AM - 7:00 PM,,8810345
"PECKHAM CHRISTIAN CHURCH","7090 W. CHURCH ST","",,"NEWKIRK",OK,74647,,7:00 AM - 7:00 PM,,8810348
"KILDARE SCHOOL","1265 CHURCH STREET","",,"KILDARE",OK,74604,,7:00 AM - 7:00 PM,,8810843
"NORTHEAST BAPTIST CHURCH","2200 NORTH PECAN","",,"PONCA CITY",OK,74604,,7:00 AM - 7:00 PM,,8810360
"CASHION HIGH SCHOOL CAFETERIA","101 N. EUCLID","",,"CASHION",OK,73016,,7:00 AM - 7:00 PM,,8810364
"LOMEGA HIGH SCHOOL","18319 N 2700 RD","",,"OMEGA",OK,73764,,7:00 AM - 7:00 PM,,8810371
"HOBART HEAD START","400 N RANDLETT","",,"HOBART",OK,73651,,7:00 AM - 7:00 PM,,8810725
"FIRST BAPTIST CHURCH GYMNASIUM","200 SICARD AVE","",,"ARKOMA",OK,72901,,7:00 AM - 7:00 PM,,8828067
"AMERICAN LEGION POST #75","29957 MAIN ST","",,"BOKOSHE",OK,74930,,7:00 AM - 7:00 PM,,8810403
"DOG CREEK COMMUNITY CHURCH","29484 DOG CREEK RD","",,"SHADY POINT",OK,74956,,7:00 AM - 7:00 PM,,8810405
"JIM TURNIPSEED COMM. CENTER","CASTON ST- WISTER","",,"WISTER",OK,74966,,7:00 AM - 7:00 PM,,8810410
"FANSHAWE FIRE STATION/CITY HAL","36750 US HWY 270","",,"FANSHAWE",OK,74935,,7:00 AM - 7:00 PM,,8810411
"LEFLORE COMMUNITY CENTER","BROADWAY ST","",,"LEFLORE",OK,74942,,7:00 AM - 7:00 PM,,8810561
"SUMMERFIELD COMMUNITY CENTER","34635 REICHERT/SUMMERFIELD RD","",,"SUMMERFIELD",OK,74966,,7:00 AM - 7:00 PM,,8810412
"HAW CREEK FIRE TRAINING CENTER","51800 HAW CREEK RD","",,"HEAVENER",OK,74937,,7:00 AM - 7:00 PM,,8813803
"MEEKER CITY HALL","510 W. CARL HUBBELL","",,"MEEKER",OK,74855,,7:00 AM - 7:00 PM,,8810567
"BIBLE BAPTIST CHURCH","4820 S. DIVISION ST.","",,"GUTHRIE",OK,73044,,7:00 AM - 7:00 PM,,8810444
"CRESCENT COMMUNITY CENTER","621 EAST VAN BUREN","",,"CRESCENT",OK,73028,,7:00 AM - 7:00 PM,,8810449
"W NOBLE AVENUE BAPTIST CHURCH","1219 WEST NOBLE","",,"GUTHRIE",OK,73044,,7:00 AM - 7:00 PM,,8810452
"FIRST CHRISTIAN CHURCH","402 EAST NOBLE","",,"GUTHRIE",OK,73044,,7:00 AM - 7:00 PM,,8810453
"LOVE COUNTY LIBRARY","500 HWY 77","",,"MARIETTA",OK,73448,,7:00 AM - 7:00 PM,,8824614
"ORR FIRE DEPT","RT. 1 BOX 137-0","",,"RINGLING",OK,73456,,7:00 AM - 7:00 PM,,8810463
"GREENVILLE SCHOOL","HWY 77 NORTH","",,"MARIETTA",OK,73448,,7:00 AM - 7:00 PM,,8810465
"MID-AMERICA TECHNOLOGY CENTER","27438 ST HWY 59","",,"WAYNE",OK,73095,,7:00 AM - 7:00 PM,,8810469
"WASHINGTON FIRST BAPT CHURCH","100 S MAIN ST","",,"WASHINGTON",OK,73093,,7:00 AM - 7:00 PM,,8810472
"CRINER BAPTIST CHURCH","17943 MAY AVE","",,"LINDSAY",OK,73052,,7:00 AM - 7:00 PM,,8810474
"NEWCASTLE CHRISTIAN CHURCH","2200 N MAIN ST","",,"NEWCASTLE",OK,73065,,7:00 AM - 7:00 PM,,8810572
"PLEASANT HILL BAPTIST CHURCH","3308 E VETERANS MEMORIAL","",,"BLANCHARD",OK,73010,,7:00 AM - 7:00 PM,,8810480
"MILLERTON COMMUNITY BUILDING","MILLERTON COMMUNITY","",,"MILLERTON",OK,74750,,7:00 AM - 7:00 PM,,8810503
"CO YOUTH & FAMILY RESOURCE CEN","107 MCKINLEY, EUFAULA","",,"EUFAULA",OK,74432,,7:00 AM - 7:00 PM,,8810514
"HANNA COMMUNITY CENTER","MAIN STREET","PO BOX 236",,"HANNA",OK,74845,,7:00 AM - 7:00 PM,,8810517
"STIDHAM BAPTIST CHURCH","STIDHAM BAPTIST CHURCH","",,"STIDHAM",OK,74432,,7:00 AM - 7:00 PM,,8810518
"BRUSH HILL BAPTIST CHURCH","109985 HWY 150","",,"CHECOTAH",OK,74426-5593,,7:00 AM - 7:00 PM,,8810521
"CHESTER COMMUNITY CENTER","22040 HWY 281","",,"CHESTER",OK,73838,,7:00 AM - 7:00 PM,,8810529
"MADILL ELEMENTARY AUDITORIUM","701 W. TISHOMINGO ST.","",,"MADILL",OK,73446,,7:00 AM - 7:00 PM,,8810535
"THE GATHERING CHURCH","1859 W. 430 RD","",,"ADAIR",OK,74330,,7:00 AM - 7:00 PM,,8825405
"OSAGE SCHOOL","7960 W 490","",,"PRYOR",OK,74361,,7:00 AM - 7:00 PM,,8810543
"RURAL WATER DIST #2 BUILDING","202 W BROADWAY","",,"MAZIE",OK,74337,,7:00 AM - 7:00 PM,,8810546
"MURPHY CHURCH OF GOD","68 SPRING CREEK AVE","",,"MURPHY",OK,74352,,7:00 AM - 7:00 PM,,8811822
"RURAL WATER DIST #2 BLDG","202 W BROADWAY","",,"MAZIE",OK,74337,,7:00 AM - 7:00 PM,,8810573
"PRYOR FREEWILL BAPTIST CHURCH","107 S ORA ST","",,"PRYOR",OK,74361,,7:00 AM - 7:00 PM,,8810551
"CHANDLER RD CHURCH OF CHRIST","3507 CHANDLER RD","",,"MUSKOGEE",OK,74403,,7:00 AM - 7:00 PM,,8810014
"RAYFIELD BAPTIST CHURCH","601 INDIANAPOLIS","",,"MUSKOGEE",OK,74401,,7:00 AM - 7:00 PM,,8810017
"DELAWARE METHODIST CHURCH","611 S WASHINGTON","",,"DELAWARE",OK,74027,,7:00 AM - 7:00 PM,,8810057
"CASTLE COMMUNITY CENTER","PO BOX 45","",,"CASTLE",OK,74833,,7:00 AM - 7:00 PM,,8810707
"SANTA FE PRESBYTERIAN CHURCH","1603 N. SANTA FE AVE","",,"EDMOND",OK,73003,,7:00 AM - 7:00 PM,,8811901
"HOLY TRINITY LUTHERAN CHURCH","308 NW 164TH ST","",,"EDMOND",OK,73013,,7:00 AM - 7:00 PM,,8811653
"HIGHLAND PARK BAPTIST CHURCH","400 N. BLACKWELDER","",,"EDMOND",OK,73034,,7:00 AM - 7:00 PM,,8811654
"FOREST PARK CITY HALL","4203 N COLTRANE RD","",,"OKLAHOMA CITY",OK,73121,,7:00 AM - 7:00 PM,,8811661
"CHRIST THE KING CHURCH ATRIUM","8005 DORSET DR","",,"OKLAHOMA CITY",OK,73120,,7:00 AM - 7:00 PM,,8811887
"NORTH SIDE YMCA","10000 N PENNSYLVANIA AVE","",,"OKLAHOMA CITY",OK,73120,,7:00 AM - 7:00 PM,,8811854
"THE GARVEY CENTER","2501 E MEMORIAL RD","",,"OKLAHOMA CITY",OK,73136,,7:00 AM - 7:00 PM,,8811881
"CLASSEN BLVD BAPTIST CHURCH","9215 N CLASSEN BLVD","",,"OKLAHOMA CITY",OK,73114,,7:00 AM - 7:00 PM,,8811776
"CHISHOLM CREEK BAPTIST CHURCH","17600 N WESTERN AVE","",,"EDMOND",OK,73003,,7:00 AM - 7:00 PM,,8811694
"CHURCH OF THE SERVANT","14343 N MACARTHUR BLVD","",,"OKLAHOMA CITY",OK,73142,,7:00 AM - 7:00 PM,,8811868
"WESTERN OAKS CH OF NAZARENE","7901 NW 16TH ST","",,"OKLAHOMA CITY",OK,73127,,7:00 AM - 7:00 PM,,8811697
"GRACE UNITED METHODIST CHRUCH","6316 N TULSA AVE","",,"OKLAHOMA CITY",OK,73112,,7:00 AM - 7:00 PM,,8813927
"INDIA TEMPLE","3601 NW 36TH ST","",,"OKLAHOMA CITY",OK,73112,,7:00 AM - 7:00 PM,,8811704
"MAYFAIR BAPTIST CHURCH","2715 NW 50TH","",,"OKLAHOMA CITY",OK,73112,,7:00 AM - 7:00 PM,,8811710
"CROWN HTS. CH OF THE NAZARENE","920 NW 46","",,"OKLAHOMA CITY",OK,73118,,7:00 AM - 7:00 PM,,8811711
"IMMANUEL LUTHERAN CHURCH","1800 NW 36TH","",,"OKLAHOMA CITY",OK,73118,,7:00 AM - 7:00 PM,,8811775
"SHIELDS BLVD BAPTIST CHURCH","3700 S SHIELDS BLVD","",,"OKLAHOMA CITY",OK,73143,,7:00 AM - 7:00 PM,,8811835
"PLUMBERS & PIPEFITTERS TR CTR","5315 S SHARTEL AVE","",,"OKLAHOMA CITY",OK,73109,,7:00 AM - 7:00 PM,,8811721
"KNOB HILL BAPTIST CHURCH","2700 SW 59TH ST","",,"OKLAHOMA CITY",OK,73119,,7:00 AM - 7:00 PM,,8811724
"TRINITY LUTHERAN CHURCH","5701 S MAY AVE","",,"OKLAHOMA CITY",OK,73119,,7:00 AM - 7:00 PM,,8811733
"FRANCIS TUTTLE TECHNOLOTY CTR","12777 N ROCKWELL AVE","",,"OKLAHOMA CITY",OK,73142,,7:00 AM - 7:00 PM,,8811737
"OKMULGEE COMMUNITY CENTER","1201 W. 7TH ST","",,"OKMULGEE",OK,74447,,7:00 AM - 7:00 PM,,8810116
"AVANT COMMUNITY CENTER","306 SOUTH HAVENS","",,"AVANT",OK,74001,,7:00 AM - 7:00 PM,,8813643
"CHURCH OF CHRIST ANNEX","1900 ROGERS BLVD SKIATOOK","",,"SKIATOOK",OK,74070,,7:00 AM - 7:00 PM,,8810143
"BLACK DOG FIRE STATION","5495 N 52 W AVE","",,"TULSA",OK,74126,,7:00 AM - 7:00 PM,,8810146
"FIRST OSAGE BAPTIST CHURCH","236 SOUTH MAIN","",,"FAIRFAX",OK,74637,,7:00 AM - 7:00 PM,,8810600
"MIAMI SENIORS CENTER","2104 DENVER HARNAR DRIVE","",,"MIAMI",OK,74354,,7:00 AM - 7:00 PM,,8810155
"JENNINGS CITY HALL","305 N MAIN STREET","",,"JENNINGS",OK,74038,,7:00 AM - 7:00 PM,,8810172
"CHRISTIAN MISSIONARY ALLIANCE ","1402 E. 6TH","",,"STILLWATER",OK,74074,,7:00 AM - 7:00 PM,,8810179
"COUNTRYSIDE BAPTIST CHURCH","2124 S. WESTERN RD.","",,"STILLWATER",OK,74074,,7:00 AM - 7:00 PM,,8811762
"OSU FOUNDATION","400 S MONROE ST","",,"STILLWATER",OK,74074,,7:00 AM - 7:00 PM,,8810603
"HIGHLAND PARK METHODIST CHURCH","524 N. STALLARD STREET","",,"STILLWATER",OK,74075,,7:00 AM - 7:00 PM,,8810186
"ELM GROVE SCHOOL","8808 S. SANGRE RD.","",,"PERKINS",OK,74059,,7:00 AM - 7:00 PM,,8810198
"NORTH TOWN CHURCH OF CHRIST","2400 N MAIN","",,"MC ALESTER",OK,74501,,7:00 AM - 7:00 PM,,8824397
"CANADIAN UNITED METHODIST CHUR","208 CREADLE DR","",,"CANADIAN",OK,74425,,7:00 AM - 7:00 PM,,8810740
"FRINK SCHOOL","FRINK COMMUNITY CENTER","454 FRINK RD",,"MC ALESTER",OK,74501,,7:00 AM - 7:00 PM,,8810744
"HAILEYVILLE CIVIC CENTER","200 N CRAIG AVENUE","",,"HAILEYVILLE",OK,74546,,7:00 AM - 7:00 PM,,8810745
"KIOWA SCHOOL MULTI PURPOSE BLD","1096 SOUTH 8TH ST.","",,"KIOWA",OK,74553,,7:00 AM - 7:00 PM,,8810751
"ASSEMBLY OF GOD CHURCH WEST","1800 HARDYS SPRINGS RD","",,"MC ALESTER",OK,74501,,7:00 AM - 7:00 PM,,8810280
"THE CHURCH ON FLOWERY MOUNDS","2180 FLOWERY MOUND RD","",,"MC ALESTER",OK,74501,,7:00 AM - 7:00 PM,,8810757
"SAVANNA CITY HALL EAST","H STREET AND 69 HWY","",,"SAVANNA",OK,74565,,7:00 AM - 7:00 PM,,8810758
"TANNEHILL FIRE DEPARTMENT","TANNEHILL FIRE DEPARTMENT","",,"TANNEHILL",OK,74501,,7:00 AM - 7:00 PM,,8810759
"FRANCIS TOWN HALL #56","120 W MAIN STREET","",,"FRANCIS",OK,74844,,7:00 AM - 7:00 PM,,8810612
"YMCA","SARATOGA & HORNET","",,"SHAWNEE",OK,74804,,7:00 AM - 7:00 PM,,8810778
"NORTHRIDGE CHURCH OF CHRIST","1001 E MACARTHUR","",,"SHAWNEE",OK,74804,,7:00 AM - 7:00 PM,,8810781
"SOUTH ROCK CREEK SCHOOL","NS 345 & HARDESTY, 1/8 N WEST","SIDE",,"SHAWNEE",OK,74801,,7:00 AM - 7:00 PM,,8810784
"ASHER COMMUNITY CENTER","ASHER COMMUNITY CENTER","",,"ASHER",OK,74826,,7:00 AM - 7:00 PM,,8810795
"MOYERS BAPTIST CHURCH","0000","",,"MOYERS",OK,74557,,7:00 AM - 7:00 PM,,8810801
"FIRST PRESBYTERIAN CHURCH","102 E 4TH STREET","",,"CLAREMORE",OK,74017,,7:00 AM - 7:00 PM,,8810620
"EASTERN HILLS BAPTIST CHURCH","16912 E 480 RD","",,"CLAREMORE",OK,74019,,7:00 AM - 7:00 PM,,8810825
"TIAWAH COMMUNITY BAPTIST CHUR","24405 S 4180 RD","",,"CLAREMORE",OK,74019,,7:00 AM - 7:00 PM,,8810829
"VERDIGRIS FIRE PROTECTION ","25707 S. HIGHWAY 66","",,"CLAREMORE",OK,74019,,7:00 AM - 7:00 PM,,8813253
"SENIOR CITIZEN'S CENTER","322 4 ST","",,"SEMINOLE",OK,74868,,7:00 AM - 7:00 PM,,8810849
"MARBLE CITY TOWN HALL PP","122 N. MAIN","",,"MARBLE CITY",OK,74945,,7:00 AM - 7:00 PM,,8810866
"AGENT MALLORY-MARTIN RECEPTION"," 123 S. WHEELER","",,"SALLISAW",OK,74955,,7:00 AM - 7:00 PM,,8810872
"BRENT COMMUNITY CENTER","461914 HWY 141","",,"GANS",OK,74936,,7:00 AM - 7:00 PM,,8810873
"EASTSIDE CHURCH OF CHRIST","202 N A ST","",,"DUNCAN",OK,73533,,7:00 AM - 7:00 PM,,8810629
"GATLIN BAPTIST CHURCH","801 W GATLIN RD","",,"MARLOW",OK,73055,,7:00 AM - 7:00 PM,,8810889
"BRAY COMMUNITY CENTER","1013 S BROOKS RD","",,"MARLOW",OK,73055,,7:00 AM - 7:00 PM,,8810891
"CORUM ASSEMBLY OF GOD CHURCH","273950 STATE HIGHWAY 53","",,"COMANCHE",OK,73529,,7:00 AM - 7:00 PM,,8810897
"YARBROUGH SCHOOL","934 7 RD","",,"GOODWELL",OK,73939,,7:00 AM - 7:00 PM,,8823335
"GOODWELL COMMUNITY CENTER","122 S MAIN STREET","",,"GOODWELL",OK,73939,,7:00 AM - 7:00 PM,,8810908
"11HAMMSVILLE   LODGE","18150 CR NS 234","",,"FREDERICK",OK,73542,,7:00 AM - 7:00 PM,,8810913
"CITY HALL - DAVIDSON","310 WEST GRAND","P.O. BOX 308",,"DAVIDSON",OK,73530,,7:00 AM - 7:00 PM,,8810914
"CHURCH OF CHRIST","2247 N PEORIA AVE","",,"TULSA",OK,74106,,7:00 AM - 7:00 PM,,8810925
"UNIVERSITY UNITED METHO CHURCH","2915 E 5 ST","",,"TULSA",OK,74104,,7:00 AM - 7:00 PM,,8810943
"BRADEN PARK BAPTIST CHURCH","4739 E 5 ST","",,"TULSA",OK,74112,,7:00 AM - 7:00 PM,,8810944
"FIRST LUTHERAN CHURCH","1244 S UTICA AVE","",,"TULSA",OK,74104,,7:00 AM - 7:00 PM,,8810945
"EASTWOOD BAPTIST CHURCH","949 S 91 E AVE","",,"TULSA",OK,74112,,7:00 AM - 7:00 PM,,8810637
"GERMAN AMERICAN SOCIETY-TULSA","2301 E 15 ST","",,"TULSA",OK,74104,,7:00 AM - 7:00 PM,,8810954
"EAST SIDE CHRISTIAN CHURCH","1438 S INDIANAPOLIS AVE.","",,"TULSA",OK,74112,,7:00 AM - 7:00 PM,,8810639
"HARVARD AVENUE BAPTIST CHURCH","3235 E 17 ST","",,"TULSA",OK,74104,,7:00 AM - 7:00 PM,,8810955
"MEMORIAL DR UNITED METHO CHUR","7903 E 15 ST","",,"TULSA",OK,74112,,7:00 AM - 7:00 PM,,8810960
"TULSA GARDEN CENTER","2435 S PEORIA AVE","",,"TULSA",OK,74114,,7:00 AM - 7:00 PM,,8810968
"METHODIST MANOR","4134 E 31 ST","",,"TULSA",OK,74135,,7:00 AM - 7:00 PM,,8810980
"PATRICK HENRY ELEMENTARY SCH","3820 E 41 ST","",,"TULSA",OK,74135,,7:00 AM - 7:00 PM,,8810982
"SKELLY ELEMENTARY SCHOOL","2940 S 90 E AVE","",,"TULSA",OK,74129,,7:00 AM - 7:00 PM,,8810990
"JOHN CALVIN PRESBYTERIAN CH","8181 E 31 ST","",,"TULSA",OK,74145,,7:00 AM - 7:00 PM,,8831231
"SPIRITLIFE CHURCH","5345 S PEORIA AVE","",,"TULSA",OK,74105,,7:00 AM - 7:00 PM,,8810641
"CHRIST REDEEMER LUTHERAN CHURC","2550 E 71 ST","",,"TULSA",OK,74136,,7:00 AM - 7:00 PM,,8811009
"CENTRAL CHURCH OF THE NAZARENE","7291 E 81 ST","",,"TULSA",OK,74133,,7:00 AM - 7:00 PM,,8811013
"FELLOWSHIP LUTHERAN CHURCH","6727 S SHERIDAN RD","",,"TULSA",OK,74133,,7:00 AM - 7:00 PM,,8810677
"WORLD OUTREACH CHURCH","8863 E 91 ST ","",,"TULSA",OK,74137,,7:00 AM - 7:00 PM,,8825903
"ASBURY UNITED METHODIST CHURCH","6767 S MINGO RD","",,"TULSA",OK,74133,,7:00 AM - 7:00 PM,,8811025
"COMFORT INN","2316 W CAMERON ST","",,"TULSA",OK,74127,,7:00 AM - 7:00 PM,,8830930
"CHRIST CHURCH EPISCOPAL","10901 S YALE AVE","",,"TULSA",OK,74137,,7:00 AM - 7:00 PM,,8811042
"COUNTRY CLUB OF WOODLAND HILLS","6333 S 91 E AVE","",,"TULSA",OK,74133,,7:00 AM - 7:00 PM,,8811055
"GRACE BAPTIST CHURCH","17300 S MINGO RD","",,"BIXBY",OK,74008,,7:00 AM - 7:00 PM,,8811061
"BIXBY NORTH ELEMENTARY SCHOOL","7101 E 121 ST","",,"BIXBY",OK,74008,,7:00 AM - 7:00 PM,,8810647
"TULSA TECH CTR (BROKEN ARROW)","4000 W FLORENCE ST","",,"BROKEN ARROW",OK,74012,,7:00 AM - 7:00 PM,,8811068
"INDIAN SPRINGS BAPTIST CHURCH","7815 S ELM PL","",,"BROKEN ARROW",OK,74011,,7:00 AM - 7:00 PM,,8811069
"CENTRAL PARK COMMUNITY CENTER","1500 S MAIN ST","",,"BROKEN ARROW",OK,74012,,7:00 AM - 7:00 PM,,8823851
"NEW CREATION CHURCH","1200 S OLIVE AVE","",,"BROKEN ARROW",OK,74012,,7:00 AM - 7:00 PM,,8811081
"COLLINSVILLE CHRISTIAN CHURCH","1825 W UNION ST","",,"COLLINSVILLE",OK,74021,,7:00 AM - 7:00 PM,,8811729
"NEW LIFE ASSEMBLY OF GOD","12215 N GARNETT RD","",,"COLLINSVILLE",OK,74021,,7:00 AM - 7:00 PM,,8811104
"CROSSPOINT","4600 S 129 W AVE","",,"SAND SPRINGS",OK,74063,,7:00 AM - 7:00 PM,,8810651
"GLEN EAGLES CLUBHOUSE","20239 E 41 ST S","",,"BROKEN ARROW",OK,74014,,7:00 AM - 7:00 PM,,8810088
"OAK GROVE CHURCH","6102 S 273 E AVE","",,"BROKEN ARROW",OK,74014,,7:00 AM - 7:00 PM,,8810083
"REDEEMER LUTHERAN CHURCH","3700 SE WOODLAND RD","",,"BARTLESVILLE",OK,74006,,7:00 AM - 7:00 PM,,8811118
"ARVEST BANK, EASTSIDE BRANCH","4225 SE ADAMS RD","",,"BARTLESVILLE",OK,74006,,7:00 AM - 7:00 PM,,8811119
"SPRUCE AVENUE BAPTIST CHURCH","300 NE SPRUCE AVE","",,"BARTLESVILLE",OK,74006,,7:00 AM - 7:00 PM,,8811121
"TRINITY BAPTIST CHURCH","1500 SW OAK AVE, BARTLESVILLE","",,"BARTLESVILLE",OK,74003,,7:00 AM - 7:00 PM,,8811123
"REVIVAL TIME OUTREACH CENTER","101 SW VIRGINIA AVE","",,"BARTLESVILLE",OK,74003,,7:00 AM - 7:00 PM,,8811126
"EAST B'VILLE CHRISTIAN CHURCH","3221 E TUXEDO BLVD","ANNEX",,"BARTLESVILLE",OK,74003,,7:00 AM - 7:00 PM,,8811128
"CORDELL FIRST BAPTIST CHURCH","102 E 2 ST","",,"CORDELL",OK,73632,,7:00 AM - 7:00 PM,,8811147
"WOODWARD HIGH SCHOOL","2406 13TH STREET","",,"WOODWARD",OK,73801,,7:00 AM - 7:00 PM,,8810658
"HIGH PLAINS TECH CENTER","3921 34TH STREET","",,"WOODWARD",OK,73801,,7:00 AM - 7:00 PM,,8811160
"CHRISTIAN CHURCH 2ND ST","CHRISTIAN CHURCH","2ND STREET",,"STILWELL",OK,74960,,7:00 AM - 7:00 PM,,8811624
"WESTVILLE UTILITY BUILDING","WESTVILLE UTILITY BUILDING","221 S WILLIAMS",,"WESTVILLE",OK,74965,,7:00 AM - 7:00 PM,,8811627
"BILL COBEN COMMUNITY CENTER","890 E. HWY 3","",,"LANE",OK,74555,,7:00 AM - 7:00 PM,,8811596
"STRINGTOWN FIRE DEPARTMENT","105 PECAN AVE","",,"STRINGTOWN",OK,74569,,7:00 AM - 7:00 PM,,8811597
"FORGAN GOLDEN AGERS","114 MAIN ST.","",,"FORGAN",OK,73938,,7:00 AM - 7:00 PM,,8811165
"THE OPERA HOUSE","NATIONAL ROUTE 66 MUSEUM","2727 W HIGHWAY 66",,"ELK CITY",OK,73644,,7:00 AM - 7:00 PM,,8811757
"FIRST PRESBYTERIAN CHURCH","217 N WASHINGTON AVE","",,"ELK CITY",OK,73644,,7:00 AM - 7:00 PM,,8825907
"OKEENE COMMUNITY BUILDING","116 WEST E STREET","",,"OKEENE",OK,73763,,7:00 AM - 7:00 PM,,8811169
"FIRST CHURCH OF THE NAZARENE","FIRST CHURCH OF THE NAZARENE","HIGHWAY 33 EAST",,"WATONGA",OK,73772,,7:00 AM - 7:00 PM,,8811611
"WATONGA CITY LIBRARY","301 N PROUTY AVE","",,"WATONGA",OK,73772,,7:00 AM - 7:00 PM,,8811631
"DURANT FIRST BAPTIST CHURCH","124 WEST EVERGREEN STREET","BEECH STREET ENTRANCE",,"DURANT",OK,74701,,7:00 AM - 7:00 PM,,8829832
"BLUE BAPTIST CHURCH","70 BERRY STREET","BLUE",,"DURANT",OK,74701,,7:00 AM - 7:00 PM,,8811247
"CALERA METHODIST FELLOWSHIP BG","110 WEST TONNER ST","",,"CALERA",OK,74730,,7:00 AM - 7:00 PM,,8813361
"KEMP COMMUNITY BUILDING","500 MAIN STREET","",,"KEMP",OK,74747,,7:00 AM - 7:00 PM,,8811255
"MULTI-PURPOSE BUILDING","CADDO COUNTY FAIRGROUNDS","1019 E BROADWAY STREET",,"ANADARKO",OK,73005,,7:00 AM - 7:00 PM,,8811262
"BETHEL BAPTIST CHURCH","501 W. FLORIDA","",,"ANADARKO",OK,73005,,7:00 AM - 7:00 PM,,8811264
"BINGER COMMUNITY CENTER","208 WEST MAIN","",,"BINGER",OK,73009,,7:00 AM - 7:00 PM,,8811274
"EAKLY TOWN HALL","311 WEST MAIN STREET","",,"EAKLY",OK,73033,,7:00 AM - 7:00 PM,,8811275
"MT ZION UNITED METHODIST CHURC","3201 150THST NE","2 MI EAST OF HWY 81 ON 15OTH",,"EL RENO",OK,73036,,7:00 AM - 7:00 PM,,8811278
"INT'L PENTECOSTAL ASSEMBLY CH","12221 PARK AVENUE","",,"YUKON",OK,73099,,7:00 AM - 7:00 PM,,8821230
"HOLY SPIRIT CATHOLIC CHURCH","1100 N SARA ROAD","",,"MUSTANG",OK,73064,,7:00 AM - 7:00 PM,,8811295
"CHURCH OF CHRIST WEST METRO","4900 S CEMETERY ROAD","",,"YUKON",OK,73036,,7:00 AM - 7:00 PM,,8813259
"SOUTHWEST BAPTIST CHURCH","2120 MYALL ROAD","",,"ARDMORE",OK,73401,,7:00 AM - 7:00 PM,,8811429
"FOX BAPTIST CHURCH","115 CHICKASAW AVE.","",,"FOX",OK,73435,,7:00 AM - 7:00 PM,,8811440
"MARY NIBLACK BAPTIST CHURCH","898 MARY NIBLACK RD","",,"ARDMORE",OK,73401,,7:00 AM - 7:00 PM,,8811184
"DICKSON CITY HALL","35 EASTGATE LOOP","",,"DICKSON",OK,73401,,7:00 AM - 7:00 PM,,8811442
"FIRST UNITED METHODIST CHURCH","301 W DELAWARE ST","",,"TAHLEQUAH",OK,74464,,7:00 AM - 7:00 PM,,8811449
"KEYS COMMUNITY BLDG.","19083 E. 840 RD","",,"PARK HILL",OK,74451,,7:00 AM - 7:00 PM,,8811186
"SOPER SENIOR CITIZENS","HWY 70 W - 1BLK N ON MAIN ST.","",,"SOPER",OK,74759,,7:00 AM - 7:00 PM,,8811189
"GOODLAND ACADEMY-BACON HALL","HWY 271 A W OFF 271 S","ON GOODLAND ROAD",,"HUGO",OK,74743,,7:00 AM - 7:00 PM,,8811190
"CHOCTAW COUNTY COURTHOUSE","300 E. DUKE STREET","",,"HUGO",OK,74743,,7:00 AM - 7:00 PM,,8811470
"KIAMICHI TECHNOLOGY CENTER","105 S 15TH ST - HWY 70 E","",,"HUGO",OK,74743,,7:00 AM - 7:00 PM,,8811471
"SPENCERVILLE COMMUNITY CENTER","ACROSS STREET FROM","SPENCERVILLE POST OFFICE",,"SPENCERVILLE",OK,74760,,7:00 AM - 7:00 PM,,8811473
"EMMAUS BAPTIST CHURCH","16001 S. WESTERN AVENUE","",,"OKLAHOMA CITY",OK,73170,,7:00 AM - 7:00 PM,,8811490
"NEW LIFE UNITED METHODIST CHUR","1105 NW 27","",,"MOORE",OK,73160,,7:00 AM - 7:00 PM,,8811491
"ALAMEDA CHURCH OF CHRIST","801 ALAMEDA ST.","",,"NORMAN",OK,73071,,7:00 AM - 7:00 PM,,8811496
"BERRY ROAD BAPTIST CHURCH","500 N BERRY ROAD","",,"NORMAN",OK,73069,,7:00 AM - 7:00 PM,,8811498
"ST. ANDREWS CATHOLIC CHURCH","800 NW 5 ST","",,"MOORE",OK,73160,,7:00 AM - 7:00 PM,,8811515
"SOUTHGATE BAPTIST CHURCH","740 SW 4TH ST","",,"MOORE",OK,73160,,7:00 AM - 7:00 PM,,8811516
"HOLY CROSS LUTHERAN CHURCH","1441 SW 104","",,"OKLAHOMA CITY",OK,73159,,7:00 AM - 7:00 PM,,8813583
"SAVANNAH RIDGE APT. CLUBHOUSE","4701 W. HERITAGE PLACE","",,"NORMAN",OK,73072,,7:00 AM - 7:00 PM,,8811519
"REGENCY PARK BAPTIST CHURCH","2001 N. JANEWAY","",,"MOORE",OK,73160,,7:00 AM - 7:00 PM,,8811520
"COBBLESTONE CREEK CLUB HOUSE","1350 COBBLESTONE CRK DR","",,"NORMAN",OK,73072,,7:00 AM - 7:00 PM,,8811531
"ALAMEDA BAPTIST CHURCH","1503 E ALAMEDA ST.","",,"NORMAN",OK,73071,,7:00 AM - 7:00 PM,,8811540
"CENTRAHOMA COMMUNITY BUILDING","201 BROADWAY STREET","",,"CENTRAHOMA",OK,74534,,7:00 AM - 7:00 PM,,8811548
"CLARITA COMMUNITY BUILDING","RT 5 BOX 570","",,"COALGATE",OK,74538,,7:00 AM - 7:00 PM,,8811553
"CALVARY ASSEMBLY OF GOD","2402 NW BELL","",,"LAWTON",OK,73505,,7:00 AM - 7:00 PM,,8824334
"CHURCH OF CHRIST AT PARK LANE","4906 SE AVALON LANE","",,"LAWTON",OK,73501,,7:00 AM - 7:00 PM,,8824332
"ELGIN HIGH SCHOOL GYM","521 J ST","",,"ELGIN",OK,73538,,7:00 AM - 7:00 PM,,8828996
"FIRST BAPTIST CHURCH - CACHE","4TH & E ST","",,"CACHE",OK,73527,,7:00 AM - 7:00 PM,,8811580
"CHATTANOOGA CIVIC CENTER","305 3 ST","",,"CHATTANOOGA",OK,73528,,7:00 AM - 7:00 PM,,8811582
"BEAMS OF LIGHT CHURCH","1831 S. WATER","",,"SAPULPA",OK,74066,,7:00 AM - 7:00 PM,,8813827
"OAKRIDGE BAPTIST CHURCH","6103 S 44 WEST AVE","",,"TULSA",OK,74132,,7:00 AM - 7:00 PM,,8811344
"CUSTER CITY TOWN HALL","644 MAIN","",,"CUSTER CITY",OK,73639,,7:00 AM - 7:00 PM,,8811349
"LIFE FELLOWSHIP CHURCH","1709 N. LYLE RD.","",,"WEATHERFORD",OK,73096,,7:00 AM - 7:00 PM,,8811352
"GRACE POINT METHODIST CHURCH","451154 E 295 RD","",,"CLEORA",OK,74331,,7:00 AM - 7:00 PM,,8824567
"COWSKIN FIRE DEPARTMENT #1","25801 S 655 RD","",,"GROVE",OK,74344,,7:00 AM - 7:00 PM,,8811361
"ZENA COMMUNITY CENTER","36000 S 575 RD","",,"JAY",OK,74346,,7:00 AM - 7:00 PM,,8811366
"EUCHA COMMUNITY CENTER","7052 E 432 RD","",,"EUCHA",OK,74342,,7:00 AM - 7:00 PM,,8811370
"WEST SILOAM SPRINGS FIRE DEPT","292 N4700 RD","292 NEW LIFE RANCH DR",,"WEST SILOAM SPRING",OK,74338,,7:00 AM - 7:00 PM,,8811376
"CAMARGO COMMUNITY CENTER","106 N. 4TH ST.","",,"CAMARGO",OK,73835,,7:00 AM - 7:00 PM,,8811380
"ENID FREE METHODIST CHURCH","1114 HITE BLVD","",,"ENID",OK,73703,,7:00 AM - 7:00 PM,,8811393
"BILL MITCHELL COMPLEX","308 SW 2ND","",,"LINDSAY",OK,73052,,7:00 AM - 7:00 PM,,8810208
"DONIHOO-COLLEY COMPLEX","300 MELVILLE DRIVE","",,"PAULS VALLEY",OK,73075,,7:00 AM - 7:00 PM,,8810219
"TRUCKS UNLIMITED","35641 HWY 29","",,"WYNNEWOOD",OK,73098,,7:00 AM - 7:00 PM,,8810220
"FIRST CHURCH OF THE NAZARENE","1300 S 29","",,"CHICKASHA",OK,73018,,7:00 AM - 7:00 PM,,8810227
"BANK S.N.B","500 W GRAND AVE","",,"CHICKASHA",OK,73018,,7:00 AM - 7:00 PM,,8810232
"SHARON BAPTIST CHURCH","2414 HWY 92","ACROSS FROM FRIEND SCHOOL",,"CHICKASHA",OK,73018,,7:00 AM - 7:00 PM,,8811227
"SONRISE BAPTIST CHURCH","1836 HWY 81","",,"CHICKASHA",OK,73018,,7:00 AM - 7:00 PM,,8810237
"TABLER GOSPEL TABERNACLE CHURC","9 MI E ON HWY 39, S SIDE OF HY","",,"CHICKASHA",OK,73018,,7:00 AM - 7:00 PM,,8810239
"NORGE TOWN HALL","2165 N 5","",,"NORGE",OK,73108,,7:00 AM - 7:00 PM,,8811229
"LAMONT TOWN HALL","123 N. MAIN","",,"LAMONT",OK,74643,,7:00 AM - 7:00 PM,,8811232
"CHURCH OF CHRIST","401 E LINCOLN","",,"MANGUM",OK,73554,,7:00 AM - 7:00 PM,,8810258
"REED COMMUNITY BUILDING","NORTH OF HWY 9 ON REED","",,"MANGUM",OK,73554,,7:00 AM - 7:00 PM,,8810265
"CATHOLIC CHURCH","504 E CHESTNUT","",,"HOLLIS",OK,73550,,7:00 AM - 7:00 PM,,8810182
"HARMON COUNTY COURTHOUSE","114 WEST HOLLIS","",,"HOLLIS",OK,73550,,7:00 AM - 7:00 PM,,8810267
"HARPER CO. DIST. #3 FIRE DEPT.","HARPER CO. DIST. #3 FIRE DEPT.","",,"SELMAN",OK,73834,,7:00 AM - 7:00 PM,,8810277
"ELDORADO COMMUNITY CENTER","515 W. MAIN","",,"ELDORADO",OK,73537,,7:00 AM - 7:00 PM,,8810312
"MARTHA TOWN HALL","105 E. CHURCH STREET","",,"MARTHA",OK,73556,,7:00 AM - 7:00 PM,,8810315
"WAURIKA SENIOR CITIZEN CENTER","108 SOUTH MAIN","",,"WAURIKA",OK,73573,,7:00 AM - 7:00 PM,,8810320
"CHICKASAW NATION GYMNASIUM","907 DORMITORY RD","",,"TISHOMINGO",OK,73460,,7:00 AM - 7:00 PM,,8810327
"CONNERVILLE COMMUNITY CENTER","7116 US HWY 377N","",,"CONNERVILLE",OK,74836,,7:00 AM - 7:00 PM,,8810332
"COLEMAN COMMUNITY CENTER","506 W. MAIN ST","",,"COLEMAN",OK,73432,,7:00 AM - 7:00 PM,,8810335
"METHODIST CHURCH FAMILY CENTER","103 N 4TH ","",,"TONKAWA",OK,74653,,7:00 AM - 7:00 PM,,8810340
"WOODLAND CHRISTIAN CHURCH","1400 E HARTFORD AVE","",,"PONCA CITY",OK,74604,,7:00 AM - 7:00 PM,,8811643
"1ST ASSEMBLY OF GOD","2313 E. PROSPECT","",,"PONCA CITY",OK,74604,,7:00 AM - 7:00 PM,,8810361
"KINGFISHER MEMORIAL LIBRARY","505 W. WILL ROGERS DR.","",,"KINGFISHER",OK,73750,,7:00 AM - 7:00 PM,,8811244
"ERVIN/JANET YOUNG RESIDENCE","18656 E 770 RD","",,"DOVER",OK,73734,,7:00 AM - 7:00 PM,,8810365
"CENTRAL BAPTIST CHURCH","12025 N 2950 RD","",,"DOVER",OK,73734,,7:00 AM - 7:00 PM,,8810367
"HOBART SCHOOL ADM. BLDG.","321 N JEFFERSON","",,"HOBART",OK,73651,,7:00 AM - 7:00 PM,,8810373
"LONE WOLF SENIOR CITIZEN","1101 MAIN ST.","",,"LONE WOLF",OK,73655,,7:00 AM - 7:00 PM,,8810193
"OKLAHOMA VETERANS CENTER","10014 SE 1138 AVE","",,"TALIHINA",OK,74571,,7:00 AM - 7:00 PM,,8810388
"COURTHOUSE ANNEX","103 N. CHURCH ST-POTEAU","",,"POTEAU",OK,74953,,7:00 AM - 7:00 PM,,8810668
"PRAIRIE GROVE BAPTIST CHURCH","STATE HWY 63","",,"WHITESBORO",OK,74977,,7:00 AM - 7:00 PM,,8810414
"HODGEN FIRST BAPTIST CHURCH","20499 CHURCH RD- HODGEN","",,"HODGEN",OK,74939,,7:00 AM - 7:00 PM,,8810420
"DAVENPORT TOWN HALL","214 BROADWAY","",,"DAVENPORT",OK,74026,,7:00 AM - 7:00 PM,,8810423
"OAK CLIFF FIRE STATION #2","12037 S. SANTA FE","",,"EDMOND",OK,73025,,7:00 AM - 7:00 PM,,8810438
"MARSHALL TOWN HALL","204 EAST MAIN","",,"MARSHALL",OK,73056,,7:00 AM - 7:00 PM,,8810447
"WESLEY FOUNDATION AT LANGSTON","777 SAMMY DAVIS JR.","",,"LANGSTON",OK,73050,,7:00 AM - 7:00 PM,,8810202
"MARIETTA FIRST BAPTIST CHURCH","402 W. MAIN","",,"MARIETTA",OK,73448,,7:00 AM - 7:00 PM,,8810459
"ENVILLE COMMUNITY CHURCH","HWY 32 EAST","",,"MARIETTA",OK,73448,,7:00 AM - 7:00 PM,,8810466
"EASTMAN BAPTIST CHURCH","4.5 MI. NORTH OF HWY 32","EASTMAN ROAD",,"MARIETTA",OK,73448,,7:00 AM - 7:00 PM,,8810467
"MCCLAIN CO. COMMUNITY CENTER","1721 HARDCASTLE BLVD","",,"PURCELL",OK,73080,,7:00 AM - 7:00 PM,,8810471
"HORIZON POINTE CHURCH","2945 SE 44TH ST","",,"NORMAN",OK,73072,,7:00 AM - 7:00 PM,,8823209
"NEWCASTLE FIRST BAPTIST CHURCH","1650 N MAIN ST","",,"NEWCASTLE",OK,73065,,7:00 AM - 7:00 PM,,8810571
"TRI CITY COWBOY CHURCH","3209 NW 32 ST"," ",,"NEWCASTLE",OK,73065,,7:00 AM - 7:00 PM,,8810477
"WOODLAND HILLS BAPTIST CH","313 STATE HWY 76","",,"NEWCASTLE",OK,73065,,7:00 AM - 7:00 PM,,8810478
"MEMORIAL ASSEMBLY OF GOD CH","701 W MONROE ST","",,"PURCELL",OK,73080,,7:00 AM - 7:00 PM,,8810484
"GOODWATER COMMUNITY CENTER","GOODWATER COMMUNITY","",,"HAWORTH",OK,74740,,7:00 AM - 7:00 PM,,8810492
"CHURCH OF CHRIST -BBOW","508 N. COSTILOW","",,"BROKEN BOW",OK,74728,,7:00 AM - 7:00 PM,,8810715
"SMITHVILLE SCHOOL BUILDING","SMITHVILLE COMMUNITY","",,"SMITHVILLE",OK,74957,,7:00 AM - 7:00 PM,,8810497
"BATTIEST SCHOOL BUILDING","BATTIEST COMMUNITY","",,"BATTIEST",OK,74722,,7:00 AM - 7:00 PM,,8810499
"MCCURTAIN CO. RURAL WATER DEPT","101 E. WILLIAMS","",,"GARVIN",OK,74736,,7:00 AM - 7:00 PM,,8810502
"CHECOTAH SENIOR CITIZEN CENTER","611 N BROADWAY, CHECOTAH","",,"CHECOTAH",OK,74426,,7:00 AM - 7:00 PM,,8810510
"LEBANON COMMUNITY CENTER","10905 RED RIVER AVENUE","",,"LEBANON",OK,73440,,7:00 AM - 7:00 PM,,8810533
"STRANG COMMUNITY CENTER","BROADWAY ST","",,"STRANG",OK,74367,,7:00 AM - 7:00 PM,,8810541
"UNITED METHODIST CHURCH","104 S HAYDEN ST","",,"CHOUTEAU",OK,74337,,7:00 AM - 7:00 PM,,8810544
"PRYOR FREEWILL BAPTIST CHURCH","107 S. ORA ST","",,"PRYOR",OK,74361,,7:00 AM - 7:00 PM,,8810578
"HERITAGE SOUTHERN BAP CHURCH","1201 S ELLIOTT ST","",,"PRYOR",OK,74361,,7:00 AM - 7:00 PM,,8810000
"SHEPHERD OF THE HILLS","1.5 MI W HWY 7","",,"SULPHUR",OK,73086,,7:00 AM - 7:00 PM,,8810002
"DAVIS PUBLIC LIBRARY","209 E BENTON","",,"DAVIS",OK,73030,,7:00 AM - 7:00 PM,,8810003
"JOY BAPTIST CHURCH","JOY BAPTIST CHURCH","HWY 77",,"JOY",OK,73072,,7:00 AM - 7:00 PM,,8810006
"HICKORY SENIOR CITIZENS","13 MI E/N OF SULPHUR","",,"SULPHUR",OK,73086,,7:00 AM - 7:00 PM,,8810009
"BETHANY PRESBYTERIAN CHURCH","2000 HASKELL BLVD","",,"MUSKOGEE",OK,74403,,7:00 AM - 7:00 PM,,8810012
"COUNCIL HILL COMMUNITY CENTER","HWY 72 & MAIN ST","",,"COUNCIL HILL",OK,74428,,7:00 AM - 7:00 PM,,8810034
"WARNER ASSEMBLY OF GOD CHURCH","206 3RD ST.","",,"WARNER",OK,74469,,7:00 AM - 7:00 PM,,8810037
"LENAPAH SENIOR CENTER","CITY OF LENAPAH","",,"LENAPAH",OK,74042,,7:00 AM - 7:00 PM,,8810590
"CITY OF SOUTH COFFEYVILLE","CORNER OF BROADWAY AND","SHAWNEE",,"SO. C'VILLE",OK,74072,,7:00 AM - 7:00 PM,,8810055
"10-33","321 E CHEROKEE","",,"NOWATA",OK,74048,,7:00 AM - 7:00 PM,,8821521
"BEARDEN ELEMENTARY SCHOOL","372006 HWY 48","",,"OKEMAH",OK,74859,,7:00 AM - 7:00 PM,,8810066
"PHAROAH BAPTIST CHURCH","387043 E 1100 RD","",,"WELEETKA",OK,74880,,7:00 AM - 7:00 PM,,8810067
"MARANATHA BAPTIST CHURCH","2800 N DIVIS","",,"BETHANY",OK,73008,,7:00 AM - 7:00 PM,,8811810
"ST CHARLES BORROMEO CH & SCH","5024 N GROVE AVE","",,"OKLAHOMA CITY",OK,73122,,7:00 AM - 7:00 PM,,8811639
"HARRAH CHURCH","101 S DOBBS RD","",,"HARRAH",OK,73045,,7:00 AM - 7:00 PM,,8811801
"CHOCTAW CHURCH OF THE NAZARENE","NE 10TH ST & HARPER RD","",,"CHOCTAW",OK,73020,,7:00 AM - 7:00 PM,,8811649
"DEL VIEW BAPTIST CHURCH","2500 S BRYANT","",,"DEL CITY",OK,73115,,7:00 AM - 7:00 PM,,8811174
"DEL CITY COMMUNITY CENTER","4505 SE 15TH ST","",,"DEL CITY",OK,73155,,7:00 AM - 7:00 PM,,8810256
"NORTH POINTE BAPTIST CHURCH","5300 NW 220TH","",,"EDMOND",OK,73025,,7:00 AM - 7:00 PM,,8811863
"EDMOND SCHOOL ADMINISTRATION","1001 W DANFORTH RD","",,"EDMOND",OK,73034,,7:00 AM - 7:00 PM,,8811878
"HARRAH SCHOOL ADMINISTRATION","20670 WALKER ST","",,"HARRAH",OK,73045,,7:00 AM - 7:00 PM,,8811664
"SEVENTH DAY ADVENTIST CHURCH","18501 NE 63RD ST","",,"HARRAH",OK,73045,,7:00 AM - 7:00 PM,,8811846
"JONES COMMUNITY CENTER","120 W ATLANTA ST","",,"JONES",OK,73049,,7:00 AM - 7:00 PM,,8811797
"CIVIC CLUB COMMUNITY CENTER","18120 HOGBACK RD","",,"LUTHER",OK,73054,,7:00 AM - 7:00 PM,,8811793
"MIDWEST BOULEVARD CHRISTIAN CH","320 MIDWEST BLVD","",,"MIDWEST CITY",OK,73110,,7:00 AM - 7:00 PM,,8811670
"EASTWOOD BAPTIST CHURCH","12251 E RENO AVE","",,"MIDWEST CITY",OK,73130,,7:00 AM - 7:00 PM,,8811796
"VILLAGE CHRISTIAN CHURCH","9401 N RIDGEVIEW DR","",,"OKLAHOMA CITY",OK,73120,,7:00 AM - 7:00 PM,,8811677
"JONES ASSEMBLY OF GOD CHURCH","5TH ST AND SULLIVAN ST","",,"JONES",OK,73049,,7:00 AM - 7:00 PM,,8811678
"OAKDALE BAPTIST CHURCH","10920 N SOONER RD","",,"OKLAHOMA CITY",OK,73013,,7:00 AM - 7:00 PM,,8811679
"BRITTON CHRISTIAN CHURCH","922 N.W. 91ST","",,"OKLAHOMA CITY",OK,73114,,7:00 AM - 7:00 PM,,8811687
"LORD OF LIFE LUTHERAN CHURCH","15400 N WESTERN AVE","",,"EDMOND",OK,73013,,7:00 AM - 7:00 PM,,8811691
"QUAIL SPRINGS UNITED METHODIST","14617 N. PENNSYLVANIA AVE","",,"OKLAHOMA CITY",OK,73134,,7:00 AM - 7:00 PM,,8811871
"OAK HILLS CHURCH","2720 NW 178TH ST","",,"OKLAHOMA CITY",OK,73012,,7:00 AM - 7:00 PM,,8811695
"CHURCH OF THE SERVANT","14343 N MACARTHUR BLVD","",,"OKLAHOMA CITY",OK,73142,,7:00 AM - 7:00 PM,,8811696
"CHEROKEE HILLS BAPTIST CHURCH","5700 NW 63RD","",,"OKLAHOMA CITY",OK,73132,,7:00 AM - 7:00 PM,,8811812
"PLUMBERS AND PIPEFITTERS #344","4335 SW 44TH ST","",,"OKLAHOMA CITY",OK,73119,,7:00 AM - 7:00 PM,,8811699
"FAITH TABERNACLE ASSEM OF GOD","800 S PORTLAND AVE","",,"OKLAHOMA CITY",OK,73108,,7:00 AM - 7:00 PM,,8811816
"MAYFLOWER CONGREGATIONAL CH","3901 NW 63RD ST","",,"OKLAHOMA CITY",OK,73116,,7:00 AM - 7:00 PM,,8811703
"FAITH TABERNACLE ASSEM OF GOD","800 S PORTLAND AVE","",,"OKLAHOMA CITY",OK,73108,,7:00 AM - 7:00 PM,,8811910
"FORTIETH STREET BAPTIST CH","1801 NW 40TH ST","",,"OKLAHOMA CITY",OK,73118,,7:00 AM - 7:00 PM,,8811774
"SACRED HEART CHURCH","2706 S SHARTEL AVE","",,"OKLAHOMA CITY",OK,73109,,7:00 AM - 7:00 PM,,8811718
"COMMUNITY OF FAITH CHURCH","1815 S CENTRAL AVE","",,"OKLAHOMA CITY",OK,73165,,7:00 AM - 7:00 PM,,8811742
"CROOKED OAK SCHOOL","1450 S EASTERN AVE","",,"OKLAHOMA CITY",OK,73129,,7:00 AM - 7:00 PM,,8811743
"OKMULGEE MIDDLE SCHOOL","1421 E MARTIN LUTHER KING DR","",,"OKMULGEE",OK,74447,,7:00 AM - 7:00 PM,,8810694
"BAPTIST VILLAGE CENTER","1500 W 6 ST","",,"OKMULGEE",OK,74447,,7:00 AM - 7:00 PM,,8810118
"1ST METHODIST CHURCH HENRYETTA","1212 S LAKE RD","",,"HENRYETTA",OK,74437,,7:00 AM - 7:00 PM,,8810124
"OSAGE HILLS SCHOOL","225 CR 2706 RD","",,"BARTLESVILLE",OK,74003,,7:00 AM - 7:00 PM,,8810139
"QUAPAW CITY HALL","410 SOUTH MAIN","",,"QUAPAW",OK,74363,,7:00 AM - 7:00 PM,,8810163
"TERLTON SENIOR CITIZENS CENTER","128 W MAIN ST","",,"TERLTON",OK,74081,,7:00 AM - 7:00 PM,,8810602
"LAKESIDE GOLF COURSE","5201 N. WASHINGTON","",,"STILLWATER",OK,74075,,7:00 AM - 7:00 PM,,8811763
"HILLCREST BAPTIST CHURCH","902 N. WASHINGTON","",,"STILLWATER",OK,74075,,7:00 AM - 7:00 PM,,8810704
"STILLWATER ELKS LODGE","202 E. MCELROY","",,"STILLWATER",OK,74075-3800,,7:00 AM - 7:00 PM,,8810188
"MERIDIAN TECHNOLOGY CENTER","1312 S SANGRE RD","",,"STILLWATER",OK,74074,,7:00 AM - 7:00 PM,,8810604
"OAK STREET BAPTIST CHURCH","1442 E. OAK","",,"CUSHING",OK,74023,,7:00 AM - 7:00 PM,,8811765
"VASSAR COMMUNITY CENTER","750 N. MAIN ST","",,"PERKINS",OK,74059,,7:00 AM - 7:00 PM,,8810195
"PAYNE CTY. EXPO CENTER","4518 EXPO DRIVE","",,"STILLWATER",OK,74074,,7:00 AM - 7:00 PM,,8810608
"AMERICAN LEGION","400 S 2","",,"MC ALESTER",OK,74501,,7:00 AM - 7:00 PM,,8810728
"BLOCKER BAPTIST CHURCH","BLOCKER","",,"BLOCKER",OK,74529,,7:00 AM - 7:00 PM,,8810738
"INDIANOLA SCHOOL","900 HWY 113 SOUTH","",,"INDIANOLA",OK,74442,,7:00 AM - 7:00 PM,,8810749
"THE IRVING CENTER #31","704 N OAK","",,"ADA",OK,74820,,7:00 AM - 7:00 PM,,8810764
"CENTER FREEWILL BAPT. PCT #62","12912 CR 3476","",,"ADA",OK,74820,,7:00 AM - 7:00 PM,,8810772
"CALVARY BAPTIST CHURCH","214 W FARRALL","",,"SHAWNEE",OK,74801,,7:00 AM - 7:00 PM,,8810776
"FIRST CHURCH OF THE NAZARENE","401 N. MARKET","",,"SHAWNEE",OK,74801,,7:00 AM - 7:00 PM,,8810777
"ST. GREGORY'S COLLEGE","1900 W MACARTHUR","",,"SHAWNEE",OK,74804,,7:00 AM - 7:00 PM,,8810699
"BETHEL ACRES ASSEMBLY","18509 BETHEL RD.","",,"SHAWNEE",OK,74801,,7:00 AM - 7:00 PM,,8810102
"EARLSBORO CITY HALL","TOWN OF EARLSBORO","",,"EARLSBORO",OK,74840,,7:00 AM - 7:00 PM,,8810791
"RATTAN SCHOOL HOUSE","0000","",,"RATTAN",OK,74562,,7:00 AM - 7:00 PM,,8810805
"RED STAR CHURCH","HWY 47 & RM NS199","",,"LEEDEY",OK,73654,,7:00 AM - 7:00 PM,,8810815
"FAITH BAPTIST CHURCH","901 S FAITH LANE","",,"CLAREMORE",OK,74017,,7:00 AM - 7:00 PM,,8810819
"COUNTY BUILDING","416 S BRADY","",,"CLAREMORE",OK,74017,,7:00 AM - 7:00 PM,,8810821
"FOYIL BAPTIST CHURCH","12505 SOUTH HIGHWAY 66","EAST ENTRANCE FELLOWSHIP HALL",,"FOYIL",OK,74021,,7:00 AM - 7:00 PM,,8810622
"FREEDOM CHURCH","9602 N 177TH E AVE","",,"OWASSO",OK,74055,,7:00 AM - 7:00 PM,,8810835
"TIMBER RIDGE ASSEMBLY OF GOD ","30095 S. 4120 ROAD","",,"CATOOSA",OK,74015,,7:00 AM - 7:00 PM,,8810840
"CENTRAL BAPTIST CHURCH","9001 N 145 E AVE","",,"OWASSO",OK,74055,,7:00 AM - 7:00 PM,,8810841
"MAUD HOUSING AUTHORITY","320 E OAK","",,"MAUD",OK,74854,,7:00 AM - 7:00 PM,,8810844
"BLACKGUM COMM. CENTER  PP","449458 HWY 100","",,"VIAN",OK,74962,,7:00 AM - 7:00 PM,,8810867
"FIRST CHRISTIAN CHURCH PP","706 N. WHEELER","",,"SALLISAW",OK,74955,,7:00 AM - 7:00 PM,,8810871
"SALLISAW CIVIC CENTER PP","111 N. ELM ST.","",,"SALLISAW",OK,74955,,7:00 AM - 7:00 PM,,8810626
"CENTRAL FIRE DEPT. PP","107011 S. 4670 RD","",,"SALLISAW",OK,74955,,7:00 AM - 7:00 PM,,8810627
"BRUSHY SCHOOL GYM PP","100968 S. 4650 RD","",,"SALLISAW",OK,74955,,7:00 AM - 7:00 PM,,8810875
"NICUT FIRE DEPT. #2 PP","98758 S 4750 RD","",,"MULDROW",OK,74948,,7:00 AM - 7:00 PM,,8810628
"LAKESIDE BAPTIST CHURCH","RT 2 BOX 291 B","",,"MARLOW",OK,73055,,7:00 AM - 7:00 PM,,8810630
"FOSTER STORE","300588 STATE HIGHWAY 29","",,"FOSTER",OK,73434,,7:00 AM - 7:00 PM,,8810892
"FIRST BAPTIST CHURCH OF LOCO","P O BOX 59","",,"LOCO",OK,73442,,7:00 AM - 7:00 PM,,8810631
"FIRST BAPTIST CHURCH MERIDIAN","RT 2 BOX 512","",,"COMANCHE",OK,73529,,7:00 AM - 7:00 PM,,8810896
"FIRST BAPTIST CHURCH","609 W PANHANDLE","",,"HOOKER",OK,73945,,7:00 AM - 7:00 PM,,8831330
"CHURCH OF JESUS CHRIST OF LAT","5402 MEMORY LANE","",,"GUYMON",OK,73942,,7:00 AM - 7:00 PM,,8810900
"CHURCH OF CHRIST","1300 NORTH 13 STREET","",,"FREDERICK",OK,73542,,7:00 AM - 7:00 PM,,8810910
"CITY HALL - GRANDFIELD","223 S. MAIN ST.","P.O. BOX 360",,"GRANDFIELD",OK,73546,,7:00 AM - 7:00 PM,,8810708
"TRAICE ACADEMY","2740 E 41 ST N","",,"TULSA",OK,74110,,7:00 AM - 7:00 PM,,8810918
"TULSA COMMUNITY COLLEGE-NE","3727 E APACHE ST","",,"TULSA",OK,74115,,7:00 AM - 7:00 PM,,8810923
"W.L. HUTCHERSON FAMILY YMCA","1120 E PINE ST","",,"TULSA",OK,74106,,7:00 AM - 7:00 PM,,8810929
"KENDALL WHITTIER LIBRARY","21 S LEWIS AVE","",,"TULSA",OK,74104,,7:00 AM - 7:00 PM,,8810930
"KERR ELEMENTARY SCHOOL","202 S 117 E AVE","",,"TULSA",OK,74128,,7:00 AM - 7:00 PM,,8810935
"MCKINLEY ELEMENTARY SCHOOL","6703 E KING ST","",,"TULSA",OK,74115,,7:00 AM - 7:00 PM,,8810938
"PLAINVIEW BAPTIST CHURCH","14531 E 21 ST","",,"TULSA",OK,74134,,7:00 AM - 7:00 PM,,8810950
"CHURCH OF CHRIST","829 S ROCKFORD AVE","",,"TULSA",OK,74120,,7:00 AM - 7:00 PM,,8810953
"PARK PLAZA  CH OF CHR BRKSIDE","3810 S PEORIA AVE","",,"TULSA",OK,74105,,7:00 AM - 7:00 PM,,8810967
"BROOKSIDE BAPTIST CHURCH","3615 S PEORIA AVE","",,"TULSA",OK,74105,,7:00 AM - 7:00 PM,,8810969
"CHURCH OF CHRIST","2901 S YALE AVE","",,"TULSA",OK,74114,,7:00 AM - 7:00 PM,,8810976
"CHURCH OF THE RESURRECTION","4804 S FULTON AVE","",,"TULSA",OK,74135,,7:00 AM - 7:00 PM,,8810979
"SALVATION ARMY","3901 E 28 ST","",,"TULSA",OK,74114,,7:00 AM - 7:00 PM,,8810983
"CHURCH OF CHRIST/PARK PLAZA","5925 E 51 ST","",,"TULSA",OK,74135,,7:00 AM - 7:00 PM,,8810985
"GARNETT ASSEMBLY OF GOD","2930 S GARNETT RD","",,"TULSA",OK,74129,,7:00 AM - 7:00 PM,,8810994
"VICTORY CHRISTIAN CENTER","7700 S LEWIS AVE","",,"TULSA",OK,74136,,7:00 AM - 7:00 PM,,8810642
"BROOKDALE TULSA MIDTOWN","5211 S LEWIS AVE","",,"TULSA",OK,74105,,7:00 AM - 7:00 PM,,8811007
"ST BERNARD CHURCH","4001 E 101 ST","",,"TULSA",OK,74137,,7:00 AM - 7:00 PM,,8811011
"CENTRAL CHURCH OF THE NAZARENE","7291 E 81 ST","",,"TULSA",OK,74133,,7:00 AM - 7:00 PM,,8823973
"FAITH UNITED METHODIST CHURCH","7431 E. 91ST ST.","",,"TULSA",OK,74133,,7:00 AM - 7:00 PM,,8829070
"OSAGE HILLS CHRISTIAN CHURCH","4500 W EDISON ST","",,"TULSA",OK,74127,,7:00 AM - 7:00 PM,,8811035
"UNION 9TH GRADE CENTER","7616 S GARNETT RD","",,"BROKEN ARROW",OK,74012,,7:00 AM - 7:00 PM,,8811038
"NIENHUIS PARK COMMUNITY CTR","3201 N 9 ST","",,"BROKEN ARROW",OK,74012,,7:00 AM - 7:00 PM,,8811039
"ORU MABEE CENTER","7777 S LEWIS AVE","",,"TULSA",OK,74171,,7:00 AM - 7:00 PM,,8811048
"CHRIST PRESBYTERIAN CHURCH","2706 E 51 ST","",,"TULSA",OK,74105,,7:00 AM - 7:00 PM,,8811049
"ASPEN CREEK ASSEMBLY OF GOD","5100 S ASPEN AVE","",,"BROKEN ARROW",OK,74011,,7:00 AM - 7:00 PM,,8810664
"FIRST CHRISTIAN CHURCH  - BA","2602 S ELM PL","",,"BROKEN ARROW",OK,74012,,7:00 AM - 7:00 PM,,8811077
"CENTRAL PARK COMMUNITY CENTER","1500 S MAIN ST","",,"BROKEN ARROW",OK,74012,,7:00 AM - 7:00 PM,,8823853
"APPLE CREEK CLUBROOM","4548 S ELM PL","",,"BROKEN ARROW",OK,74011,,7:00 AM - 7:00 PM,,8810671
"ST MICHAEL'S EPISCOPAL CHURCH","8837 S GARNETT RD","",,"BROKEN ARROW",OK,74012,,7:00 AM - 7:00 PM,,8811083
"O'BRIEN RECREATION CENTER","6230 N BIRMINGHAM AVE","",,"TULSA",OK,74130,,7:00 AM - 7:00 PM,,8811091
"JENKS CHURCH OF CHRIST","2101 W 118 ST SOUTH","",,"JENKS",OK,74037,,7:00 AM - 7:00 PM,,8813963
"OC EVENT CENTER","1600 E 141 ST","",,"GLENPOOL",OK,74033,,7:00 AM - 7:00 PM,,8811098
"LIBERTY HIGH SCHOOL","2727 E 201 ST SOUTH","",,"MOUNDS",OK,74047,,7:00 AM - 7:00 PM,,8813126
"FAITH LUTHERAN CHURCH","9222 N GARNETT RD","",,"OWASSO",OK,74055,,7:00 AM - 7:00 PM,,8811100
"FIRST PRESBYTERIAN CHURCH","222 N ADAMS RD","",,"SAND SPRINGS",OK,74063,,7:00 AM - 7:00 PM,,8811110
"WORD OF LIFE CHURCH","1402 N 81 W AVE","",,"SAND SPRINGS",OK,74063,,7:00 AM - 7:00 PM,,8821578
"FISHER BAPTIST CHURCH","4008 S 137 W AVE","",,"SAND SPRINGS",OK,74063,,7:00 AM - 7:00 PM,,8810652
"CEDAR RIDGE CHRISTIAN CHURCH","14085 S 296 E AVE","",,"COWETA",OK,74429,,7:00 AM - 7:00 PM,,8810076
"TWIN OAKS BAPTIST CHURCH","70076 S 330 ROAD","",,"WAGONER",OK,74467,,7:00 AM - 7:00 PM,,8810071
"UNION BAPTIST CHURCH","511 SW 5 STREET","",,"WAGONER",OK,74467,,7:00 AM - 7:00 PM,,8810074
"CLEARVIEW BAPTIST CHURCH","23003 E HIGHWAY 51","",,"BROKEN ARROW",OK,74014,,7:00 AM - 7:00 PM,,8810086
"BVILLE SOUTHERN BAPTIST CHURCH","5111 SE NOWATA RD","",,"BARTLESVILLE",OK,74006,,7:00 AM - 7:00 PM,,8811124
"EAST CROSS METHODIST CHURCH","820 SE MADISON BLVD","",,"BARTLESVILLE",OK,74006,,7:00 AM - 7:00 PM,,8811129
"EASTERN HEIGHTS BAPTIST CH","1331 SE SWAN DR","",,"BARTLESVILLE",OK,74006,,7:00 AM - 7:00 PM,,8811130
"COWDEN COMMUNITY BUILDING","RT. 3","",,"CORDELL",OK,73632,,7:00 AM - 7:00 PM,,8811140
"CORN HERITAGE VILLAGE","106 W ADAMS","",,"CORN",OK,73024,,7:00 AM - 7:00 PM,,8811141
"CANUTE HERITAGE CENTER","101 N. 9TH","",,"CANUTE",OK,73626,,7:00 AM - 7:00 PM,,8811731
"WAYNOKA HOUSING AUTHORITY","1237 MAIN ST","",,"WAYNOKA",OK,73860,,7:00 AM - 7:00 PM,,8810670
"DACOMA COMMUNITY CENTER","1100 NORTH MAIN","",,"DACOMA",OK,73731,,7:00 AM - 7:00 PM,,8810656
"NORTHWESTERN STATE UNIVERSITY","WOODWARD CAMPUS-2007 34TH ST","",,"WOODWARD",OK,73801,,7:00 AM - 7:00 PM,,8810189
"LYONS COMMUNITY BUILDING","LYONS COMMUNITY BUILDING","463101 E. 914 RD",,"BUNCH",OK,74931,,7:00 AM - 7:00 PM,,8811613
"PROCTOR COMMUNITY BUILDING","PROCTOR COMMUNITY BUILDING","GEN DEL",,"PROCTOR",OK,74457,,7:00 AM - 7:00 PM,,8811614
"PEAVINE SCHOOL","PEAVINE SCHOOL","P O BOX 389",,"STILWELL",OK,74960,,7:00 AM - 7:00 PM,,8811619
"VETERAN'S CENTER","203 E 1 STREET","",,"ATOKA",OK,74525,,7:00 AM - 7:00 PM,,8811591
"DAISY FIRE DEPARTMENT","1244 N GOSS SCHOOL RD","",,"DAISY",OK,74540,,7:00 AM - 7:00 PM,,8811598
"CANEY COMMUNITY BUILDING","203 N COBB AVE","",,"CANEY",OK,74533,,7:00 AM - 7:00 PM,,8810508
"STRINGTOWN FIRE DEPT","105 PECAN AVE","",,"STRINGTOWN",OK,74569,,7:00 AM - 7:00 PM,,8810524
"FORGAN GOLDEN AGERS","114 MAIN ST.","",,"FORGAN",OK,73938,,7:00 AM - 7:00 PM,,8811601
"DELHI FIRE DEPARTMENT","12683 N 1850 RD","(1270 RD TO DELHI, 1/8 MI N)",,"SAYRE",OK,73662,,7:00 AM - 7:00 PM,,8811167
"SWEETWATER BAPTIST CHURCH","11012 N HIGHWAY 30","",,"SWEETWATER",OK,73666,,7:00 AM - 7:00 PM,,8811609
"DURANT I-72 SUPERINTENDENT OFC","1323 WACO ST","",,"DURANT",OK,74701,,7:00 AM - 7:00 PM,,8811634
"OUR SAVIOURS LUTHERAN CHURCH","1524 WEST MAIN","CORNER OF 16TH & MAIN N. ENTRY",,"DURANT",OK,74701,,7:00 AM - 7:00 PM,,8811635
"BRYAN COUNTY HEALTH DEPARTMENT","1524 WEST CHUCHWA STREET","",,"DURANT",OK,74701,,7:00 AM - 7:00 PM,,8811636
"WADE/ALBANY SENIOR CENTER","CORNER OF WADE ST AND 70E","107 NORTH WADE STREET",,"ALBANY",OK,74721,,7:00 AM - 7:00 PM,,8811245
"SILO HIGH SCHOOL GYM","122 WEST BOURNE STREET","SILO",,"DURANT",OK,74701,,7:00 AM - 7:00 PM,,8811259
"UTICA COMMUNITY CENTER","209 HARRISON STREET","",,"UTICA",OK,74726,,7:00 AM - 7:00 PM,,8811260
"HIGHLAND METHODIST CHURCH","24005 CS2540","",,"ALBERT",OK,73001,,7:00 AM - 7:00 PM,,8811272
"HINTON FIRE STATION","115 SOUTH BROADWAY","",,"HINTON",OK,73047,,7:00 AM - 7:00 PM,,8811276
"TRINITY BAPTIST CHURCH","1201 E ROGERS ST","",,"EL RENO",OK,73036,,7:00 AM - 7:00 PM,,8811277
"FARM BUREAU BUILDING","2020 SUNSET DRIVE","",,"EL RENO",OK,73036,,7:00 AM - 7:00 PM,,8811279
"SURREY HILLS BAPTIST CHURCH","12421 N MUSTANG ROAD","",,"YUKON",OK,73099,,7:00 AM - 7:00 PM,,8811283
"YUKON FINE ARTS AUDITORIUM","850 YUKON AVE","",,"YUKON",OK,73099,,7:00 AM - 7:00 PM,,8811179
"DISCOVERY CHURCH","900 E MAIN STREET","",,"YUKON",OK,73099,,7:00 AM - 7:00 PM,,8813199
"WESTPOINTE CHRYSLER JEEP DODGE","11001 W RENO AVE","",,"YUKON",OK,73099,,7:00 AM - 7:00 PM,,8811293
"CHISHOLM HEIGHTS BAPTIST CHURC","2243 W HIGHWAY 152","",,"MUSTANG",OK,73064,,7:00 AM - 7:00 PM,,8810719
"ST. JOSEPH'S CATHOLIC CHURCH","410 KATE BOEVERS ST-UNION CITY","",,"UNION CITY",OK,73090,,7:00 AM - 7:00 PM,,8811413
"NEW LIFE ASSEMBLY OF GOD CHURC","8155 S HIGHWAY 281","2 MI S OF GEARY ON HWY 281",,"GEARY",OK,73040,,7:00 AM - 7:00 PM,,8811416
"ARDMORE 1ST BAPTIST CHURCH","225 1ST SW","",,"ARDMORE",OK,73401,,7:00 AM - 7:00 PM,,8811425
"SCENIC RIVERS BUILDING","15971 10 HWY","",,"TAHLEQUAH",OK,74464,,7:00 AM - 7:00 PM,,8811450
"COOKSON METHODIST CHURCH","21685 W. COOKSON BEND RD","",,"COOKSON",OK,74427,,7:00 AM - 7:00 PM,,8811451
"LOST CITY COMMUNITY BLDG","13251 N LOST CITY RD","",,"HULBERT",OK,74441,,7:00 AM - 7:00 PM,,8811455
"CRESCENT VALLEY CHURCH","25641 S CRESCENT VALLEY RD","",,"TAHLEQUAH",OK,74464,,7:00 AM - 7:00 PM,,8811188
"HULBERT CITY HALL","111 W MAIN ST","",,"HULBERT",OK,74441,,7:00 AM - 7:00 PM,,8811463
"CITY HALL","23 N. LOGAN","",,"BOISE CITY",OK,73933,,7:00 AM - 7:00 PM,,8811478
"NOBLE SENIOR CITIZENS CENTER","HIGHWAY 77 AND MAGUIRE RD.","",,"NOBLE",OK,73068,,7:00 AM - 7:00 PM,,8811504
"ST MICHAELS EPISCOPAL CHURCH","1601 W IMHOFF ROAD","",,"NORMAN",OK,73072,,7:00 AM - 7:00 PM,,8811507
"HILLTOP BAPTIST CHURCH","11710 E STELLA RD","",,"NORMAN",OK,73026,,7:00 AM - 7:00 PM,,8811508
"TWELVE CORNERS BAPTIST CHURCH","15601 E ETOWAH RD","156 & ETOWAH RD.",,"NOBLE",OK,73068,,7:00 AM - 7:00 PM,,8811509
"NORTHEAST BAPTIST CHURCH","905 E ROCK CREEK RD","",,"NORMAN",OK,73071,,7:00 AM - 7:00 PM,,8811521
"CROSS POINTE CHURCH","2601 24TH AVE SE","",,"NORMAN",OK,73071,,7:00 AM - 7:00 PM,,8811530
"WINDWOOD F.W. BAPTIST CHURCH","5300 SE 89 ST","",,"OKLAHOMA CITY",OK,73135,,7:00 AM - 7:00 PM,,8811544
"LIFE CHURCH.TV","2916 S. TELEPHONE RD","",,"MOORE",OK,73160,,7:00 AM - 7:00 PM,,8811546
"V.F.W. BUILDING","206 S. VETERANS DRIVE","",,"COALGATE",OK,74538,,7:00 AM - 7:00 PM,,8811550
"FIRST UNITED METHODIST CHURCH","106 N. NEWELL","",,"COALGATE",OK,74538,,7:00 AM - 7:00 PM,,8811552
"LEHIGH FIRE STATION","2ND STREET","",,"LEHIGH",OK,74556,,7:00 AM - 7:00 PM,,8811554
"ST PAUL'S UNITED METHODIST","910 NW 38 ST","",,"LAWTON",OK,73505,,7:00 AM - 7:00 PM,,8811559
"NAZARENE CHURCH","1404 NW ARLINGTON","",,"LAWTON",OK,73507,,7:00 AM - 7:00 PM,,8811565
"WESLEY CHAPEL CHURCH","3 MILES SOUTH OF LEE ON","DEYO RD",,"LAWTON",OK,73501,,7:00 AM - 7:00 PM,,8811207
"CITY HALL","100 MAIN ST","",,"GERONIMO",OK,73543,,7:00 AM - 7:00 PM,,8811583
"HOLY FAMILY CATHOLIC CHURCH","1010 NW 82 ST","",,"LAWTON",OK,73505,,7:00 AM - 7:00 PM,,8811585
"FIRST BAPTIST CHURCH","51170 W 282 PL SO","",,"MILFAY",OK,74046,,7:00 AM - 7:00 PM,,8825976
"SLICK TOWN HALL","124 N. COLUMBIA","",,"SLICK",OK,74071,,7:00 AM - 7:00 PM,,8825996
"CHURCH OF GOD OF PROPHECY","811 LEXINGTON RD","",,"SAPULPA",OK,74066,,7:00 AM - 7:00 PM,,8811214
"SUNRISE BAPTIST CHURCH","16075 S. 257 W. KELLYVILLE","",,"KELLYVILLE",OK,74039,,7:00 AM - 7:00 PM,,8811215
"FIRST BAPTIST CHURCH","900 FRISCO AVE","",,"CLINTON",OK,73601,,7:00 AM - 7:00 PM,,8811345
"CUMBERLAND PRESBYTERIAN CHURCH","500 SOUTH 30TH STREET","",,"CLINTON",OK,73601,,7:00 AM - 7:00 PM,,8811346
"PINE ACRES MENNONITE CHURCH","1321 LARK STREET","",,"WEATHERFORD",OK,73096,,7:00 AM - 7:00 PM,,8811350
"1ST UNITED METHODIST CHURCH","1005 LEISURE RD","",,"GROVE",OK,74344,,7:00 AM - 7:00 PM,,8811362
"JAY COMMUNITY CENTER ","429 S 9TH ST","",,"JAY",OK,74346,,7:00 AM - 7:00 PM,,8810175
"JAY 1ST ASSEMBLY OF GOD CHURCH","908 NORTH MAIN","",,"JAY",OK,74346,,7:00 AM - 7:00 PM,,8811367
"KENWOOD WATER OFFICE","1149 KENWOOD RD","1149 CR 487",,"SALINA",OK,74365,,7:00 AM - 7:00 PM,,8811373
"GARBER EMS BUILDING","510 MAIN STREET","",,"GARBER",OK,73738,,7:00 AM - 7:00 PM,,8826069
"NORTH GARLAND CHURCH OF CHRIST","703 N GARLAND RD","",,"ENID",OK,73703,,7:00 AM - 7:00 PM,,8810723
"TOWN OF LAHOMA","201 OLD STABE LN","",,"LAHOMA",OK,73754,,7:00 AM - 7:00 PM,,8811410
"DRUMMOND FIRE STATION","HWY 132","",,"DRUMMOND",OK,73735,,7:00 AM - 7:00 PM,,8810206
"REC MULTI PURPOSE CENTER","808 N INDUSTRIAL HTS","",,"LINDSAY",OK,73052,,7:00 AM - 7:00 PM,,8810209
"BOSA COMMUNITY CENTER","207 BOSA AVE","",,"PAULS VALLEY",OK,73075,,7:00 AM - 7:00 PM,,8810222
"AMBER COMMUNITY CENTER","404 HOLLY","",,"AMBER",OK,73004,,7:00 AM - 7:00 PM,,8810235
"CRAIG COMPUTERS","1240 HWY 277","",,"NINNEKAH",OK,73067,,7:00 AM - 7:00 PM,,8811226
"FIRST BAPTIST CHURCH, POCASSET","230 S WASHINGTON","",,"POCASSET",OK,73079,,7:00 AM - 7:00 PM,,8810241
"TUTTLE UNITED METHODIST CHURCH","420 S CIMARRON RD","",,"TUTTLE",OK,73089,,7:00 AM - 7:00 PM,,8810245
"TRINITY BAPTIST CHURCH","1812 N PENNSYLVANIA","",,"MANGUM",OK,73554,,7:00 AM - 7:00 PM,,8810255
"MANGUM HOUSING AUTHORITY","425 E LINCOLN","",,"MANGUM",OK,73554,,7:00 AM - 7:00 PM,,8810257
"GRANITE COMMUNITY BUILDING","N COTTONWOOD ST","NORTH END OF BUILDING",,"GRANITE",OK,73547,,7:00 AM - 7:00 PM,,8810263
"WILLOW COMMUNITY BUILDING","112 W MAIN ST","",,"WILLOW",OK,73673,,7:00 AM - 7:00 PM,,8810264
"OLD VFW BLDG.","HWY. 82, & 3RD ST.","",,"STIGLER",OK,74462,,7:00 AM - 7:00 PM,,8810284
"KEOTA COMMUNITY CENTER","204 S. W. GRAND AVE","",,"KEOTA",OK,74941,,7:00 AM - 7:00 PM,,8810289
"HORNTOWN FIRE DEPT","3316 HWY 75","",,"HOLDENVILLE",OK,74848,,7:00 AM - 7:00 PM,,8810292
"FIRST BAPTIST CHURCH OF CALVIN","306 CANADIAN","",,"CALVIN",OK,74531,,7:00 AM - 7:00 PM,,8810297
"SOUTHERN PRAIRIE LIBRARY","421 N HUDSON","",,"ALTUS",OK,73521,,7:00 AM - 7:00 PM,,8810303
"TISHOMINGO MASONIC LODGE #91","708 E 8TH","",,"TISHOMINGO",OK,73460,,7:00 AM - 7:00 PM,,8813241
"CHRIST'S CHURCH","1001 S. BOAZ","",,"NEWKIRK",OK,74647,,7:00 AM - 7:00 PM,,8810347
"COMMUNITY BUILDING KAW CITY","300 MORGAN SQUARE","",,"KAW CITY",OK,74641,,7:00 AM - 7:00 PM,,8810352
"FAITH TABERNACLE","507 S 5TH ST","",,"PONCA CITY",OK,74601,,7:00 AM - 7:00 PM,,8810357
"PIONEER TECHNOLOGY CENTER","2101 N. ASH","",,"PONCA CITY",OK,74601,,7:00 AM - 7:00 PM,,8811243
"ST LUKE'S CHURCH OF NAZARENE","1715 E. PROSPECT","",,"PONCA CITY",OK,74604,,7:00 AM - 7:00 PM,,8810359
"HENNESSEY PUBLIC LIBRARY","525 S. MAIN","",,"HENNESSEY",OK,73742,,7:00 AM - 7:00 PM,,8810366
"SENIOR CITIZENS BLDG","201 S. 6 ST.","",,"KINGFISHER",OK,73750,,7:00 AM - 7:00 PM,,8810369
"WESTERN TECH-HOBART CAMPUS","1000 S. BAILEY","",,"HOBART",OK,73651,,7:00 AM - 7:00 PM,,8810372
"RED OAK SCHOOL ","404 N MAIN","",,"RED OAK",OK,74563,,7:00 AM - 7:00 PM,,8810390
"FIRST BAPTIST CHURCH","15884 CHURCH ST","",,"CAMERON",OK,74932,,7:00 AM - 7:00 PM,,8810400
"MIKE MASS CIVIC CENTER","22695 WILES ST-SHADY POINT","",,"SHADY POINT",OK,74956,,7:00 AM - 7:00 PM,,8810402
"TRINITY BAPTIST CHURCH","101 FLANAGAN DR.-POTEAU","",,"POTEAU",OK,74953,,7:00 AM - 7:00 PM,,8810560
"FREEWILL BAPTIST CHURCH","603 WEST BLVD.-POTEAU","",,"POTEAU",OK,74953,,7:00 AM - 7:00 PM,,8810407
"STAPP-ZOE COMM. CENTER","52185 STAPP-ZOE RD","",,"HODGEN",OK,74939,,7:00 AM - 7:00 PM,,8810562
"REICHERT COMMUNITY CENTER","28215 REICHERT/SUMMERFIELD RD","",,"HEAVENER",OK,74937,,7:00 AM - 7:00 PM,,8810418
"FIRST BAPTIST CHURCH","200 W AVE. C - HEAVENER","",,"HEAVENER",OK,74937,,7:00 AM - 7:00 PM,,8810419
"FIRST UNITED METHODIST CHURCH","107 E AVE B","",,"HEAVENER",OK,74937,,7:00 AM - 7:00 PM,,8810563
"FIRST CHRISTIAN CHURCH","323 W. 4TH ST,","",,"STROUD",OK,74079,,7:00 AM - 7:00 PM,,8810422
"UNION CHRISTIAN CHURCH","108 N. 1ST ST.","",,"TRYON",OK,74875,,7:00 AM - 7:00 PM,,8823627
"FIRST BAPTIST CHURCH/CASHION","18750 W. HWY 74F","",,"CASHION",OK,73016,,7:00 AM - 7:00 PM,,8810436
"MERIDIAN FIRE DEPARTMENT","12250 HWY 105","",,"GUTHRIE",OK,73044,,7:00 AM - 7:00 PM,,8810442
"GUTHRIE CHRISTIAN CHURCH","1802 WEST LOGAN","",,"GUTHRIE",OK,73044,,7:00 AM - 7:00 PM,,8810451
"COURTNEY COMMUNITY BUILDING","COURTNEY CIR & HIGHWAY 32","",,"RINGLING",OK,73456,,7:00 AM - 7:00 PM,,8810462
"BYARS COMMUNITY CENTER","282 E RIPLEY ST","",,"BYARS",OK,74831,,7:00 AM - 7:00 PM,,8810691
"UNITY MISSIONARY BAPTIST CH","25035 ST HWY 59","",,"WAYNE",OK,73095,,7:00 AM - 7:00 PM,,8810570
"OAK GROVE BAPTIST CHURCH","4 MI E OF BB ON HWY 70 &","1 MI S OF BROKEN BOW",,"BROKEN BOW",OK,74728,,7:00 AM - 7:00 PM,,8810577
"GOLDEN COMMUNITY BUILDING","4495 GLOVER GOLDEN RD","",,"GOLDEN",OK,74737,,7:00 AM - 7:00 PM,,8810500
"HOLLY CREEK NUTRITION CENTER","5539 OLD BROKEN BOW HWY","AT THE Y IN HOLLY CREEK",,"BROKEN BOW",OK,74728,,7:00 AM - 7:00 PM,,8822826
"UNITED METHODIST CHURCH","101 N. BURRIS","",,"VALLIANT",OK,74764,,7:00 AM - 7:00 PM,,8810505
"ONAPA FIRE STATION","110847 OLD HWY 69 SOUTH","",,"CHECOTAH",OK,74426,,7:00 AM - 7:00 PM,,8810511
"LINDA K. BEEN RESIDENCE","TIGER MOUNTAIN N 3/4 MI","",,"HENRYETTA",OK,74437,,7:00 AM - 7:00 PM,,8810520
"MENNONITE BRETHREN CHURCH","1600 E. STATE RD.","",,"FAIRVIEW",OK,73737,,7:00 AM - 7:00 PM,,8810530
"OAK GROVE MENNONITE CHURCH","5686 W HWY 28","",,"ADAIR",OK,74330,,7:00 AM - 7:00 PM,,8810581
"GREENBRIER FREEWILL BAP CHURCH","5272 N 440","",,"ADAIR",OK,74330,,7:00 AM - 7:00 PM,,8810542
"HIS WAY CHRISTIAN FELLOW CHUR","510 E RADCLIFF AVE","",,"LOCUST GROVE",OK,74352,,7:00 AM - 7:00 PM,,8810001
"AMERICAN LEGION","4021 W BROADWAY","",,"MUSKOGEE",OK,74401,,7:00 AM - 7:00 PM,,8813787
"MARTIN LUTHER KING CENTER","300 M. L. KING ST.","",,"MUSKOGEE",OK,74401,,7:00 AM - 7:00 PM,,8810020
"CHURCH OF GOD OF PROPHECY","2420 N 24 ST W","",,"MUSKOGEE",OK,74401,,7:00 AM - 7:00 PM,,8810021
"TAFT RESOURCE CENTER","208 WEST SEMINOLE","",,"TAFT",OK,74463,,7:00 AM - 7:00 PM,,8810023
"FT. GIBSON CHURCH OF CHRIST","806 S LEE ST","",,"FORT GIBSON",OK,74434,,7:00 AM - 7:00 PM,,8810027
"RURAL WATER DISTRICT NO. 2","2310 S WOODLAND RD","",,"MUSKOGEE",OK,74403,,7:00 AM - 7:00 PM,,8810029
"GRANDVIEW BAPTIST CHURCH","3608 S CHEROKEE DR","",,"MUSKOGEE",OK,74403,,7:00 AM - 7:00 PM,,8810032
"BOYNTON COMMUNITY CENTER","200 W KENEFICK","",,"BOYNTON",OK,74422,,7:00 AM - 7:00 PM,,8810033
"NAZARENE CHURCH","829 JACKSON ST","FROM FIR 8 BLOCKS N ON 9TH",,"PERRY",OK,73077,,7:00 AM - 7:00 PM,,8810588
"1ST CHRISTIAN CHURCH","701 HOLLY ","FROM FIR AVE 2 BLOCKS N ON 7TH",,"PERRY",OK,73077,,7:00 AM - 7:00 PM,,8810046
"1ST ASSEMBLY OF GOD","401 R.J. RUTHERFORD","LOCATED BEHIND MCDONALD'S",,"PERRY",OK,73077,,7:00 AM - 7:00 PM,,8810047
"ZION LUTHERAN CHURCH","15976 JOHN WAYNE","",,"PERRY",OK,73077,,7:00 AM - 7:00 PM,,8810049
"WANN COMMUNITY CENTER","WANN COMMUNITY CENTER","",,"WANN",OK,74083,,7:00 AM - 7:00 PM,,8810589
"ANDREW RESIDENCE ","1 MILES NORTH ON RD 409 1/4 M","EAST ON RD 19 NORTH SIDE OF RD",,"NOWATA",OK,74048,,7:00 AM - 7:00 PM,,8810053
"WELTY CHURCH OF GOD","96054 N 3710 DRIVE","",,"WELTY",OK,74833,,7:00 AM - 7:00 PM,,8810060
"WESTERN OAKS CH OF NAZARENE","7901 NW 16TH ST","",,"OKLAHOMA CITY",OK,73127,,7:00 AM - 7:00 PM,,8811808
"WESTERN OAKS CHRISTIAN CHURCH","8100 NW 23RD ST","",,"BETHANY",OK,73127,,7:00 AM - 7:00 PM,,8811804
"COUNCIL ROAD BAPTIST CHURCH","2900 N COUNCIL RD","",,"BETHANY",OK,73008,,7:00 AM - 7:00 PM,,8811807
"OVERHOLSER CH OF THE NAZARENE","3905 N SHANNON AVE","",,"BETHANY",OK,73008,,7:00 AM - 7:00 PM,,8811803
"CHOCTAW COMMUNITY CENTER","2500 N CHOCTAW ROAD","",,"CHOCTAW",OK,73020,,7:00 AM - 7:00 PM,,8811648
"FIRST BAPTIST CHURCH OF NCP","1931 NICHOLS DR","",,"NICOMA PARK",OK,73066,,7:00 AM - 7:00 PM,,8811841
"SANTA FE PRESBYTERIAN CHURCH","1603 N SANTA FE AVE.","",,"EDMOND",OK,73003,,7:00 AM - 7:00 PM,,8811872
"FIRST BAPTIST CHURCH OF EDMOND","1300 SE 33RD ST","",,"EDMOND",OK,73013,,7:00 AM - 7:00 PM,,8811853
"COMMUNITY OF CHRIST CHURCH","1200 E DANFORTH","",,"EDMOND",OK,73034,,7:00 AM - 7:00 PM,,8811659
"ST LUKE BAPTIST CHURCH","10001 NE 50TH ST","",,"SPENCER",OK,73084,,7:00 AM - 7:00 PM,,8811666
"DICKSON BAPTIST CHURCH","2000 N SPENCER RD","",,"MIDWEST CITY",OK,73141,,7:00 AM - 7:00 PM,,8810260
"DICKSON BAPTIST CHURCH","2000 N SPENCER RD","",,"MIDWEST CITY",OK,73141,,7:00 AM - 7:00 PM,,8811795
"CONNECT CHURCH","9029 E RENO AVE","",,"MIDWEST CITY",OK,73130,,7:00 AM - 7:00 PM,,8810261
"CORNERSTONE CHURCH","9900 SE 15TH","",,"MIDWEST CITY",OK,73130,,7:00 AM - 7:00 PM,,8811675
"LONE STAR BAPTIST CHURCH","1805 E HEFNER RD","",,"OKLAHOMA CITY",OK,73131,,7:00 AM - 7:00 PM,,8811904
"LONE STAR BAPTIST CHURCH","1805 E HEFNER RD","",,"OKLAHOMA CITY",OK,73131,,7:00 AM - 7:00 PM,,8811903
"CHAPEL HILL UNITED METHODIST","2717 WEST HEFNER RD","",,"OKLAHOMA CITY",OK,73120,,7:00 AM - 7:00 PM,,8811689
"ST AUGUSTINE OF CANTERBURY CH","14700 N MAY AVE","",,"OKLAHOMA CITY",OK,73134,,7:00 AM - 7:00 PM,,8811862
"ST ELIJAH ANTIOCHIAN CHURCH","15000 N MAY AVE","",,"OKLAHOMA CITY",OK,73134,,7:00 AM - 7:00 PM,,8811870
"NORTHPARK MALL","12100 N MAY AVE","",,"OKLAHOMA CITY",OK,73156,,7:00 AM - 7:00 PM,,8811894
"HIGHPOINTE CHURCH","6810 NW 122ND ST","",,"OKLAHOMA CITY",OK,73142,,7:00 AM - 7:00 PM,,8811890
"ST PAUL'S LUTHERAN CHURCH","10600 N COUNCIL RD","",,"OKLAHOMA CITY",OK,73162,,7:00 AM - 7:00 PM,,8811529
"FRANCIS TUTTLE TC, RENO CAMPUS","7301 W RENO AVE","",,"OKLAHOMA CITY",OK,73127,,7:00 AM - 7:00 PM,,8811805
"MAYFLOWER CONGREGATIONAL CH","3901 NW 63RD ST","",,"OKLAHOMA CITY",OK,73116,,7:00 AM - 7:00 PM,,8810339
"CROWN HEIGHTS CHRISTIAN CHURCH","4020 N WESTERN AVE","",,"OKLAHOMA CITY",OK,73118,,7:00 AM - 7:00 PM,,8811712
"FIRST CHURCH","131 NW 4TH STREET","",,"OKLAHOMA CITY",OK,73102-6211,,7:00 AM - 7:00 PM,,8811912
"EXCHANGE AVENUE BAPTIST CHURCH","1312 S PENNSYLVANIA AVE","",,"OKLAHOMA CITY",OK,73106,,7:00 AM - 7:00 PM,,8811825
"WESTERN HILLS BAPTIST CHURCH","401 SW 44TH ST","",,"OKLAHOMA CITY",OK,73109,,7:00 AM - 7:00 PM,,8811719
"HEARTLAND COMMUNITY OF CHRIST","921 SW 70TH ST","",,"OKLAHOMA CITY",OK,73139,,7:00 AM - 7:00 PM,,8811723
"HILLCREST FAMILY WORSHIP CTR","2500 SW 59TH ST","",,"OKLAHOMA CITY",OK,73119,,7:00 AM - 7:00 PM,,8811832
"OKC COMMUNITY COLLEGE LIBRARY","7777 S MAY AVE","",,"OKLAHOMA CITY",OK,73159,,7:00 AM - 7:00 PM,,8811831
"SOUTHERN HILLS BAPTIST CHURCH","8601 S PENNSYLVANIA","",,"OKLAHOMA CITY",OK,73159-5293,,7:00 AM - 7:00 PM,,8811739
"OK SCH OF SCIENCE & MATH LIB","331 NE 10TH ST","",,"OKLAHOMA CITY",OK,73104,,7:00 AM - 7:00 PM,,8811744
"HIGHLAND PARK ELEMENTARY SCH","5301 S DIMPLE AVE","",,"MIDWEST CITY",OK,73110,,7:00 AM - 7:00 PM,,8811748
"DEL CITY 1ST SOUTHERN BAPTIST","6400 S SOONER RD","",,"DEL CITY",OK,73135,,7:00 AM - 7:00 PM,,8811750
"EAST CENTRAL ELECTRIC","2100 S WOOD DRIVE","",,"OKMULGEE",OK,74447,,7:00 AM - 7:00 PM,,8810115
"AMERICAN LEGION","508 FRISCO AVE","",,"HENRYETTA",OK,74437,,7:00 AM - 7:00 PM,,8810121
"HENRYETTA CITY HALL","111 S 4TH STREET","",,"HENRYETTA",OK,74437,,7:00 AM - 7:00 PM,,8810122
"ST. MICHAELS CHURCH","1004 W GENTRY ST","",,"HENRYETTA",OK,74437,,7:00 AM - 7:00 PM,,8810125
"SCHULTER COM & SENIOR CENTER","13450 FERN STREET","",,"SCHULTER",OK,74460,,7:00 AM - 7:00 PM,,8810131
"BURBANK CITY HALL","105 S 1 ST","",,"BURBANK",OK,74633,,7:00 AM - 7:00 PM,,8810137
"TRANSFORMATION CHURCHGREENWOOD","1519 W PINE ST","",,"TULSA",OK,74127,,7:00 AM - 7:00 PM,,8810144
"OSAGE OAKS CHURCH OF GOD","2100 W 93 N ST","",,"SPERRY",OK,74073,,7:00 AM - 7:00 PM,,8810145
"BRADEN COMMUNITY CENTER","1022 BRADEN SCHOOL RD","",,"PONCA CITY",OK,74604,,7:00 AM - 7:00 PM,,8810148
"PRUE CITY HALL","202 S MAIN  PRUE","",,"PRUE",OK,74060,,7:00 AM - 7:00 PM,,8810601
"FIRST BAPTIST CHURCH","202 S PRICE  HOMINY","",,"HOMINY",OK,74035,,7:00 AM - 7:00 PM,,8810150
"ROCK FIRE DEPT. STATION #1","7716 ZINK ROAD","",,"SKIATOOK",OK,74070,,7:00 AM - 7:00 PM,,8810152
"GILCREASE CLUB HOUSE","1919 W SEMINOLE ST","",,"TULSA",OK,74127,,7:00 AM - 7:00 PM,,8810216
"COMMUNITY ASSEMBLY CHURCH","2247 STATE HWY 97","",,"SAND SPRINGS",OK,74063,,7:00 AM - 7:00 PM,,8810215
"COMMUNITY CENTER (TOM DERWIN)","S MAIN STREET","",,"WYANDOTTE",OK,74370,,7:00 AM - 7:00 PM,,8810166
"HALLETT COMMUNITY CENTER","EAST OF HWY 99 ON 4TH STREET","",,"HALLETT",OK,74034,,7:00 AM - 7:00 PM,,8810171
"PAWNEE COUNTY WOMEN'S BUILDING","PAWNEE COUNTY FAIRGROUNDS","510 MEMORIAL STREET",,"PAWNEE",OK,74058,,7:00 AM - 7:00 PM,,8810173
"BASIN FIRE STATION","32901 W BASIN RD","",,"MANNFORD",OK,74044,,7:00 AM - 7:00 PM,,8810177
"SOUTHSIDE BAPTIST CHURCH","1223 S. PERKINS","",,"STILLWATER",OK,74074,,7:00 AM - 7:00 PM,,8827111
"CHURCH OF THE HARVEST","1624 W. LAKEVIEW RD.","",,"STILLWATER",OK,74075,,7:00 AM - 7:00 PM,,8810607
"WES WATKINS CENTER","810 W. HALL OF FAME","",,"STILLWATER",OK,74074,,7:00 AM - 7:00 PM,,8811761
"CUSHING/DRUMRIGHT ELKS LODGE","707 N. NORFOLK RD.","",,"CUSHING",OK,74023,,7:00 AM - 7:00 PM,,8810192
"RIPLEY COMMUNITY CENTER","113 S. MORTON","",,"RIPLEY",OK,74062,,7:00 AM - 7:00 PM,,8810201
"FIRST FREE WILL BAPTIST CHURCH","332 W CARL ALBERT PARKWAY","FAMILY LIFE CENTER",,"MC ALESTER",OK,74501,,7:00 AM - 7:00 PM,,8824400
"KIAMICHI VO-TECH","301 KIAMICHI DRIVE","",,"MC ALESTER",OK,74501,,7:00 AM - 7:00 PM,,8810733
"HARTSHORNE CATHOLIC HALL","912 CHEROKEE","",,"HARTSHORNE",OK,74547,,7:00 AM - 7:00 PM,,8810746
"KREBS CITY HALL","5 NE WASHINGTON","",,"KREBS",OK,74554,,7:00 AM - 7:00 PM,,8810752
"THE CHURCH ON FLOWERY MOUNDS","2180 FLOWERY MOUND RD","",,"MC ALESTER",OK,74501,,7:00 AM - 7:00 PM,,8810753
"QUINTON CITY HALL (BOARD ROOM)","1020 NORTH MAIN","",,"QUINTON",OK,74561,,7:00 AM - 7:00 PM,,8810287
"PONTOTOC CO. TECH. CEN. #16","601 W 33 ST","",,"ADA",OK,74820,,7:00 AM - 7:00 PM,,8810761
"MASONIC LODGE HALL, PCT #25","730 CRESTVIEW","",,"ADA",OK,74820,,7:00 AM - 7:00 PM,,8810763
"ALLEN 1ST BAPTIST CHURCH #51","207 E. BROADWAY","",,"ALLEN",OK,74825,,7:00 AM - 7:00 PM,,8810765
"STONEWALL SR. NUTRITION #65","110 E 7TH STREET","",,"STONEWALL",OK,74871,,7:00 AM - 7:00 PM,,8810774
"SOUTH ROCK CREEK SCHOOL","NS 345 & HARDESTY, 1/8 N","WEST SIDE",,"SHAWNEE",OK,74801,,7:00 AM - 7:00 PM,,8810101
"UNITED METHODIST CHURCH","212 E 1ST.","",,"WANETTE",OK,74878,,7:00 AM - 7:00 PM,,8810701
"ANTLERS CHURCH OF CHRIST","201 N.E. A","",,"ANTLERS",OK,74523,,7:00 AM - 7:00 PM,,8810796
"SOBOL COMMUNITY CENTER","HC 64 BOX 3850","",,"SOBOL",OK,74735,,7:00 AM - 7:00 PM,,8810806
"DEMPSEY COMMUNITY BUILDING","10-12N-25W","",,"CHEYENNE",OK,73628,,7:00 AM - 7:00 PM,,8810811
"FREEDOM CHURCH","9602 N. 177TH E. AVE.","",,"OWASSO",OK,74055,,7:00 AM - 7:00 PM,,8813249
"FIRST BAPTIST CHURCH, TALALA","203 S OAK","",,"TALALA",OK,74080,,7:00 AM - 7:00 PM,,8810832
"IMMANUEL FELLOWSHIP CHURCH","3103 HIGHWAY 3 NORTH","",,"SEMINOLE",OK,74868,,7:00 AM - 7:00 PM,,8823947
"FIRST BAPTIST CHURCH PP","122 W. CHICKASAW","",,"SALLISAW",OK,74955,,7:00 AM - 7:00 PM,,8810864
"OLD MCKEY SCHOOL PP","105588 S. 4570 RD.","",,"SALLISAW",OK,74955,,7:00 AM - 7:00 PM,,8810865
"AKINS FIRST BAPTIST CHURCH PP","104186 S 4680 RD","",,"SALLISAW",OK,74955,,7:00 AM - 7:00 PM,,8811645
"ELK AVE CHURCH OF CHRIST","2113 W ELK AVE","",,"DUNCAN",OK,73533,,7:00 AM - 7:00 PM,,8810885
"PATTERSON AVE. BAPTIST CHURCH","208 PATTERSON AVE","",,"COMANCHE",OK,73529,,7:00 AM - 7:00 PM,,8810888
"VELMA ASSEMBLY OF GOD CHURCH","410 MAIN ST","",,"VELMA",OK,73491,,7:00 AM - 7:00 PM,,8810895
"FIRST ASSEMBLY OF GOD CHURCH ","804 NE 12TH STREET","",,"GUYMON",OK,73942,,7:00 AM - 7:00 PM,,8810903
"ST ANDREWS BAPTIST CHURCH","3115 N GARRISON AVE","",,"TULSA",OK,74106,,7:00 AM - 7:00 PM,,8810922
"TULSA LIGHTHOUSE CHARTER SCH","105 E 63 ST N","",,"TULSA",OK,74126,,7:00 AM - 7:00 PM,,8810924
"TULSA GOSPEL ASSEMBLY","8515 WHIRLPOOL DR","",,"SPERRY",OK,74073,,7:00 AM - 7:00 PM,,8810934
"RESTORATION CHURCH","732 S 145 E AVE","",,"TULSA",OK,74108,,7:00 AM - 7:00 PM,,8811685
"B'NAI EMUNAH","1719 S OWASSO AVE","",,"TULSA",OK,74120,,7:00 AM - 7:00 PM,,8829330
"MADALENE CATHOLIC CHURCH","3188 E 22 ST","",,"TULSA",OK,74114,,7:00 AM - 7:00 PM,,8810972
"ASCENSION LUTHERAN CHURCH","4803 S LEWIS AVE","",,"TULSA",OK,74105,,7:00 AM - 7:00 PM,,8811820
"NATHAN HALE LIBRARY","6038 E 23 ST","",,"TULSA",OK,74114,,7:00 AM - 7:00 PM,,8810680
"C.W.A. LOCAL 6012","4174 S 118 E AVE","",,"TULSA",OK,74146,,7:00 AM - 7:00 PM,,8828911
"WOODLAND CHRISTIAN CHURCH","7950 E 57 ST ","",,"TULSA",OK,74145,,7:00 AM - 7:00 PM,,8810988
"HICKS COMMUNITY CENTER","3443 S MINGO RD","",,"TULSA",OK,74146,,7:00 AM - 7:00 PM,,8810996
"CHRIST REDEEMER LUTHERAN CHURC","2550 E 71 ST","",,"TULSA",OK,74136,,7:00 AM - 7:00 PM,,8811008
"EAGLE POINT DAY ROOM","5808 E 71 ST","",,"TULSA",OK,74136,,7:00 AM - 7:00 PM,,8811018
"CARBONDALE ASSEMBLY OF GOD CH","2135 W 51 ST","",,"TULSA",OK,74107,,7:00 AM - 7:00 PM,,8831374
"OC EVENT CENTER","1600 E 141 ST","",,"GLENPOOL",OK,74033,,7:00 AM - 7:00 PM,,8810108
"INDIAN SPRINGS BAPTIST CHURCH","7815 S ELM PL","",,"BROKEN ARROW",OK,74011,,7:00 AM - 7:00 PM,,8810648
"INDIAN SPRINGS BAPTIST CHURCH","7815 S ELM PL","",,"BROKEN ARROW",OK,74011,,7:00 AM - 7:00 PM,,8811066
"ARROW HEIGHTS BAPTIST CHURCH","3201 S ELM PL","",,"BROKEN ARROW",OK,74012,,7:00 AM - 7:00 PM,,8811074
"IMMANUEL LUTHERAN CHURCH","400 N ASPEN AVE","",,"BROKEN ARROW",OK,74012,,7:00 AM - 7:00 PM,,8811087
"BAPTIST VILLAGE - BROKEN ARROW","2801 N BIRCH AVE","",,"BROKEN ARROW",OK,74012,,7:00 AM - 7:00 PM,,8813121
"COLLINSVILLE HEALTH CENTER","1201 W CENTER ST","",,"COLLINSVILLE",OK,74021,,7:00 AM - 7:00 PM,,8811089
"ST JAMES PRESBYTERIAN CHURCH","11970 S ELM ST","",,"JENKS",OK,74037,,7:00 AM - 7:00 PM,,8811728
"FIRST UNITED METHODIST CHURCH","415 E MAIN ST","",,"JENKS",OK,74037,,7:00 AM - 7:00 PM,,8811094
"NEWSPRING FAMILY CHURCH","2907 W 108 PL SOUTH","",,"JENKS",OK,74037,,7:00 AM - 7:00 PM,,8811095
"BROADWAY BAPTIST CHURCH","1000 N ADAMS RD","",,"SAND SPRINGS",OK,74063,,7:00 AM - 7:00 PM,,8811109
"CALVARY BAPTIST CHURCH","18807 W WEKIWA RD","",,"SAND SPRINGS",OK,74063,,7:00 AM - 7:00 PM,,8811115
"LIVING STONE TEACHING CHURCH","28288 E 141 ST S","",,"COWETA",OK,74429,,7:00 AM - 7:00 PM,,8820870
"WASHITA CO. ACTIVITY CENTER","1005 E. 3RD","WASHITA CO. FAIRGROUNDS",,"CORDELL",OK,73632,,7:00 AM - 7:00 PM,,8810653
"WESTERN TECHNOLOGY CENTER","621 SOONER DR","WEST END OF MAIN BLDG",,"BURNS FLAT",OK,73624,,7:00 AM - 7:00 PM,,8811145
"SENTINEL FIRST BAPTIST CHURCH","219 S 8 ST","",,"SENTINEL",OK,73664,,7:00 AM - 7:00 PM,,8811146
"MOORELAND HIGH SCHOOL GYM","404 NW 4TH","",,"MOORELAND",OK,73852,,7:00 AM - 7:00 PM,,8811154
"QUINLAN METHODIST CHURCH","QUINLAN METHODIST CHURCH","FELLOWSHIP HALL",,"QUINLAN",OK,73852,,7:00 AM - 7:00 PM,,8811155
"MUTUAL HIGH SCHOOL GYM","MUTUAL HIGH SCHOOL GYM","210 S MAPLE",,"MUTUAL",OK,73853,,7:00 AM - 7:00 PM,,8811158
"FIRST BAPTIST CHURCH","202 E. HANKS TRAIL","",,"WOODWARD",OK,73801,,7:00 AM - 7:00 PM,,8811159
"ROCKY MTN COMMUNITY CHURCH","ROCKY MTN COMMUNITY CHUR","",,"STILWELL",OK,74960,,7:00 AM - 7:00 PM,,8821685
"CANEY COMMUNITY BUILDING","203 N COBB AVE","",,"CANEY",OK,74533,,7:00 AM - 7:00 PM,,8811593
"WARDVILLE BAPTIST CHURCH","201 E BROADWAY","",,"WARDVILLE",OK,74576,,7:00 AM - 7:00 PM,,8823706
"BALKO SCHOOL","HWY 3,BETWEEN ELMWOOD & BRYANS","CORNER",,"BALKO",OK,73931,,7:00 AM - 7:00 PM,,8811602
"SAYRE FIRST CHRISTIAN CHURCH","1601 N. 4TH STREET","",,"SAYRE",OK,73662,,7:00 AM - 7:00 PM,,8811604
"FIRST CHRISTIAN CHURCH","COUNTRY CLUB & N RANDALL","",,"ELK CITY",OK,73644,,7:00 AM - 7:00 PM,,8811607
"WATONGA CITY HALL","WATONGA CITY HALL","111 EAST 1ST STREET",,"WATONGA",OK,73772,,7:00 AM - 7:00 PM,,8811170
"BENNINGTON TOWN HALL","202 EAST WOODCRAFT ROAD","",,"BENNINGTON",OK,74723,,7:00 AM - 7:00 PM,,8811246
"VICTORY TABERNACLE ED. BLDG","702 HWY 70 EAST","",,"DURANT",OK,74701,,7:00 AM - 7:00 PM,,8811257
"FAITH LUTHERAN CHURCH","3802 WASHINGTON AVENUE","",,"DURANT",OK,74701,,7:00 AM - 7:00 PM,,8811261
"ANADARKO COMMUNITY LIBRARY","215 W BROADWAY","",,"ANADARKO",OK,73005,,7:00 AM - 7:00 PM,,8811263
"HYDRO MASONIC LODGE","114 W MAIN","",,"HYDRO",OK,73048,,7:00 AM - 7:00 PM,,8811176
"WESLEY UNITED METHODIST CHURCH","101 S BARKER AVE","",,"EL RENO",OK,73036,,7:00 AM - 7:00 PM,,8821223
"FIRST UNITED METHODIST CHURCH","400 ELM STREET","5TH & ELM",,"YUKON",OK,73099,,7:00 AM - 7:00 PM,,8811286
"NEW DIMENSIONS CHURCH","701 NORTH CEMETERY ROAD","",,"YUKON",OK,73099,,7:00 AM - 7:00 PM,,8810104
"CANADIAN HILLS NAZARENE","11744 WEST RENO AVENUE","",,"YUKON",OK,73099,,7:00 AM - 7:00 PM,,8811291
"RED ROCK UNITED METHODIST CHUR","250 N RED ROCK ROAD","",,"CALUMET",OK,73014,,7:00 AM - 7:00 PM,,8811415
"CALUMET TOWN HALL","118 W SECOND ST","",,"CALUMET",OK,73014,,7:00 AM - 7:00 PM,,8811417
"CANOE BROOK LIVING CENTER","CANOE BROOK LIVING CENTER","2215 4TH NW",,"ARDMORE",OK,73401,,7:00 AM - 7:00 PM,,8811423
"MASONIC LODGE","7380 N. MERIDIAN RD.","",,"LONE GROVE",OK,73443,,7:00 AM - 7:00 PM,,8811432
"RIVER OF LIFE P.H. CHURCH","938 REDWOOD STREET","",,"WILSON",OK,73463,,7:00 AM - 7:00 PM,,8811434
"BOY SCOUT HALL","668 7","",,"WILSON",OK,73463,,7:00 AM - 7:00 PM,,8811443
"KEYS COMM BUILDING","19083 E 840 RD","",,"PARK HILL",OK,74451,,7:00 AM - 7:00 PM,,8811448
"SHADY GROVE SCHOOL","11042 W SHADY GROVE RD","",,"HULBERT",OK,74441,,7:00 AM - 7:00 PM,,8811452
"LOWREY VFD","9775 82 A HIGHWAY","",,"TAHLEQUAH",OK,74464,,7:00 AM - 7:00 PM,,8811453
"BOSWELL FACILITY BUILDING","625 8TH STREET (1 1/2 BLKS N.","OF HWY 70",,"BOSWELL",OK,74727,,7:00 AM - 7:00 PM,,8811464
"AMBULANCE AUTHORITY - HUGO","2578 US70 BYPASS","",,"HUGO",OK,74743,,7:00 AM - 7:00 PM,,8811191
"FELT","COMMUNITY BUILDING","0 CEDAR ST.",,"FELT",OK,73937,,7:00 AM - 7:00 PM,,8811477
"KEYES EMS","KEYES EMS","",,"KEYES",OK,73947,,7:00 AM - 7:00 PM,,8811481
"COMMUNITY CHRISTIAN CHURCH","2010 N. EASTERN AVE","",,"MOORE",OK,73160,,7:00 AM - 7:00 PM,,8811920
"PARADIGM BAPTIST CHURCH","4301 COUNTRY CLUB TERRACE","",,"NORMAN",OK,73072,,7:00 AM - 7:00 PM,,8811193
"SOUTHWEST CHURCH OF CHRIST","3031 SW 104TH ST","",,"OKLAHOMA CITY",OK,73159,,7:00 AM - 7:00 PM,,8811196
"UNIVERSITY LUTHERAN CHURCH","914 ELM","",,"NORMAN",OK,73072,,7:00 AM - 7:00 PM,,8811511
"CENTRAL CHURCH OF CHRIST","800 EAST MAIN ST","",,"MOORE",OK,73160,,7:00 AM - 7:00 PM,,8811513
"MONROE ELEMENTARY","1601 MCGEE DRIVE","",,"NORMAN",OK,73072,,7:00 AM - 7:00 PM,,8811198
"TUPELO COMMUNITY BUILDING","110 4TH STREET","",,"TUPELO",OK,74572,,7:00 AM - 7:00 PM,,8811547
"COTTONWOOD BAPTIST CHURCH","HWY 31 NORTH AT COTTONWOOD","",,"COALGATE",OK,74538,,7:00 AM - 7:00 PM,,8811549
"FAITH BIBLE CHURCH","1402 SW PARKRIDGE BLVD","",,"LAWTON",OK,73505,,7:00 AM - 7:00 PM,,8811560
"SALT OF THE EARTH CHURCH","2209 NW 25TH ","",,"LAWTON",OK,73505,,7:00 AM - 7:00 PM,,8824630
"BARNETT CHAPEL","3421 ABILENE","",,"LAWTON",OK,73505,,7:00 AM - 7:00 PM,,8811570
"PIONEER ELEMENTARY SCHOOL","3006 NE ANGUS","",,"LAWTON",OK,73507,,7:00 AM - 7:00 PM,,8811571
"PARADISE VALLEY BAPTIST CHURCH","4974 NW MEERS PORTER HILL RD","",,"LAWTON",OK,73507,,7:00 AM - 7:00 PM,,8811576
"FIRST PRESBYTERIAN CHURCH","CORNER OF 3RD AND KANSAS","",,"WALTERS",OK,73572,,7:00 AM - 7:00 PM,,8810693
"CENTRALIA FIRE DEPARTMENT","110 N WASHINGTON ST","CENTRALIA, OK",,"VINITA",OK,74301,,7:00 AM - 7:00 PM,,8810690
"BLUE BELL CHURCH","20889 W HWY. 33","",,"SAPULPA",OK,74066,,7:00 AM - 7:00 PM,,8811331
"OILTON COMMUNITY ROOM","200 S. B ST. OILTON","",,"OILTON",OK,74052,,7:00 AM - 7:00 PM,,8811211
"FREEDOM HILL BAPTIST CHURCH","9914 S. 48 HWY, MANNFORD","",,"MANNFORD",OK,74044,,7:00 AM - 7:00 PM,,8811334
"SR. CITIZENS BUILDING","410 MAIN","",,"DEPEW",OK,74028,,7:00 AM - 7:00 PM,,8811337
"KELLYVILLE COMMUNITY CENTER","410 E. BUFFALO, KELLYVILLE","",,"KELLYVILLE",OK,74039,,7:00 AM - 7:00 PM,,8811339
"ST ANDREWS EPISCOPAL CHURCH","555 E 3RD ST","",,"GROVE",OK,74344,,7:00 AM - 7:00 PM,,8811360
"GRACE HARBOR BAPTIST CHURCH","16 W 11TH ST","",,"GROVE",OK,74344,,7:00 AM - 7:00 PM,,8811364
"KANSAS COMMUNITY CENTER","150 S CHEROKEE ST","",,"KANSAS",OK,74347,,7:00 AM - 7:00 PM,,8811375
"VICI FIRST CHRISTIAN CHURCH","501 N MAIN ST.","VICI, OKLAHOMA",,"VICI",OK,73859,,7:00 AM - 7:00 PM,,8811381
"SEILING CHURCH OF CHRIST","213 W. SHEPHERD","",,"SEILING",OK,73663,,7:00 AM - 7:00 PM,,8811383
"SEILING SENIOR CITIZENS CENTER","104 E. 3RD STREET","",,"SEILING",OK,73663,,7:00 AM - 7:00 PM,,8811217
"FIRST MISSIONARY BAPTIST","467 E GARRIOTT RD","",,"ENID",OK,73701,,7:00 AM - 7:00 PM,,8811219
"CHAMPION PARK REC CENTER","740 NORTH 10TH","",,"ENID",OK,73701,,7:00 AM - 7:00 PM,,8811391
"WEST WILLOW COMMUNITY CHURCH","2217 CONSTITUTION AVE","",,"ENID",OK,73703,,7:00 AM - 7:00 PM,,8811406
"ENID MENNONITE BRETHREN CHURCH","2500 N VAN BUREN","",,"ENID",OK,73703,,7:00 AM - 7:00 PM,,8811407
"WAUKOMIS FIRE DEPARTMENT","121 S MAIN","",,"WAUKOMIS",OK,73773,,7:00 AM - 7:00 PM,,8810207
"PAOLI SENIOR CITIZEN CENTER","408 W DAVIS ","",,"PAOLI",OK,73074,,7:00 AM - 7:00 PM,,8811760
"C. M. ROBERTS, LLC","AFLAC","34550 AIRLINE ROAD",,"PAULS VALLEY",OK,73075,,7:00 AM - 7:00 PM,,8810213
"COMMUNITY BUILDING","GRADY COUNTY FAIRGROUNDS","500 E CHOCTAW",,"CHICKASHA",OK,73018,,7:00 AM - 7:00 PM,,8811225
"FIRST BAPTIST CHURCH OF VERDEN","120 E HWY 62","",,"VERDEN",OK,73092,,7:00 AM - 7:00 PM,,8810234
"ALEX COMMUNITY CENTER","118 S MAIN","",,"ALEX",OK,73002,,7:00 AM - 7:00 PM,,8811875
"RUSH SPRINGS LIBRARY","500 W BLAKELY","",,"RUSH SPRINGS",OK,73082,,7:00 AM - 7:00 PM,,8810242
"SNOWHILL BAPTIST CHURCH","11 S MORGAN ROAD","",,"TUTTLE",OK,73089,,7:00 AM - 7:00 PM,,8810243
"DEER CREEK FIRE TRAINING ROOM","209 S. MAIN","",,"DEER CREEK",OK,74636,,7:00 AM - 7:00 PM,,8810248
"CATHOLIC CHURCH","504 E CHESTNUT","",,"HOLLIS",OK,73550,,7:00 AM - 7:00 PM,,8810268
"TOWN OF WHITEFIELD, SR.CITIZEN","NO. JCT 2&9, RT. SD. HWY. 2","",,"WHITEFIELD",OK,74472,,7:00 AM - 7:00 PM,,8810285
"DUSTIN SENIOR CITIZEN CENTER","30 N. BROADWAY","",,"DUSTIN",OK,74839,,7:00 AM - 7:00 PM,,8821475
"SOUTHSIDE BAPTIST CHURCH","1100 ASALEE","",,"ALTUS",OK,73521,,7:00 AM - 7:00 PM,,8810305
"PRINCE OF PEACE CATHOLIC","1500 FALCON RD","",,"ALTUS",OK,73521,,7:00 AM - 7:00 PM,,8810309
"DUKE COMMUNITY BUILDING","120 W 2ND STREET","",,"DUKE",OK,73532,,7:00 AM - 7:00 PM,,8810311
"RYAN SENIOR CITIZEN CENTER","701 WASHINGTON STREET","",,"RYAN",OK,73565,,7:00 AM - 7:00 PM,,8810321
"WAPANUCKA CITY HALL","211 S. CHOCTAW","",,"WAPANUCKA",OK,73461,,7:00 AM - 7:00 PM,,8810334
"REAGAN COMMUNITY CENTER","5961 W. CITY STREET","",,"REAGAN",OK,73460,,7:00 AM - 7:00 PM,,8810337
"NEWKIRK PUBLIC LIBRARY","116 N. MAPLE","",,"NEWKIRK",OK,74647,,7:00 AM - 7:00 PM,,8810338
"CHURCH OF CHRIST CHURCH","300 NORTH PUBLIC","",,"TONKAWA",OK,74653,,7:00 AM - 7:00 PM,,8810341
"FIRST UNITED METHODIST CHURCH","524 W. COOLIDGE AVE","",,"BLACKWELL",OK,74631,,7:00 AM - 7:00 PM,,8810344
"COMMUNITY CHRISTIAN CHURCH","2109 W. GRAND AVE.","",,"PONCA CITY",OK,74601,,7:00 AM - 7:00 PM,,8810354
"ST. MARY'S PARISH CENTER","408 SOUTH 8TH","",,"PONCA CITY",OK,74601,,7:00 AM - 7:00 PM,,8811642
"DOVER TOWN HALL","231 E. ELM ST.","",,"DOVER",OK,73734,,7:00 AM - 7:00 PM,,8810368
"OKARCHE HIGH SCHOOL","632 W. OKLAHOMA","",,"OKARCHE",OK,73762,,7:00 AM - 7:00 PM,,8810203
"GOTEBO COMMUNITY CENTER","20 NORTH 10TH STREET","",,"GOTEBO",OK,73041,,7:00 AM - 7:00 PM,,8810559
"SNYDER COMMUNITY BLDG","1100 F ST","",,"SNYDER",OK,73566,,7:00 AM - 7:00 PM,,8810377
"RED CROSS BUILDING","208 N CENTRAL","",,"WILBURTON",OK,74578,,7:00 AM - 7:00 PM,,8810381
"BOWERS COMMUNITY CENTER","6429 NW BOWERS ROAD","",,"WILBURTON",OK,74578,,7:00 AM - 7:00 PM,,8810660
"OK DEPT WILDLIFE SE REG OFFICE","8 M E OF HARTSHORNE ON HYW 1","",,"WILBURTON",OK,74578,,7:00 AM - 7:00 PM,,8810385
"BUFFALO VALLEY BAPTIST CHURCH","4152 SE HWY 63","",,"TALIHINA",OK,74571-5950,,7:00 AM - 7:00 PM,,8823684
"POCOLA JR. HIGH ANNEX","603 E. PRYOR AVE","",,"POCOLA",OK,74902,,7:00 AM - 7:00 PM,,8810397
"POCOLA FIRST BAPTIST CHURCH","HWY 112 S. POCOLA BLVD.","",,"POCOLA",OK,74902,,7:00 AM - 7:00 PM,,8810398
"VICTORY WORSHIP CENTER","23725 US HWY 271","",,"SPIRO",OK,74959,,7:00 AM - 7:00 PM,,8810404
"LUTHERAN CHURCH","AVERY, 9 MI N/4 MI W","352025 E. 780 RD., CUSHING",,"STROUD",OK,74079,,7:00 AM - 7:00 PM,,8810424
"MORNING STAR BAPTIST CHURCH","3 1/2 MI WEST OF MEEKER","339943 E. HWY. 62",,"MEEKER",OK,74855,,7:00 AM - 7:00 PM,,8810432
"CORNERSTONE MISSION CHURCH","HWY 102 AND MEMORIAL RD","960955 S. HWY. 102",,"WELLSTON",OK,74881,,7:00 AM - 7:00 PM,,8810435
"HARMONY COMMUNITY CHURCH","1201 SOUTH PENN","",,"GUTHRIE",OK,73044,,7:00 AM - 7:00 PM,,8810437
"LAKEVIEW BAPTIST CHURCH","SOONER & SEWARD ROAD","",,"GUTHRIE",OK,73044,,7:00 AM - 7:00 PM,,8810440
"ORLANDO COMMUNITY CENTER","18 MAIN STREET","",,"ORLANDO",OK,73073,,7:00 AM - 7:00 PM,,8810448
"MULHALL COMMUNITY CENTER","118 BATY","",,"MULHALL",OK,73063,,7:00 AM - 7:00 PM,,8810450
"BANNER BAPTIST CHURCH","13635 ST HWY 76","",,"LINDSAY",OK,73052,,7:00 AM - 7:00 PM,,8810470
"COLE COMMUNITY CENTER","26887 MAIN ST","",,"COLE",OK,73010,,7:00 AM - 7:00 PM,,8810481
"BTW COMMUNITY CENTER","100 NW JAMAICA","",,"IDABEL",OK,74745,,7:00 AM - 7:00 PM,,8810574
"OLD CITY HALL","207 S. CENTRAL","",,"IDABEL",OK,74745,,7:00 AM - 7:00 PM,,8810487
"PLEASANT HILL METHODIST CHURCH","SEC15-T09S-R25E","",,"HAWORTH",OK,74740,,7:00 AM - 7:00 PM,,8810490
"BETHEL VOLUNTEER FIRE DEPT.","BETHEL COMMUNITY","",,"BETHEL",OK,74724,,7:00 AM - 7:00 PM,,8810496
"RUFE COMMUNITY BUILDING","RUFE COMMUNITY","",,"RUFE",OK,74755,,7:00 AM - 7:00 PM,,8810506
"VIVIAN AREA FIRE DEPARTMENT","6 MI W ON #9 HIGHWAY (VIVIAN)","",,"EUFAULA",OK,74432,,7:00 AM - 7:00 PM,,8810516
"MUNICIPAL COMPLEX ROOM","203 E. CENTRAL","",,"FAIRVIEW",OK,73737,,7:00 AM - 7:00 PM,,8810531
"MARSHALL COUNTY WATER CORP.","400 E. MAIN","",,"MADILL",OK,73446,,7:00 AM - 7:00 PM,,8810534
"BAPTIST VILLAGE","10777 VILLAGE DR.","",,"MADILL",OK,73446,,7:00 AM - 7:00 PM,,8810536
"TEXOMA AUX. FIRE DIST. BLDG.","10978 PARKVIEW DR.","",,"KINGSTON",OK,73439,,7:00 AM - 7:00 PM,,8810538
"AMERICAN LEGION POST #240","MAIN & W FERRY ST","",,"SALINA",OK,74365,,7:00 AM - 7:00 PM,,8810548
"PENSACOLA COMMUNITY BUILDING","38750 MAIN ST","",,"PENSACOLA",OK,74301,,7:00 AM - 7:00 PM,,8810552
"DOUGHERTY SENIOR CITIZENS","17 MAIN ST.","",,"DOUGHERTY",OK,73032,,7:00 AM - 7:00 PM,,8810007
"TIMOTHY BAPTIST CHURCH","5530 WEST OKMULGEE","",,"MUSKOGEE",OK,74401,,7:00 AM - 7:00 PM,,8810024
"NEW HOPE ASSEMBLY OF GOD","110 W 58 ST S","",,"MUSKOGEE",OK,74401,,7:00 AM - 7:00 PM,,8810036
"FRONTIER SCHOOL","17750 VALLEY ON HWY 15","SCHOOL BOARD ROOM",,"RED ROCK",OK,74651,,7:00 AM - 7:00 PM,,8810044
"PERRY MUNICIPAL COURT BLDG.","729 CEDAR ST","",,"PERRY",OK,73077,,7:00 AM - 7:00 PM,,8810045
"MORRISON FIRE STATION","304 RAILROAD AVE","",,"MORRISON",OK,73061,,7:00 AM - 7:00 PM,,8810048
"FIRST CHURCH OF GOD","408 S. PINE","",,"NOWATA",OK,74048,,7:00 AM - 7:00 PM,,8810051
"ALLUWE COMMUNITY CENTER","CITY OF ALLUWE","",,"ALLUWE",OK,74048,,7:00 AM - 7:00 PM,,8810052
"OKFUSKEE COUNTY HISTORY CENTER","407 W. BROADWAY","",,"OKEMAH",OK,74859,,7:00 AM - 7:00 PM,,8813823
"WELEETKA SCHOOL LIBRARY","6TH & SENECA","",,"WELEETKA",OK,74880,,7:00 AM - 7:00 PM,,8810718
"FOREST HILLS CHRISTIAN CHURCH","2121 N MACARTHUR","",,"OKLAHOMA CITY",OK,73127,,7:00 AM - 7:00 PM,,8811811
"BETHANY CHURCH OF CHRIST","3301 N ROCKWELL","",,"BETHANY",OK,73008,,7:00 AM - 7:00 PM,,8811809
"EDMOND CHURCH OF CHRIST","801 S BRYANT AVE","",,"EDMOND",OK,73034,,7:00 AM - 7:00 PM,,8811850
"JONES ASSEMBLY OF GOD CHURCH","5TH ST AND SULLIVAN ST","",,"JONES",OK,73049,,7:00 AM - 7:00 PM,,8811665
"EASTSIDE CHURCH OF CHRIST","916 S DOUGLAS BLVD","",,"MIDWEST CITY",OK,73130,,7:00 AM - 7:00 PM,,8811673
"MILLWOOD FIELD HOUSE","6738 N MARTIN LUTHER KING AVE","",,"OKLAHOMA CITY",OK,73111,,7:00 AM - 7:00 PM,,8811680
"WILDEWOOD BAPTIST CHURCH","60 NE 63RD ST","",,"OKLAHOMA CITY",OK,73120,,7:00 AM - 7:00 PM,,8811781
"EDMOND TRINITY CHRISTIAN CH","1400 NW 178TH ST","",,"EDMOND",OK,73034,,7:00 AM - 7:00 PM,,8811895
"BANCFIRST","4500 W MEMORIAL RD","",,"OKLAHOMA CITY",OK,73126-0788,,7:00 AM - 7:00 PM,,8811891
"NORTHPARK MALL","12100 N MAY AVE","",,"OKLAHOMA CITY",OK,73156,,7:00 AM - 7:00 PM,,8811897
"CORNERSTONE FELLOWSHIP","11300 N COUNCIL RD","",,"OKLAHOMA CITY",OK,73162,,7:00 AM - 7:00 PM,,8811865
"N MACARTHUR CHURCH OF CHRIST","9300 N MACARTHUR BLVD","",,"OKLAHOMA CITY",OK,73132,,7:00 AM - 7:00 PM,,8811888
"OKC FIRST CH OF THE NAZARENE","4400 NORTHWEST EXPY","",,"OKLAHOMA CITY",OK,73116,,7:00 AM - 7:00 PM,,8811884
"WESTERN HEIGHTS RESOURCE CTR","8005 SW 44TH ST","",,"OKLAHOMA CITY",OK,73179,,7:00 AM - 7:00 PM,,8811698
"RIOS DE AGVA VIVA","1421 N MERIDIAN AVE","",,"OKLAHOMA CITY",OK,73127,,7:00 AM - 7:00 PM,,8811701
"WARR ACRES COMMUNITY CENTER","4301 N ANN ARBOR AVE","",,"OKLAHOMA CITY",OK,73122,,7:00 AM - 7:00 PM,,8810304
"SPRINGDALE BAPTIST CHURCH","3900 NW 50TH ST","",,"OKLAHOMA CITY",OK,73112,,7:00 AM - 7:00 PM,,8810306
"LAKESIDE UNITED METHODIST CH","2925 NW 66TH ST","",,"OKLAHOMA CITY",OK,73116,,7:00 AM - 7:00 PM,,8811885
"NORTHWEST BAPTIST CHURCH","3030 NW 23RD ST","",,"OKLAHOMA CITY",OK,73107,,7:00 AM - 7:00 PM,,8811770
"1ST FREE METHODIST CHURCH","1900 NW 13TH ST","",,"OKLAHOMA CITY",OK,73106,,7:00 AM - 7:00 PM,,8811772
"1ST FREE METHODIST CHURCH","1900 NW 13TH ST","",,"OKLAHOMA CITY",OK,73106,,7:00 AM - 7:00 PM,,8811707
"NORTHWEST BAPTIST CHURCH","3030 NW 23RD ST","",,"OKLAHOMA CITY",OK,73107,,7:00 AM - 7:00 PM,,8811771
"CENTRAL PRESBYTERIAN CHURCH","5101 N MAY AVE","",,"OKLAHOMA CITY",OK,73112,,7:00 AM - 7:00 PM,,8811709
"CROWN HEIGHTS CHRISTIAN CHURCH","4020 N WESTERN AVE","",,"OKLAHOMA CITY",OK,73118,,7:00 AM - 7:00 PM,,8811777
"SOUTHERN HILLS BAPTIST CHURCH","8601 S PENNSYLVANIA","",,"OKLAHOMA CITY",OK,73159,,7:00 AM - 7:00 PM,,8811738
"COMMUNITY OF FAITH CHURCH","1815 S CENTRAL AVE","",,"OKLAHOMA CITY",OK,73165,,7:00 AM - 7:00 PM,,8811826
"PROSPECT BAPTIST CHURCH","2809 N MISSOURI AVE","",,"OKLAHOMA CITY",OK,73111,,7:00 AM - 7:00 PM,,8811745
"PROSPECT BAPTIST CHURCH","2809 N MISSOURI AVE","",,"OKLAHOMA CITY",OK,73111,,7:00 AM - 7:00 PM,,8811746
"METRO TECHNOLOGY CENTERS","4901 S BRYANT AVE","",,"OKLAHOMA CITY",OK,73111,,7:00 AM - 7:00 PM,,8811838
"DEL CITY 1ST SOUTHERN BAPTIST","6400 S SOONER RD","",,"DEL CITY",OK,73135,,7:00 AM - 7:00 PM,,8811839
"UGANDA MARTYRS CHURCH","303 E 3RD ST","",,"OKMULGEE",OK,74447,,7:00 AM - 7:00 PM,,8810111
"CALVARY BAPTIST CHURCH","1327 E 13 ST","",,"OKMULGEE",OK,74447,,7:00 AM - 7:00 PM,,8810119
"DEWAR CITY HALL","507 S BROADWAY ST","",,"DEWAR",OK,74431,,7:00 AM - 7:00 PM,,8810120
"TWIN HILLS SCHOOL","7225 TWIN HILLS RD","",,"OKMULGEE",OK,74447,,7:00 AM - 7:00 PM,,8810128
"NUYAKA FIRST BAPTIST CHURCH","2940 LINCOLN RD","",,"OKMULGEE",OK,74447,,7:00 AM - 7:00 PM,,8810129
"OKMULGEE COUNTY FAIR GROUNDS","1901 N OKLAHOMA AVE","",,"OKMULGEE",OK,74447,,7:00 AM - 7:00 PM,,8810697
"LIBERTY BAPTIST CHURCH","23570 LIBERTY RD","",,"MORRIS",OK,74445,,7:00 AM - 7:00 PM,,8810130
"CALVARY BAPTIST CHURCH","620 E 15 ST","",,"PAWHUSKA",OK,74056,,7:00 AM - 7:00 PM,,8810597
"ASSEMBLY OF GOD CHURCH","412HIGHLAND AVENUE","",,"WYNONA",OK,74084,,7:00 AM - 7:00 PM,,8810141
"NINE TRIBES TOWER","205 B NE","",,"MIAMI",OK,74354,,7:00 AM - 7:00 PM,,8810156
"MIAMI FIRST BAPTIST CHURCH","1ST & A SW","",,"MIAMI",OK,74354,,7:00 AM - 7:00 PM,,8810158
"MIAMI CIVIC CENTER","129 5TH AVE. NW","",,"MIAMI",OK,74354,,7:00 AM - 7:00 PM,,8810160
"FIRST NATIONAL BANK NORTH MAIN","1749 NORTH MAIN","",,"MIAMI",OK,74354,,7:00 AM - 7:00 PM,,8810161
"PEORIA COMMUNITY CENTER","264 E MAIN STREET","",,"PEORIA",OK,74363,,7:00 AM - 7:00 PM,,8810164
"EASTSIDE BAPTIST CHURCH","10051 S 652 RD","",,"MIAMI",OK,74354,,7:00 AM - 7:00 PM,,8810165
"FAIRLAND ASSEMBLY OF GOD","350 SOUTH MAIN","",,"FAIRLAND",OK,74343,,7:00 AM - 7:00 PM,,8810167
"RALSTON CITY HALL","605 E MAIN STREET","",,"RALSTON",OK,74650,,7:00 AM - 7:00 PM,,8810174
"FIRST ASSEMBLY OF GOD","508 W MIAMI STREET","",,"CLEVELAND",OK,74020,,7:00 AM - 7:00 PM,,8810724
"CUSHING CITY HALL","100 JUDY ADAMS BLVD.","",,"CUSHING",OK,74023,,7:00 AM - 7:00 PM,,8810605
"J I STIPE CENTER","801 N 9","",,"MC ALESTER",OK,74501,,7:00 AM - 7:00 PM,,8810204
"FIRST BAPTIST CHURCH","100 E WASHINGTON","",,"MC ALESTER",OK,74501,,7:00 AM - 7:00 PM,,8810205
"CENTRAL CHRISTIAN CHURCH","920 CENTRAL AVE","",,"MC ALESTER",OK,74501,,7:00 AM - 7:00 PM,,8810278
"HARTSHORNE FIRST CHRISTIAN CH","127 S 10","",,"HARTSHORNE",OK,74547,,7:00 AM - 7:00 PM,,8810747
"QUINTON CITY HALL (BOARD ROOM)","1020 NORTH MAIN","",,"QUINTON",OK,74561,,7:00 AM - 7:00 PM,,8810755
"PITTS CO CATTLEMANS ASSOC.","125 NEW BAKER RD","",,"MC ALESTER",OK,74501,,7:00 AM - 7:00 PM,,8810756
"PONTOTOC COUNTY AGRI PLEX #52","1700 N BROADWAY AVE","",,"ADA",OK,74820,,7:00 AM - 7:00 PM,,8810766
"MCLISH SCHOOL  ALUMNI BLDG #54","27050 CR 3590","",,"STONEWALL",OK,74871,,7:00 AM - 7:00 PM,,8810767
"GROVE SCHOOL","2800 N BRYAN","",,"SHAWNEE",OK,74804,,7:00 AM - 7:00 PM,,8810617
"WESLEY UNITED METHODIST CHURCH","302 E INDEPENDENCE","",,"SHAWNEE",OK,74804,,7:00 AM - 7:00 PM,,8810780
"TECUMSEH CITY HALL","114 N BROADWAY","",,"TECUMSEH",OK,74873,,7:00 AM - 7:00 PM,,8810789
"FINLEY COMMUNITY BUILDING","0000","",,"FINLEY",OK,74543,,7:00 AM - 7:00 PM,,8810802
"HONOBIA SENIOR & COMMUNITY CEN","HWY 144","",,"HONOBIA",OK,74549,,7:00 AM - 7:00 PM,,8810807
"CHURCH OF CHRIST","409 S LL MALES AVE","",,"CHEYENNE",OK,73628,,7:00 AM - 7:00 PM,,8810813
"CATOOSA COMMUNITY CENTER","105 E OAK","",,"CATOOSA",OK,74015,,7:00 AM - 7:00 PM,,8810823
"RURAL WATER DISTRICT NO. 7","20352 S 4230 ROAD","",,"CLAREMORE",OK,74019,,7:00 AM - 7:00 PM,,8810824
"NORTHWEST FIRE DISTRICT","6601 E. 400 RD.","",,"OOLOGAH",OK,74053,,7:00 AM - 7:00 PM,,8810826
"RURAL WATER DISTRICT NO. 3","13277 S. ASH STREET","",,"CLAREMORE",OK,74017,,7:00 AM - 7:00 PM,,8813255
"STONE CANYON VISITORS CENTER","7500 NORTH 177TH EAST AVENUE","",,"OWASSO",OK,74055,,7:00 AM - 7:00 PM,,8810625
"HILLDALE BAPTIST CHURCH","21085 S KEETONVILLE RD","",,"CLAREMORE",OK,74019,,7:00 AM - 7:00 PM,,8810834
"JOURNEY CHURCH","14992 U.S. 169 ","",,"OOLOGAH",OK,74053,,7:00 AM - 7:00 PM,,8810836
"OOLOGAH ASSEMBLY OF GOD CHURCH","13462 US HIGHWAY 169","",,"OOLOGAH",OK,74053,,7:00 AM - 7:00 PM,,8810838
"1ST BAPTIST CH OF VERDIGRIS","25505 S 4110 RD","",,"CLAREMORE",OK,74019,,7:00 AM - 7:00 PM,,8810839
"FIRST BAPTIST CHURCH","420 REID ST","",,"SEMINOLE",OK,74868,,7:00 AM - 7:00 PM,,8810842
"BOWLEGS TOWN HALL","120 SOUTH MAIN","",,"BOWLEGS",OK,74830,,7:00 AM - 7:00 PM,,8823537
"CROMWELL FIRST BAPTIST CHURCH","401 N SHAWNEE","",,"CROMWELL",OK,74837,,7:00 AM - 7:00 PM,,8810851
"MISSION HOME BAPTIST CHURCH","3 MI, N OF WEWOKA ON OLD 56","",,"WEWOKA",OK,74884,,7:00 AM - 7:00 PM,,8810853
"MULDROW PUBLIC LIBRARY PP","711 W. SHAWNTEL SMITH BLVD.","",,"MULDROW",OK,74948,,7:00 AM - 7:00 PM,,8810857
"LIBERTY SCHOOL PP","476490 E. 1060 RD","",,"MULDROW",OK,74948,,7:00 AM - 7:00 PM,,8810860
"VIAN NUTRITION CENTER","111 S. BLACKSTONE","",,"VIAN",OK,74962,,7:00 AM - 7:00 PM,,8810722
"BETHESDA CHURCH OF GOD","201 SOUTH 15TH ST","",,"DUNCAN",OK,73533,,7:00 AM - 7:00 PM,,8810881
"HIGHLAND PARK BAPTIST CHURCH","1002 S 10 ST","",,"DUNCAN",OK,73533,,7:00 AM - 7:00 PM,,8810882
"GARLAND SMITH PUBLIC LIBRARY","702 W. MAIN","",,"MARLOW",OK,73055,,7:00 AM - 7:00 PM,,8814305
"VELMA BAPTIST CHURCH","1 & MAIN ST","",,"VELMA",OK,73491,,7:00 AM - 7:00 PM,,8810893
"EMPIRE COMMUNITY CENTER","BROCK WAGNON RD","EMPIRE CITY",,"DUNCAN",OK,73533,,7:00 AM - 7:00 PM,,8811928
"EMPIRE COMMUNITY CENTER","BROCK WAGNON RD","EMPIRE CITY",,"DUNCAN",OK,73533,,7:00 AM - 7:00 PM,,8810898
"TEXAS COUNTY ACTIVITY CENTER","5TH & SUNSET","",,"GUYMON",OK,73942,,7:00 AM - 7:00 PM,,8810905
"TEXHOMA COMMUNITY CENTER","203 N 2ND STREET","",,"TEXHOMA",OK,73949,,7:00 AM - 7:00 PM,,8810907
"GETHSEMANE BAPTIST CHURCH","727 E 56 ST N","",,"TULSA",OK,74106,,7:00 AM - 7:00 PM,,8810921
"MT ZION BAPTIST CHURCH","419 N ELGIN AVE","",,"TULSA",OK,74120,,7:00 AM - 7:00 PM,,8810928
"TULSA JOB CORPS CENTER","1133 N LEWIS AVE","",,"TULSA",OK,74110,,7:00 AM - 7:00 PM,,8810931
"OWEN ELEMENTARY SCHOOL","1132 N VANDALIA AVE","",,"TULSA",OK,74115,,7:00 AM - 7:00 PM,,8810633
"T W U LOCAL NO 514","11929 E PINE ST","",,"TULSA",OK,74116,,7:00 AM - 7:00 PM,,8810675
"SHERIDAN CHRISTIAN CENTER","205 S SHERIDAN RD","",,"TULSA",OK,74112,,7:00 AM - 7:00 PM,,8825843
"HOLIDAY INN EXPRESS","18725 E ADMIRAL PL","",,"TULSA",OK,74015,,7:00 AM - 7:00 PM,,8810949
"PLAINVIEW BAPTIST CHURCH","14531 E 21 ST","",,"TULSA",OK,74134,,7:00 AM - 7:00 PM,,8811754
"COOPER ELEMENTARY SCHOOL","1808 S 123 E AVE","",,"TULSA",OK,74128,,7:00 AM - 7:00 PM,,8810956
"SOUTH LAKEWOOD BAPTIST CHURCH","6110 E 20 ST","",,"TULSA",OK,74112,,7:00 AM - 7:00 PM,,8810958
"BROOKSIDE LIBRARY","1207 E 45 PL","",,"TULSA",OK,74105,,7:00 AM - 7:00 PM,,8810971
"CHURCH OF ST MARY","1347 E 49 PL","",,"TULSA",OK,74105,,7:00 AM - 7:00 PM,,8810726
"JOHN KNOX PRESBYTERIAN CHURCH","2929 E 31 ST","",,"TULSA",OK,74105,,7:00 AM - 7:00 PM,,8810974
"ST MATTHEWS UNITED METH CH","12424 E 31 ST","",,"TULSA",OK,74146,,7:00 AM - 7:00 PM,,8823689
"TOWN VILLAGE","8222 S YALE AVE","",,"TULSA",OK,74137,,7:00 AM - 7:00 PM,,8811010
"NEW HAVEN UNITED METHODIST CH","5603 S NEW HAVEN AVE","",,"TULSA",OK,74135,,7:00 AM - 7:00 PM,,8810684
"TULSA BIBLE CHURCH","5838 S SHERIDAN RD","",,"TULSA",OK,74145,,7:00 AM - 7:00 PM,,8811015
"ASBURY UNITED METHODIST CHURCH","6767 S MINGO RD","TULSA",,"TULSA",OK,74133,,7:00 AM - 7:00 PM,,8811026
"SOUTHWEST BAPTIST CHURCH","5304 S 33 W AVE ","",,"TULSA",OK,74107,,7:00 AM - 7:00 PM,,8811032
"ORU MABEE CENTER","7777 S LEWIS AVE","",,"TULSA",OK,74171,,7:00 AM - 7:00 PM,,8811051
"ST JAMES UNITED METHO CHURCH","5050 E 111 ST SOUTH","",,"TULSA",OK,74137,,7:00 AM - 7:00 PM,,8811053
"LEONARD FIRST BAPTIST CHURCH","15711 E 168 ST SOUTH","(157 ST & HWY 64 OR 167 ST S)",,"LEONARD",OK,74043,,7:00 AM - 7:00 PM,,8811062
"RIVERVIEW BAPTIST CHURCH","13201 S MEMORIAL DR","",,"BIXBY",OK,74008,,7:00 AM - 7:00 PM,,8811064
"NIENHUIS PARK COMMUNITY CTR","3201 N 9 ST","",,"BROKEN ARROW",OK,74012,,7:00 AM - 7:00 PM,,8810720
"ST FRANCIS HALL","301 S 9 ST","",,"BROKEN ARROW",OK,74012,,7:00 AM - 7:00 PM,,8810650
"SOUTH BROKEN ARROW LIBRARY","3600 S CHESTNUT AVE","",,"BROKEN ARROW",OK,74011,,7:00 AM - 7:00 PM,,8811085
"COLLINSVILLE COMMUNITY CHURCH","1400 W OAK ST","",,"COLLINSVILLE",OK,74021,,7:00 AM - 7:00 PM,,8811090
"FIRST BAPTIST CHURCH","36 E MAIN ST","",,"GLENPOOL",OK,74033,,7:00 AM - 7:00 PM,,8811096
"BAPTIST RETIREMENT CENTER","7410 N 127 E AVE","",,"OWASSO",OK,74055,,7:00 AM - 7:00 PM,,8811099
"NEW LIFE ASSEMBLY OF GOD","12215 N GARNETT RD","",,"COLLINSVILLE",OK,74021,,7:00 AM - 7:00 PM,,8811726
"KEYSTONE SCHOOL","23810 W HIGHWAY 51","",,"SAND SPRINGS",OK,74063,,7:00 AM - 7:00 PM,,8811116
"OAK GROVE FIRE DEPT.","395 S 273 E AVE","",,"CATOOSA",OK,74015,,7:00 AM - 7:00 PM,,8810079
"OAK GROVE FIRE DEPT.","395 S 273 E AVE","",,"CATOOSA",OK,74015,,7:00 AM - 7:00 PM,,8810080
"COUNTY LINE BAPTIST CHURCH","4575 S 193 E AVE","",,"BROKEN ARROW",OK,74014,,7:00 AM - 7:00 PM,,8810090
"CHRISTIAN FAMILY CENTER","19303 E 121 ST S","",,"BROKEN ARROW",OK,74014,,7:00 AM - 7:00 PM,,8810099
"HIGHLAND PARK BAPTIST CHURCH","300 SE WASHINGTON BLVD","",,"BARTLESVILLE",OK,74006,,7:00 AM - 7:00 PM,,8811120
"OGLESBY ASSEMBLY OF GOD","401471 W 2700 RD, OGLESBY","",,"OGLESBY",OK,74061,,7:00 AM - 7:00 PM,,8811135
"DILL CITY BANK","701 S. MCDONALD","",,"DILL CITY",OK,73641,,7:00 AM - 7:00 PM,,8810654
"COLONY COMMUNITY BUILDING","MAIN STREET","",,"COLONY",OK,73021,,7:00 AM - 7:00 PM,,8810655
"HOMESTEAD RETIREMENT CENTER","901 HOMESTEAD DRIVE","",,"ALVA",OK,73717,,7:00 AM - 7:00 PM,,8825243
"LIGHTHOUSE CHURCH STONEY POINT","LIGHTHOUSE CHURCH","HWY 51 WEST",,"STILWELL",OK,74960,,7:00 AM - 7:00 PM,,8811617
"CHEWEY COMMUNITY BUILDING","RIVER RD AND CHEWEY RD","",,"WATTS",OK,74964,,7:00 AM - 7:00 PM,,8811625
"CHEROKEE HIGH SCHOOL","CHEROKEE H.S. AUDITORIUM LOBBY","412 E 5 ST",,"CHEROKEE",OK,73728,,7:00 AM - 7:00 PM,,8811586
"CARMEN SENIOR CITIZENS BLDG","AFTER 55 CLUB","424 W MAIN ST",,"CARMEN",OK,73726,,7:00 AM - 7:00 PM,,8811587
"HELENA SR CITIZENS CENTER","HELENA SR CITIZENS CENTER","300 NORTH MAIN ST",,"HELENA",OK,73741,,7:00 AM - 7:00 PM,,8811588
"PUBLIC SERVICE OF OKLAHOMA","801 W LIBERTY RD","",,"ATOKA",OK,74525,,7:00 AM - 7:00 PM,,8811589
"TUSHKA COMMUNITY BUILDING","101 SE 1 ST","",,"TUSHKA",OK,74525,,7:00 AM - 7:00 PM,,8811162
"BILL COBEN COMMUNITY CENTER","890 E. HWY 3","",,"LANE",OK,74555,,7:00 AM - 7:00 PM,,8810512
"TURPIN SR. CITIZENS CENTER","CORNER OF HILL & MAIN","BOX 322",,"TURPIN",OK,73950,,7:00 AM - 7:00 PM,,8811166
"RURAL WATER DIST. 1 OFFICE","100 S BROADWAY","",,"CARTER",OK,73627,,7:00 AM - 7:00 PM,,8811874
"METHODIST CHURCH","320 S MAGNOLIA","",,"ERICK",OK,73645,,7:00 AM - 7:00 PM,,8811168
"GEARY CHRISTIAN CHURCH","205 SOUTH BLAINE","",,"GEARY",OK,73040,,7:00 AM - 7:00 PM,,8810665
"MAPLE LAWN MANOR","800 ARAPAHO","",,"HYDRO",OK,73048,,7:00 AM - 7:00 PM,,8811171
"EAGLE CITY CHRISTIAN CHURCH","FIRST CHRISTIAN CHURCH","EAGLE CITY",,"CANTON",OK,73724,,7:00 AM - 7:00 PM,,8811633
"CEMENT HOUSING COMMUNITY BLDG","122 WEST FIRST STREET","",,"CEMENT",OK,73017,,7:00 AM - 7:00 PM,,8811267
"CYRIL BAPTIST CHURCH","213 WEST MAIN","",,"CYRIL",OK,73029,,7:00 AM - 7:00 PM,,8810673
"APACHE HOUSING AUTHORITY","402 NORTH OAK STREET","",,"APACHE",OK,73006,,7:00 AM - 7:00 PM,,8811268
"COGAR METHODIST CHURCH","16016 CS 2720","",,"MINCO",OK,73059,,7:00 AM - 7:00 PM,,8811273
"BETHEL BAPTIST CHURCH","BRADFORD FAMILY LIFE CENTER","4901 N SARA ROAD",,"YUKON",OK,73099,,7:00 AM - 7:00 PM,,8811285
"TOWN & COUNTRY CHRISTIAN CHURC","2200 S CORNWELL DR","",,"YUKON",OK,73099,,7:00 AM - 7:00 PM,,8811287
"STABLE ROCK BAPTIST CHURCH","1301 S CEMETERY ROAD","",,"YUKON",OK,73099,,7:00 AM - 7:00 PM,,8821226
"WESTPOINT CHRISTIAN CHURCH","1600 S RICHLAND ROAD","",,"YUKON",OK,73099,,7:00 AM - 7:00 PM,,8811181
"ST. JOHN'S PARISH HALL","6TH & COLORADO","",,"OKARCHE",OK,73062,,7:00 AM - 7:00 PM,,8811418
"LONE GROVE 1ST BAPTIST CHURCH","16773 HWY 70","",,"LONE GROVE",OK,73443,,7:00 AM - 7:00 PM,,8811435
"CALVARY ASSEMBLY GOD MAIN BLDG","1005 E FIRST ST","",,"TAHLEQUAH",OK,74464,,7:00 AM - 7:00 PM,,8811445
"BRIGGS SCHOOL","17210 S 569 RD","",,"TAHLEQUAH",OK,74464,,7:00 AM - 7:00 PM,,8811454
"NORWOOD BAPTIST CHURCH","20980 HWY 80","",,"HULBERT",OK,74441,,7:00 AM - 7:00 PM,,8811187
"PEGGS COMMUNITY CENTER","11050 E. HICKORY AVE.","",,"PEGGS",OK,74452,,7:00 AM - 7:00 PM,,8811456
"WELLING GENERAL BAPT.CHURCH","20445 S. 560 RD.","ACTIVITY BUILDING",,"WELLING",OK,74471,,7:00 AM - 7:00 PM,,8811460
"PEGGS PENTECOSTAL CHURCH","8198 N 450 RD","",,"HULBERT",OK,74441,,7:00 AM - 7:00 PM,,8811462
"CHURCH OF THE NAZARENE","100 N. H. STREET","",,"HUGO",OK,74743,,7:00 AM - 7:00 PM,,8811876
"WASHINGTON COMMUNITY CENTER","OLD WASHINGTON SCHOOL","CAFETERIA 300 W CENTRAL",,"HUGO",OK,74743,,7:00 AM - 7:00 PM,,8811469
"SAWYER TOWN HALL","HWY 70E .2 MI N ON HWY 147","",,"SAWYER",OK,74756,,7:00 AM - 7:00 PM,,8811474
"UNIVERSITY LUTHERAN CHURCH","914 ELM","",,"NORMAN",OK,73072,,7:00 AM - 7:00 PM,,8830770
"MNTC SOUTH PENN CAMPUS","13301 S PENNSYLVANIA","",,"OKLAHOMA CITY",OK,73170,,7:00 AM - 7:00 PM,,8826060
"MOORE PUBLIC LIBRARY","225 S HOWARD","",,"MOORE",OK,73160,,7:00 AM - 7:00 PM,,8811500
"WILDWOOD COMMUNITY CHURCH","1501 24TH AVE NE","",,"NORMAN",OK,73071,,7:00 AM - 7:00 PM,,8810682
"CHRIST THE KING PRESBY. CHURCH","2373 CLASSEN BLVD","",,"NORMAN",OK,73071,,7:00 AM - 7:00 PM,,8810706
"LAKESIDE CHURCH OF GOD","4400 E ALAMEDA","",,"NORMAN",OK,73026,,7:00 AM - 7:00 PM,,8811505
"ST. STEPHENS METHODIST CHURCH","1801 W. BROOKS","BROOKS & MCGEE",,"NORMAN",OK,73069,,7:00 AM - 7:00 PM,,8811197
"HILLTOP BAPTIST CHURCH","11710 E STELLA RD","",,"NORMAN",OK,73026,,7:00 AM - 7:00 PM,,8811527
"HIGHLAND BAPTIST CHURCH","2425 SE 4TH ST.","",,"MOORE",OK,73160,,7:00 AM - 7:00 PM,,8811535
"CONCORD MISSION.BAPTIST CHURCH","1500 N STUBBEMAN","",,"NORMAN",OK,73069,,7:00 AM - 7:00 PM,,8810689
"GRACE PLACE BAPTIST CHURCH","9300 ANDERSON RD","",,"OKLAHOMA CITY",OK,73165,,7:00 AM - 7:00 PM,,8811539
"FIRST ASSEMBLY OF GOD CHURCH","2500 E LINDSEY ST","",,"NORMAN",OK,73071,,7:00 AM - 7:00 PM,,8811541
"OLNEY SCHOOL LUNCHROOM","OLNEY SCHOOL LUNCHROOM","EW 175 SCHOOL ROAD",,"OLNEY",OK,74538,,7:00 AM - 7:00 PM,,8811200
"FIRST ASSEMBLY OF GOD","2201 NW 82 ST","",,"LAWTON",OK,73505,,7:00 AM - 7:00 PM,,8811555
"LAWTON HEIGHTS CHURCH","1514 NW ANDREWS","",,"LAWTON",OK,73507,,7:00 AM - 7:00 PM,,8811561
"MACARTHUR JR HIGH SCHOOL","510 NE 45 ST","",,"LAWTON",OK,73507,,7:00 AM - 7:00 PM,,8811204
"FLETCHER COMMUNITY CENTER","504 W COLE","",,"FLETCHER OK ",OK,73541,,7:00 AM - 7:00 PM,,8831290
"UNION VALLEY BAPTIST CHURCH","COOKIETOWN, OKLAHOMA","ROUTE 2 BOX 44",,"RANDLETT",OK,73562,,7:00 AM - 7:00 PM,,8811304
"DEVOL FIRST BAPTIST CHURCH","DEVOL FIRST BAPTIST CHURCH","",,"DEVOL",OK,73531,,7:00 AM - 7:00 PM,,8811306
"TRINITY BAPTIST CHURCH","335 N SMITH ST","",,"VINITA",OK,74301,,7:00 AM - 7:00 PM,,8811312
"KETCHUM MUNICIPAL BLDG","124 E BROADWAY AVE","",,"KETCHUM",OK,74349,,7:00 AM - 7:00 PM,,8811318
"PRETTY WATER SCHOOL","15223 W. 81ST.SO,SAPULPA","",,"SAPULPA",OK,74066,,7:00 AM - 7:00 PM,,8811210
"RURAL ROOSTER SHOP","44337 W. 51ST., SILVER CITY","",,"JENNINGS",OK,74038,,7:00 AM - 7:00 PM,,8811333
"MID AMERICA STOCK YARD","36970 W HWY 16, BRISTOW","",,"BRISTOW",OK,74010,,7:00 AM - 7:00 PM,,8811336
"PICKETT PRAIRIE BAPTIST CHURCH","11330 W 181 ST SO","",,"SAPULPA",OK,74066,,7:00 AM - 7:00 PM,,8811340
"ARAPAHO COMMUNITY BUILDING","201 SOUTH 7TH","",,"ARAPAHO",OK,73620,,7:00 AM - 7:00 PM,,8811348
"BUTLER BAPTIST CHURCH","64990 E 335 RD","",,"JAY",OK,74346,,7:00 AM - 7:00 PM,,8811363
"LEACH FIRST BAPTIST CHURCH","5804 US HWY 412 ALT","",,"ROSE",OK,74364,,7:00 AM - 7:00 PM,,8811374
"LEEDEY COMMUNITY BUILDING","MAIN STREET","",,"LEEDEY",OK,73654,,7:00 AM - 7:00 PM,,8811379
"ARNETT TOWN HALL","214 E RENFROW","",,"ARNETT",OK,73832,,7:00 AM - 7:00 PM,,8811386
"SHATTUCK CHAMBER OF COMMERCE","119 S MAIN STREET","",,"SHATTUCK",OK,73858,,7:00 AM - 7:00 PM,,8810662
"CATESBY COMMUNITY CENTER","171998 E COUNTY ROAD 36","",,"GAGE",OK,73843,,7:00 AM - 7:00 PM,,8811218
"HARMON NAZARENE CHURCH","59895 S COUNTY ROAD 193","",,"ARNETT",OK,73832,,7:00 AM - 7:00 PM,,8811390
"WILLOW ROAD CHRISTIAN CHURCH","729 W. WILLOW","",,"ENID",OK,73701,,7:00 AM - 7:00 PM,,8811399
"NORTH ENID TOWN HALL","220 REDWOOD","",,"N.ENID",OK,73701,,7:00 AM - 7:00 PM,,8811222
"AUTRY TECHNOLOGY CENTER","1201 W WILLOW RD","",,"ENID",OK,73703,,7:00 AM - 7:00 PM,,8811224
"CHISHOLM HIGH SCHOOL","4018 W CARRIER RD","",,"ENID",OK,73703,,7:00 AM - 7:00 PM,,8811408
"CARRIER CONGREGATIONAL CHURCH","HWY 45 & 5TH STREET","",,"CARRIER",OK,73727,,7:00 AM - 7:00 PM,,8811409
"WYNNEWOOD SENIOR CITIZEN CNTR","804 E. ROBERT S. KERR","",,"WYNNEWOOD",OK,73098,,7:00 AM - 7:00 PM,,8810223
"PAOLI SENIOR CITIZEN CENTER","408 W. DAVIS","",,"PAOLI",OK,73074,,7:00 AM - 7:00 PM,,8810224
"STRATFORD HOUSING AUTH. BLDG.","100 THOMPSON DR.","",,"STRATFORD",OK,74872,,7:00 AM - 7:00 PM,,8810225
"MICHIGAN AVE BAPTIST CHURCH","728 MICHIGAN AVE","",,"CHICKASHA",OK,73018,,7:00 AM - 7:00 PM,,8810230
"COLLEGE HEIGHTS BAPTIST CHURCH","FELLOWSHIP HALL, 1202 W GRAND","",,"CHICKASHA",OK,73018,,7:00 AM - 7:00 PM,,8810231
"MEDFORD SCHOOL TEACHER LOUNGE","301 N. MAIN","",,"MEDFORD",OK,73759,,7:00 AM - 7:00 PM,,8810252
"VINSON COMMUNITY BUILDING","VINSON COMMUNITY BUILDING","",,"VINSON",OK,73571,,7:00 AM - 7:00 PM,,8810266
"LEQUIRE FIREHOUSE","SOUTH SIDE, HWY. 31","",,"LEQUIRE",OK,74943,,7:00 AM - 7:00 PM,,8810281
"STIGLER HIGH SCHOOL TECH CTR.","1300 N.W. 7TH ST.","",,"STIGLER",OK,74462,,7:00 AM - 7:00 PM,,8810288
"ATWOOD NEW FIRE HOUSE","21 N 4TH","",,"ATWOOD",OK,74827,,7:00 AM - 7:00 PM,,8810296
"GERTY COMMUNITY BUILDING","406 ELDER AVE","",,"GERTY",OK,74531,,7:00 AM - 7:00 PM,,8810299
"BLAIR COMMUNITY BUILDING","116 W. MAIN ST.","",,"BLAIR",OK,73526,,7:00 AM - 7:00 PM,,8810310
"RINGLING COMMUNITY BUILDING","105 E. MAIN","",,"RINGLING",OK,73456,,7:00 AM - 7:00 PM,,8810324
"MANNSVILLE  METHODIST CHURCH","602 E CHICKASAW ST","",,"MANNSVILLE",OK,73447,,7:00 AM - 7:00 PM,,8826062
"MILL CREEK COMMUNITY CENTER","105 E. MAIN STREET","",,"MILL CREEK",OK,74856,,7:00 AM - 7:00 PM,,8810331
"PECKHAM FIRE DEPARTMENT","7151 W. CHURCH STREET","",,"NEWKIRK",OK,74647,,7:00 AM - 7:00 PM,,8810350
"PROVIDENCE BAPTIST CHURCH","1301 EAST BRADLEY","",,"PONCA CITY",OK,74601,,7:00 AM - 7:00 PM,,8810358
"BERMUDA KING OFFICE","23245 N 2860 RD","",,"KINGFISHER",OK,73750,,7:00 AM - 7:00 PM,,8810363
"OKARCHE HIGHSCHOOL","632 W. OKLAHOMA","",,"OKARCHE",OK,73762,,7:00 AM - 7:00 PM,,8810370
"LINN ENERGY","10529 E 790 RD","",,"KINGFISHER",OK,73750,,7:00 AM - 7:00 PM,,8810558
"HOBART HEAD START","400 N. RANDLETT","",,"HOBART",OK,73651,,7:00 AM - 7:00 PM,,8811231
"GOWEN COMMUNITY CENTER","113 MAIN ST.","",,"GOWEN",OK,74545,,7:00 AM - 7:00 PM,,8810384
"FT. COFFEE COMM. CENTER","16141 COMMUNITY RD.","",,"SPIRO",OK,74959,,7:00 AM - 7:00 PM,,8810395
"UNITE CHURCH ","18471 OLD POCOLA HWY-SPIRO","",,"SPIRO",OK,74959,,7:00 AM - 7:00 PM,,8810396
"AMERICAN LEGION POST #75","29957 MAIN ST","",,"BOKOSHE",OK,74930,,7:00 AM - 7:00 PM,,8811752
"CHURCH OF THE NAZARENE","CORNER OF GRAND AVE ","& HIGHLAND",,"WISTER",OK,74966,,7:00 AM - 7:00 PM,,8810406
"FIRST BAPTIST CHURCH","39497 TEXAS AVE.- HOWE","",,"HOWE",OK,74940,,7:00 AM - 7:00 PM,,8811682
"CARNEY COMMUNITY CENTER","101 S. HWY 177","",,"CARNEY",OK,74832,,7:00 AM - 7:00 PM,,8810425
"WARWICK SCHOOL BUILDING","1/2 E OF 66/177 JCT, 1/4 N.","",,"WARWICK",OK,74834,,7:00 AM - 7:00 PM,,8810427
"NAZARENE CHURCH","1724 E. 1ST AVE.","NORTH OF WILLIAM'S GROCERY",,"CHANDLER",OK,74834,,7:00 AM - 7:00 PM,,8810565
"CHANDLER LIBRARY","1021 MANVEL AVENUE","",,"CHANDLER",OK,74834,,7:00 AM - 7:00 PM,,8810428
"WATERLOO CHURCH OF NAZARENE","457 WEST WATERLOO ROAD","",,"EDMOND",OK,73003,,7:00 AM - 7:00 PM,,8810441
"WOODCREST BAPTIST CHURCH","11300 S. DOUGLAS BLVD.","",,"GUTHRIE",OK,73044,,7:00 AM - 7:00 PM,,8810446
"PURCELL NEW MISSION HOLINESS C","20578 180TH ST","",,"PURCELL",OK,73080,,7:00 AM - 7:00 PM,,8811922
"NEWCASTLE FREEWILL BAPTIST CH","3133 NW 24TH ST","",,"NEWCASTLE",OK,73065,,7:00 AM - 7:00 PM,,8811923
"GOLDSBY BAPTIST CHURCH","153 W CENTER RD","",,"GOLDSBY",OK,73093,,7:00 AM - 7:00 PM,,8811924
"TRINITY BAPTIST CHURCH","JUST E OF Y","",,"IDABEL",OK,74745,,7:00 AM - 7:00 PM,,8810488
"CHURCH OF CHRIST-BY PASS","HWY 259 S & BYPASS","",,"IDABEL",OK,74745,,7:00 AM - 7:00 PM,,8810489
"TOM CIVIC CENTER","TOM COMMUNITY","",,"TOM",OK,74740,,7:00 AM - 7:00 PM,,8810575
"BROKEN BOW PUBLIC LIBRARY","404 NORTH BROADWAY","",,"BROKEN BOW",OK,74728,,7:00 AM - 7:00 PM,,8810576
"PICKENS VOLUNTEER FIRE DEPT.","PICKENS COMMUNITY","",,"BATTIEST",OK,74722,,7:00 AM - 7:00 PM,,8810679
"WRIGHT CITY COMMUNITY BUILDING","WRIGHT CITY COMMUNITY","",,"WRIGHT CITY",OK,74766,,7:00 AM - 7:00 PM,,8810507
"EUFAULA MEMORIAL LIBRARY","301 S. FIRST ST, EUFAULA","",,"EUFAULA",OK,74432,,7:00 AM - 7:00 PM,,8810513
"SALEM BAPTIST CHURCH","397986 E. 1130 RD.","",,"HENRYETTA",OK,74437,,7:00 AM - 7:00 PM,,8810519
"OAKLAND CITY HALL","18972 ELIZABETH BLVD","",,"OAKLAND",OK,73446,,7:00 AM - 7:00 PM,,8810532
"CHOUTEAU CHURCH OF CHRIST","315 N 6 ST","",,"CHOUTEAU",OK,74337,,7:00 AM - 7:00 PM,,8810545
"LOCUST GROVE CITY HALL","109 E ROSS ST","",,"LOCUST GROVE",OK,74352,,7:00 AM - 7:00 PM,,8810549
"SULPHUR SENIOR CITIZENS","W 13TH & LINDSEY","",,"SULPHUR",OK,73086,,7:00 AM - 7:00 PM,,8810008
"ST. FRANCIS XAVIER CATHOLIC","1313 E 7TH","",,"SULPHUR",OK,73086,,7:00 AM - 7:00 PM,,8810010
"CENTRAL CHURCH OF CHRIST","402 W MAIN ST","",,"HASKELL",OK,74436,,7:00 AM - 7:00 PM,,8810022
"INDIAN CAPITAL TECH CENTER","2403 N 41 ST E","",,"MUSKOGEE",OK,74403,,7:00 AM - 7:00 PM,,8810025
"OKTAHA VOLUNTEER FIRE DEPT.","215 S. MAIN ST.","",,"OKTAHA",OK,74450,,7:00 AM - 7:00 PM,,8823394
"WEBBERS FALLS CITY HALL","HWY 64","",,"WEBBERS FALLS",OK,74470,,7:00 AM - 7:00 PM,,8810586
"PORUM SR CITIZENS CENTER","2ND ST","",,"PORUM",OK,74455,,7:00 AM - 7:00 PM,,8810040
"MARLAND COMMUNITY BLDG.","305 MAIN","",,"MARLAND",OK,74644,,7:00 AM - 7:00 PM,,8810043
"CTY CNTY LIBRARY","224 S PINE","",,"NOWATA",OK,74048,,7:00 AM - 7:00 PM,,8810054
"FIRST BAPTIST CHURCH","800 NORTH ELM STREET","",,"PADEN",OK,74860,,7:00 AM - 7:00 PM,,8825495
"ASSEMBLY OF GOD CHURCH","1700 WEST BROADWAY","",,"OKEMAH",OK,74859,,7:00 AM - 7:00 PM,,8810065
"SOUTHERN PLAZA RETIREMENT COMM","3737 N COLLEGE AVE","",,"BETHANY",OK,73008,,7:00 AM - 7:00 PM,,8811806
"BETHANY 1ST CH OF THE NAZARENE","NW 41ST & N MUELLER","",,"OKLAHOMA CITY",OK,73008,,7:00 AM - 7:00 PM,,8811734
"CHURCH OF THE SAVIOR","5600 NW 63RD ST","",,"OKLAHOMA CITY",OK,73112,,7:00 AM - 7:00 PM,,8811814
"SUNNYLANE FAMILY CHURCH","4220 SE 41ST ST","",,"DEL CITY",OK,73115,,7:00 AM - 7:00 PM,,8811175
"WATERLOO ROAD BAPTIST CHURCH","3100 E WATERLOO RD","",,"EDMOND",OK,73034,,7:00 AM - 7:00 PM,,8811877
"ROSEWOOD MANOR APT CLUBHOUSE","800 S KELLY AVE","",,"EDMOND",OK,73003,,7:00 AM - 7:00 PM,,8811852
"EDMOND CHURCH OF CHRIST","801 S BRYANT AVE","",,"EDMOND",OK,73034,,7:00 AM - 7:00 PM,,8811914
"LIFE CHURCH","4500 E 2ND STREET","",,"EDMOND",OK,73034,,7:00 AM - 7:00 PM,,8811858
"FIRST BAPTIST CHURCH OF EDMOND","1300 SE 33RD STREET","",,"EDMOND",OK,73083,,7:00 AM - 7:00 PM,,8811857
"RESTORATION CHURCH","1228 LOFTIN DR","",,"MIDWEST CITY",OK,73130,,7:00 AM - 7:00 PM,,8811672
"EASTSIDE CHURCH OF CHRIST","916 S DOUGLAS BLVD","",,"MIDWEST CITY",OK,73130,,7:00 AM - 7:00 PM,,8811790
"CORNERSTONE CHURCH","9900 SE 15TH ST","",,"MIDWEST CITY",OK,73130,,7:00 AM - 7:00 PM,,8811792
"METRO TECHNOLOGY CENTERS","1900 SPRINGLAKE DR","",,"OKLAHOMA CITY",OK,73111,,7:00 AM - 7:00 PM,,8811783
"EDMOND MANSIONS","1301 NW 178TH","",,"EDMOND",OK,73012,,7:00 AM - 7:00 PM,,8811855
"NORTHPARK MALL","12100 N MAY AVE","",,"OKLAHOMA CITY",OK,73156,,7:00 AM - 7:00 PM,,8811898
"N MACARTHUR CHURCH OF CHRIST","9300 N MACARTHUR BLVD","",,"OKLAHOMA CITY",OK,73132,,7:00 AM - 7:00 PM,,8811883
"ST PATRICK CATHOLIC CHURCH","2121 N PORTLAND AVE","",,"OKLAHOMA CITY",OK,73107,,7:00 AM - 7:00 PM,,8811702
"MESSIAH LUTHERAN CHURCH","3600 NORTHWEST EXPY","",,"OKLAHOMA CITY",OK,73112,,7:00 AM - 7:00 PM,,8810527
"BAPTIST TEMPLE CHURCH","2433 NW 30TH ST","",,"OKLAHOMA CITY",OK,73112,,7:00 AM - 7:00 PM,,8811708
"EXCHANGE AVENUE BAPTIST CHURCH","1312 S PENNSYLVANIA AVE","",,"OKLAHOMA CITY",OK,73108,,7:00 AM - 7:00 PM,,8811715
"OK DEPT OF REHABILITATION SERV","5813 S ROBINSON AVE","",,"OKLAHOMA CITY",OK,73109,,7:00 AM - 7:00 PM,,8811836
"HILLCREST CHRISTIAN CHURCH","1501 SW 59TH ST","",,"OKLAHOMA CITY",OK,73119,,7:00 AM - 7:00 PM,,8811722
"OAKCREST CHURCH OF CHRIST","1111 SW 89TH ST","",,"OKLAHOMA CITY",OK,73139,,7:00 AM - 7:00 PM,,8811833
"OAKCREST CHURCH OF CHRIST","1111 SW 89TH ST","",,"OKLAHOMA CITY",OK,73139,,7:00 AM - 7:00 PM,,8811740
"VALLEY BROOK MUNICIPAL BLDG","1618 SE 59TH ST","",,"OKLAHOMA CITY",OK,73109,,7:00 AM - 7:00 PM,,8811837
"CHRIST TEMPLE COMMUNITY CHURCH","2717 N KELLEY AVE","",,"OKLAHOMA CITY",OK,73111,,7:00 AM - 7:00 PM,,8811779
"CROOKED OAK SCHOOL","1450 S EASTERN AVE","",,"OKLAHOMA CITY",OK,73129,,7:00 AM - 7:00 PM,,8811780
"JUBILEE CHRISTIAN CENTER","12430 N. 230 RD","1/2 MILE N OF GEORGE NIGH",,"OKMULGEE",OK,74447,,7:00 AM - 7:00 PM,,8810112
"OSU TECH STUDENT UNION","1801 E 4 ST","STUDENT UNION BUILDING",,"OKMULGEE",OK,74447,,7:00 AM - 7:00 PM,,8810117
"MORRIS COMMUNITY CENTER","400 S HUGHES AVE","",,"MORRIS",OK,74445,,7:00 AM - 7:00 PM,,8810127
"MCCORD SENIOR CITIZENS","115 MARY ROAD","",,"PONCA CITY",OK,74604,,7:00 AM - 7:00 PM,,8810136
"NEW HOPE CHRISTIAN FELLOWSHIP","161 N 5TH  FAIRFAX","",,"FAIRFAX",OK,74637,,7:00 AM - 7:00 PM,,8810147
"GILCREASE CLUB HOUSE","1919 W SEMINOLE ST","",,"TULSA",OK,74127,,7:00 AM - 7:00 PM,,8810153
"SOUTHERN HILLS BAPTIST CHURCH","1925 E SW","",,"MIAMI",OK,74354,,7:00 AM - 7:00 PM,,8810157
"ALL SAINTS EPISCOPAL CHURCH","225 B ST NW","",,"MIAMI",OK,74354,,7:00 AM - 7:00 PM,,8810159
"GLENCOE COMMUNITY CENTER","114 OKLAHOMA ST","",,"GLENCOE",OK,74032,,7:00 AM - 7:00 PM,,8810199
"SPACE WALK OF STILLWATER","5912 E. 6TH AVE.","",,"STILLWATER",OK,74075,,7:00 AM - 7:00 PM,,8810200
"ASHLAND BAPTIST CHURCH","ASHLAND AREA","",,"ASHLAND",OK,74524,,7:00 AM - 7:00 PM,,8810737
"NUMBER 9 COMMUNITY CENTER","COMMUNITY CENTER","LONGTOWN AREA",,"EUFAULA",OK,74432,,7:00 AM - 7:00 PM,,8810739
"CROWDER SENIOR CITIZENS (EAST)","CROWDER SENIOR CITIZENS","",,"CROWDER",OK,74430,,7:00 AM - 7:00 PM,,8810742
"SCIPIO COMMUNITY CENTER","1520 NORTH 4 CORNERS RD","",,"MC ALESTER",OK,74501,,7:00 AM - 7:00 PM,,8810609
"RICHVILLE BAPTIST CHURCH","RICHVILLE AREA","",,"RICHVILLE AREA",OK,74501,,7:00 AM - 7:00 PM,,8810760
"CENTRAL CHURCH OF CHRIST. #13","820 STADIUM DRIVE","",,"ADA",OK,74820,,7:00 AM - 7:00 PM,,8810610
"OIL CENTER PENTECOSTAL CH. #59","7985 CR  3470 RD","",,"ADA",OK,74820,,7:00 AM - 7:00 PM,,8810770
"BYNG TOWN HALL  #60","110 BYNG AVE","",,"ADA",OK,74820,,7:00 AM - 7:00 PM,,8810613
"BETHEL ACRES ASSEMBLY","18509 BETHEL RD.","",,"SHAWNEE",OK,74801,,7:00 AM - 7:00 PM,,8810787
"PINK TOWN HALL","22058 PINK LN","",,"TECUMSEH",OK,74873,,7:00 AM - 7:00 PM,,8810788
"CATHOLIC CHURCH","102 NE D","",,"ANTLERS",OK,74523,,7:00 AM - 7:00 PM,,8810799
"NASHOBA SCHOOL HOUSE","0000","",,"NASHOBA",OK,74558,,7:00 AM - 7:00 PM,,8810803
"ALBION COMMUNITY BUILDING","HWY 271","",,"ALBION",OK,74521,,7:00 AM - 7:00 PM,,8810810
"HAMMON SENIOR CITIZENS","715 MAIN ST","",,"HAMMON",OK,73650,,7:00 AM - 7:00 PM,,8810619
"RMC AG PAVILION","N AG PAVILION RD","",,"CHEYENNE",OK,73628,,7:00 AM - 7:00 PM,,8810814
"REYDON SENIOR CITIZENS","304 2ND AVENUE","",,"REYDON",OK,73660,,7:00 AM - 7:00 PM,,8825929
"CRAWFORD SCHOOL","TOWN OF CRAWFORD","",,"CRAWFORD",OK,73638,,7:00 AM - 7:00 PM,,8810817
"RMC AG PAVILION","N AG PAVILION RD","",,"CHEYENNE",OK,73628,,7:00 AM - 7:00 PM,,8810818
"FIRST UNITED METHODIST CHURCH","1615 N HWY 88","",,"CLAREMORE",OK,74017,,7:00 AM - 7:00 PM,,8810822
"ST ANDREWS METHODIST CHURCH","9472 E HIGHWAY 20","",,"CLAREMORE",OK,74019,,7:00 AM - 7:00 PM,,8810621
"SEQUOYAH BAPTIST CHURCH","16501 S HIGHWAY 66","",,"CLAREMORE",OK,74017,,7:00 AM - 7:00 PM,,8810828
"JOURNEY CHURCH","14992 US 169","",,"OOLOGAH",OK,74053,,7:00 AM - 7:00 PM,,8813251
"WAYLON JONES COMPLEX PP","203 RANGER BLVD.","",,"ROLAND",OK,74954,,7:00 AM - 7:00 PM,,8810858
"CUMBERLAND PRESBYTERIAN CHURCH","202 N 6 ST","",,"MARLOW",OK,73055,,7:00 AM - 7:00 PM,,8810886
"CENTRAL HIGH COMMUNITY CENTER","7TH & BRONCHO RD","",,"MARLOW",OK,73055,,7:00 AM - 7:00 PM,,8810890
"TIPTON CITY HALL COUNCIL ROOM","110 N BROADWAY AVE","P.O. BOX 460",,"TIPTON",OK,73570,,7:00 AM - 7:00 PM,,8810915
"NEW BIRTH TABERNACLE","3210 E TECUMSEH ST","",,"TULSA",OK,74110,,7:00 AM - 7:00 PM,,8813943
"ROSS ELEMENTARY SCHOOL","8934 E LATIMER ST","",,"TULSA",OK,74115,,7:00 AM - 7:00 PM,,8810635
"GRACE LUTHERAN CHURCH","2331 E 5 PL","",,"TULSA",OK,74104,,7:00 AM - 7:00 PM,,8810941
"TULSA WESLEYAN CHURCH","701 S MINGO RD","",,"TULSA",OK,74128,,7:00 AM - 7:00 PM,,8810948
"B'NAI EMUNAH","1719 S OWASSO AVE","",,"TULSA",OK,74120,,7:00 AM - 7:00 PM,,8829332
"METRO PENTECOSTAL CHURCH","8611 E 21 ST","",,"TULSA",OK,74129,,7:00 AM - 7:00 PM,,8810959
"WHITESIDE COMMUNITY CENTER","4009 S PITTSBURG AVE","",,"TULSA",OK,74135,,7:00 AM - 7:00 PM,,8810973
"CHURCH OF CHRIST","2901 S YALE AVE","",,"TULSA",OK,74114,,7:00 AM - 7:00 PM,,8828655
"WOODLAND MANOR","8641 E 61 ST","",,"TULSA",OK,74133,,7:00 AM - 7:00 PM,,8823223
"WOODLAKE ASSEMBLY OF GOD","7100 E 31 ST","",,"TULSA",OK,74145,,7:00 AM - 7:00 PM,,8810986
"SOUTH TULSA COMMUNITY HOUSE","5780 S. PEORIA AVE.","",,"TULSA ",OK,74105,,7:00 AM - 7:00 PM,,8830190
"SOUTHERN HILLS UNITED METHO CH","6160 S LEWIS AVE","",,"TULSA",OK,74136,,7:00 AM - 7:00 PM,,8811005
"ABERDEEN HEIGHTS","7220 S YALE AVE","",,"TULSA",OK,74136,,7:00 AM - 7:00 PM,,8811017
"NOGALES AVE BAPTIST CHURCH","1011 W 1ST STREET","",,"TULSA",OK,74127,,7:00 AM - 7:00 PM,,8811034
"UNION 9TH GRADE CENTER","7616 S GARNETT RD","",,"BROKEN ARROW",OK,74012,,7:00 AM - 7:00 PM,,8811043
"GRACE CHURCH","9610 S GARNETT RD","",,"BROKEN ARROW",OK,74012,,7:00 AM - 7:00 PM,,8811045
"JAMES INHOFE PLAZA","6565 S NEWPORT AVE","",,"TULSA",OK,74136,,7:00 AM - 7:00 PM,,8811047
"KIRK OF THE HILLS PRESB CHURCH","4102 E 61 ST","",,"TULSA",OK,74136,,7:00 AM - 7:00 PM,,8811050
"WOODLAND TERRACE","9524 E 71 ST","",,"TULSA",OK,74133,,7:00 AM - 7:00 PM,,8811058
"FIRST BAPTIST CHURCH","114 E BRECKENRIDGE AVE","",,"BIXBY",OK,74008,,7:00 AM - 7:00 PM,,8811060
"LEONARD FIRST BAPTIST CHURCH","15711 E 168 ST SOUTH","(157 ST & HWY 64 OR 167 ST S)",,"LEONARD",OK,74043,,7:00 AM - 7:00 PM,,8810107
"CORE CHURCH","5205 S ASPEN AVE","",,"BROKEN ARROW",OK,74011,,7:00 AM - 7:00 PM,,8823196
"BETHANY FREE WILL BAPTIST CH","100 N OLIVE AVE","",,"BROKEN ARROW",OK,74012,,7:00 AM - 7:00 PM,,8811070
"TULSA TECH CTR (BROKEN ARROW)","4000 W FLORENCE ST","",,"BROKEN ARROW",OK,74012,,7:00 AM - 7:00 PM,,8811075
"ST FRANCIS HALL","301 S 9 ST","",,"BROKEN ARROW",OK,74012,,7:00 AM - 7:00 PM,,8811082
"SOUTHSIDE BAPT CH OF JENKS","13032 S ELGIN AVE","",,"JENKS",OK,74037,,7:00 AM - 7:00 PM,,8810712
"SOUTH COUNTY RECREATION CENTER","13800 S PEORIA AVE"," ",,"BIXBY",OK,74008,,7:00 AM - 7:00 PM,,8810711
"ST HENRY CATHOLIC CHURCH","8500 N. OWASSO EXPY","",,"OWASSO",OK,74055,,7:00 AM - 7:00 PM,,8824153
"FLAT ROCK FIRE STATION","31842 E 670 RD","",,"CHOUTEAU",OK,74337,,7:00 AM - 7:00 PM,,8810070
"REGINA CONN RESIDENCE","35893 E 670 ROAD","",,"LOCUST GROVE",OK,74352,,7:00 AM - 7:00 PM,,8810061
"ELKS LODGE - WAGONER","33604 LONG BAY ROAD","",,"WAGONER",OK,74467,,7:00 AM - 7:00 PM,,8810072
"OKAY FIRST BAPTIST CHURCH","7530 N 37 ST E","",,"OKAY",OK,74446,,7:00 AM - 7:00 PM,,8810095
"FOREST RIDGE BAPTIST CHURCH","8300 S ONETA ROAD (65TH)","",,"BROKEN ARROW",OK,74014,,7:00 AM - 7:00 PM,,8810093
"CLEARVIEW BAPTIST CHURCH","23003 E HIGHWAY 51","",,"BROKEN ARROW",OK,74014,,7:00 AM - 7:00 PM,,8810091
"ELKS LODGE","10266 S 241 E AVE","",,"BROKEN ARROW",OK,74014,,7:00 AM - 7:00 PM,,8810085
"ST VINCENT DEPAUL CHURCH","15842 S 297 E AVE","",,"COWETA",OK,74429,,7:00 AM - 7:00 PM,,8810077
"NEW LIFE WESLEYAN CHURCH","445 S CANEY ST","",,"COPAN",OK,74022,,7:00 AM - 7:00 PM,,8813983
"WINDLE HATCHETT COMM. BLDG","WINDLE HATCHETT COMMUNITY","BUILDING",,"FORT SUPPLY",OK,73841,,7:00 AM - 7:00 PM,,8811161
