state,jurisdiction_type,county_name,municipality,precinct_name,precinct_id,name,address
MT,county,Beaverhead,Dillon,,1,Lutheran Church,"715 East Bannack, Dillon, MT "
MT,county,Beaverhead,Dillon,,2,Lutheran Church,"715 East Bannack, Dillon, MT "
MT,county,Beaverhead,Dillon,,3,Lutheran Church,"715 East Bannack, Dillon, MT "
MT,county,Beaverhead,Lima,,4,Lima Fire Hall,"5 West Section Corner Street, Lima, MT "
MT,county,Beaverhead,Lima,,5,Lima Comm Fire Hall,"5 W Section Cornter St, Lima, MT "
MT,county,Beaverhead,Dillon,,6,Lutheran Church,"715 East Bannack, Dillon, MT "
MT,county,Beaverhead,Dillon,,7,Lutheran Church,"715 East Bannack, Dillon, MT "
MT,county,Beaverhead,Dillon,,8,Grant School,"12420 Highway 324, Dillon, MT "
MT,county,Beaverhead,Dillon,,9,Lutheran Church,"715 East Bannack, Dillon, MT "
MT,county,Beaverhead,Dillon,,12,Lutheran Church,"715 East Bannack, Dillon, MT "
MT,county,Beaverhead,Dillon,,14,Lutheran Church,"715 East Bannack, Dillon, MT "
MT,county,Beaverhead,Glen,,17,Reichle School 1,"6715 Schoolhouse Road, Glen, MT "
MT,county,Beaverhead,Polaris,,19,Polaris School,"4210 Pioneer Mountains Byway, Polaris, MT "
MT,county,Beaverhead,Jackson,,20,Jackson School,"415 Jardine Avenue , Jackson, MT "
MT,county,Beaverhead,Wisdom,,21,Wisdom Community Hall,"411 County Road, Wisdom, MT "
MT,county,Beaverhead,Wise River,,23,Wise River Fire Hall,"64845 Highway, Wise River, MT "
MT,county,Big Horn,Hardin,,1,Peritsa- SR Center,"317 N Custer, Hardin, MT "
MT,county,Big Horn,Fort Smith,,2,Nat'l Park Serv Bldg - Fort,"5 Avenue B, Fort Smith, MT "
MT,county,Big Horn,Hardin,,3,Foster -3 SR Center,"317 N Custer, Hardin, MT "
MT,county,Big Horn,Hardin,,4,Whitman - SR Center,"317 N Custer, Hardin, MT "
MT,county,Big Horn,Crow Agency,,5,Crow School - Reno,"8470 South Child Street, Crow Agency, MT "
MT,county,Big Horn,Big Horn,,6,Spring Crk Schl - Sarpy,"22997 East Sarpy Road, Big Horn, MT "
MT,county,Big Horn,Crow Agency,,7,Crow Schl - Crow Agncy,"8470 South Child Street, Crow Agency, MT "
MT,county,Big Horn,Saint Xavier,,8,Pretty Eagle Schl - ST X,"18348 South Mission Road, Saint Xavier, MT "
MT,county,Big Horn,Lodge Grass,,9,LG Senior Center,"Harding Ave & Wolf Lays Down, Lodge Grass, MT "
MT,county,Big Horn,Decker,,10,Decker School - Decker,"38966 East Tongue Lane, Decker, MT "
MT,county,Big Horn,Wyola,,14,Wyola School - Wyola,"41220 South Mondel Avenue, Wyola, MT "
MT,county,Big Horn,Pryor,,15,Pryor Elementary School - Pryor,"45089 West School Yard Street, Pryor, MT "
MT,county,Big Horn,Hardin,,17,Auditorium - Hardin,"611 West 5th, Hardin, MT "
MT,county,Big Horn,Hardin,,18,Auditorium - Hardin,"611 West 5th, Hardin, MT "
MT,county,Big Horn,Hardin,,19,Auditorium - Hardin,"611 West 5th, Hardin, MT "
MT,county,Big Horn,Lodge Grass,,21,LG High School,"11448 East Lodge Grass School Road, Lodge Grass, MT "
MT,county,Big Horn,Lodge Grass,,25,LG High School,"11448 East Lodge Grass School Road, Lodge Grass, MT "
MT,county,Big Horn,Busby,,26,Busby School - Busby,"13152 S. B Street, Busby, MT "
MT,county,Big Horn,Hardin,,3 E,East Foster - 3E SR Center,"317 N Custer, Hardin, MT "
MT,county,Big Horn,Hardin,,4 E,East Whitman - 4E SR Center,"317 N Custer, Hardin, MT "
MT,county,Blaine,Turner,,1,Turner School #1,"190 1st Street East, Turner, MT "
MT,county,Blaine,Harlem,,3,Sacred Heart Catholic Church #3,"202 Chippewa Ave, Fort Belknap Agency, Harlem, MT "
MT,county,Blaine,Harlem,,8,Harlem High School #8,"610 1st Avenue Southeast, Harlem, MT "
MT,county,Blaine,Harlem,,9,Sacred Heart Catholic Church #3,"202 Chippewa Ave, Fort Belknap Agency, Harlem, MT "
MT,county,Blaine,Chinook,,10,Chinook High School #10,"528 Ohio Street, Chinook, MT "
MT,county,Blaine,Chinook,,11,Chinook High School #11,"528 Ohio Street, Chinook, MT "
MT,county,Blaine,Chinook,,13,Chinook High School #13,"528 Ohio Street, Chinook, MT "
MT,county,Blaine,Hays,,15,John Capture Center #15,"129 John Capture Road, Hays, MT "
MT,county,Broadwater,Winston,,1,Winston Fire Hall,"6467 Hwy 287, Winston, MT "
MT,county,Broadwater,Townsend,,7,Library Community Room,"201 North Spruce, Townsend, MT "
MT,county,Broadwater,Townsend,,11,Library Community Room,"201 North Spruce, Townsend, MT "
MT,county,Broadwater,Townsend,,12,Library Community Room,"201 North Spruce, Townsend, MT "
MT,county,Broadwater,Toston,,13,Toston Fire Hall,"8852 Hwy 287, Toston, MT "
MT,county,Carbon,Joliet,,1,Joliet Community Center,"209 Front St, Joliet, MT "
MT,county,Carbon,Joliet,,2,P2 Joliet Community Center,"128 South Main, Joliet, MT "
MT,county,Carbon,Joliet,,3,P3 Joliet Community Center,"209 E Front, Joliet, MT "
MT,county,Carbon,Bridger,,4,P4 Bridger High School,"427 West Park, Bridger, MT "
MT,county,Carbon,Bridger,,5,P5 Bridger High School,"427 West Park, Bridger, MT "
MT,county,Carbon,Belfry,,6,Belfry Elementary School,"26 Wisconsin, Belfry, MT "
MT,county,Carbon,Roberts,,7,Roberts Fire Hall,"5 South First Street, Roberts, MT "
MT,county,Carbon,Red Lodge,,8,Red Lodge Civic Center1,"214 West 14th, Red Lodge, MT "
MT,county,Carbon,Red Lodge,,9,Red Lodge Civic Center2,"214 West 14th, Red Lodge, MT "
MT,county,Carbon,Red Lodge,,10,Red Lodge Civic Center3,"214 West 14th, Red Lodge, MT "
MT,county,Carbon,Red Lodge,,11,Red Lodge Civic Center4,"214 West 14th , Red Lodge, MT "
MT,county,Carbon,Edgar,,12,Edgar Fire Hall,"222 E Railway Ave, Edgar, MT "
MT,county,Carbon,Roscoe,,13,Roscoe Community Center,"1999 Highway 78, Roscoe, MT "
MT,county,Carbon,Boyd,,14,Boyd School,"13 Montana Avenue , Boyd, MT "
MT,county,Carbon,Fromberg,,15,Fromberg School Music Room,"319 School, Fromberg, MT "
MT,county,Carbon,Luther,,16,Luther School,"4 Luther/Roscoe Road, Luther, MT "
MT,county,Carter,Alzada,,1,Alzada Community Hall,"142 O'Fallon Street, Alzada, MT "
MT,county,Carter,Boyes,,3,Boyes Community Hall,"10460 Hwy212, Boyes, MT "
MT,county,Carter,Ekalaka,,13,Carter County Event Center,"209 West Speelmon, Ekalaka, MT "
MT,county,Carter,Ekalaka,,14,Carter County Event Center,"209 West Speelmon, Ekalaka, MT "
MT,county,Cascade,Great Falls,,18A,18A Exhibition Hall/Expo Park,"400 3rd Street Northwest, Great Falls, MT "
MT,county,Cascade,Great Falls,,18B,18B Exhibition Hall/Expo Park,"400 3rd Street Northwest, Great Falls, MT "
MT,county,Cascade,Great Falls,,18C,18C Exhibition Hall/Expo Park,"400 3rd Street Northwest, Great Falls, MT "
MT,county,Cascade,Great Falls,,18D,18D Exhibition Hall/Expo Park,"400 3rd Street Northwest, Great Falls, MT "
MT,county,Cascade,Vaughn,,18E,18E Vaughn Fire Station,"14 4th St, Vaughn, MT "
MT,county,Cascade,Fort Shaw,,18F,18F Sun River Senior Center,"13319 MT Hwy 200, Fort Shaw, MT "
MT,county,Cascade,Fort Shaw,,18G,18G Sun River Senior Center,"13319 MT Hwy 200, Fort Shaw, MT "
MT,county,Cascade,Belt,,19A,19A Belt Senior Center,"19 Castner St, Belt, MT "
MT,county,Cascade,Belt,,19B,19B Belt Senior Center,"19 Castner St, Belt, MT "
MT,county,Cascade,Great Falls,,19C,19C Exhibition Hall/Expo Park,"400 3rd Street Northwest, Great Falls, MT "
MT,county,Cascade,Great Falls,,19D,19D Exhibition Hall/Expo Park,"400 3rd Street Northwest, Great Falls, MT "
MT,county,Cascade,Sand Coulee,,19E,19E Centerville Public School,"693 Stockett Rd, Sand Coulee, MT "
MT,county,Cascade,Cascade,,19F,19F Cascade - Wedsworth Hall,"13 Front St, Cascade, MT "
MT,county,Cascade,Ulm,,19G,19G Ulm Public School,"6 West Ulm Road, Ulm, MT "
MT,county,Cascade,Great Falls,,20A,20A Exhibition Hall/Expo Park,"400 3rd Street Northwest, Great Falls, MT "
MT,county,Cascade,Great Falls,,20B,20B Exhibition Hall/Expo Park,"400 3rd Street Northwest, Great Falls, MT "
MT,county,Cascade,Great Falls,,20C,20C Exhibition Hall/Expo Park,"400 3rd Street Northwest, Great Falls, MT "
MT,county,Cascade,Great Falls,,21A,21A Exhibition Hall/Expo Park,"400 3rd Street Northwest, Great Falls, MT "
MT,county,Cascade,Great Falls,,21B,21B Exhibition Hall/Expo Park,"400 3rd Street Northwest, Great Falls, MT "
MT,county,Cascade,Great Falls,,21C,21C Exhibition Hall/Expo Park,"400 3rd Street Northwest, Great Falls, MT "
MT,county,Cascade,Great Falls,,22A,22A Exhibition Hall/Expo Park,"400 3rd Street Northwest, Great Falls, MT "
MT,county,Cascade,Great Falls,,22B,22B Exhibition Hall/Expo Park,"400 3rd Street Northwest, Great Falls, MT "
MT,county,Cascade,Great Falls,,22C,22C Exhibition Hall/Expo Park,"400 3rd Street Northwest, Great Falls, MT "
MT,county,Cascade,Great Falls,,23A,23A Exhibition Hall/Expo Park,"400 3rd Street Northwest, Great Falls, MT "
MT,county,Cascade,Great Falls,,23B,23B Exhibition Hall/Expo Park,"400 3rd Street Northwest, Great Falls, MT "
MT,county,Cascade,Great Falls,,23C,23C Exhibition Hall/Expo Park,"400 3rd Street Northwest, Great Falls, MT "
MT,county,Cascade,Great Falls,,24A,24A Exhibition Hall/Expo Park,"400 3rd Street Northwest, Great Falls, MT "
MT,county,Cascade,Great Falls,,24B,24B Exhibition Hall/Expo Park,"400 3rd Street Northwest, Great Falls, MT "
MT,county,Cascade,Great Falls,,24C,24C Exhibition Hall/Expo Park,"400 3rd Street Northwest, Great Falls, MT "
MT,county,Cascade,Great Falls,,25A,25A Exhibition Hall/Expo Park,"400 3rd Street Northwest, Great Falls, MT "
MT,county,Cascade,Great Falls,,25B,25B Exhibition Hall/Expo Park,"400 3rd Street Northwest, Great Falls, MT "
MT,county,Cascade,Great Falls,,25C,25C Exhibition Hall/Expo Park,"400 3rd Street Northwest, Great Falls, MT "
MT,county,Cascade,Great Falls,,25D,25D Exhibition Hall/Expo Park,"400 3rd Street Northwest, Great Falls, MT "
MT,county,Cascade,Great Falls,,26A,26A Exhibition Hall/Expo Park,"400 3rd Street Northwest, Great Falls, MT "
MT,county,Cascade,Great Falls,,26B,26B Exhibition Hall/Expo Park,"400 3rd Street Northwest, Great Falls, MT "
MT,county,Cascade,Great Falls,,26C,26C Exhibition Hall/Expo Park,"400 3rd Street Northwest, Great Falls, MT "
MT,county,Cascade,Vaughn,,26D,26D Vaughn Fire Station,"14 4th St , Vaughn, MT "
MT,county,Cascade,Vaughn,,26E,26E Vaughn Fire Station,"14 4th St , Vaughn, MT "
MT,county,Chouteau,Fort Benton,,1,Fort Benton Elementary,"1406 Franklin Street, Fort Benton, MT "
MT,county,Chouteau,Fort Benton,,2,Fort Benton Elementary,"1406 Franklin Street, Fort Benton, MT "
MT,county,Chouteau,Fort Benton,,3,Fort Benton Elementary,"1406 Franklin Street, Fort Benton, MT "
MT,county,Chouteau,Carter,,4,Carter Community Hall,"120 2nd Avenue, Carter, MT "
MT,county,Chouteau,Carter,,5,Carter Community Hall,"120 2nd Avenue, Carter, MT "
MT,county,Chouteau,Highwood,,6,Highwood Community Hall,"152 Main Street South, Highwood, MT "
MT,county,Chouteau,Loma,,7,Loma Community Hall,"207 2nd Avenue, Loma, MT "
MT,county,Chouteau,Big Sandy,,8,Big Sandy Town Hall,"115 Johannes Street, Big Sandy, MT "
MT,county,Chouteau,Big Sandy,,9,Big Sandy Town Hall,"115 Johannes Street, Big Sandy, MT "
MT,county,Chouteau,Geraldine,,10,Geraldine Senior Citizen,"420 Main Street, Geraldine, MT "
MT,county,Chouteau,Geraldine,,11,Geraldine Senior Citizen,"420 Main Street, Geraldine, MT "
MT,county,Chouteau,Box Elder,,12,New Stone Child College,"8294 Upper Box Elder Road, Rocky Boy Reservation, Box Elder, MT "
MT,county,Custer,Miles City,,1,Washington School Gym,"210 N 9th, Miles City, MT "
MT,county,Custer,Miles City,,2,CCDHS Gym Lobby,"20 S Center, Miles City, MT "
MT,county,Custer,Miles City,,3,Highland Park School Gym,"716 S Cale, Miles City, MT "
MT,county,Custer,Miles City,,4,Jefferson School Gym,"106 North Strevell, Miles City, MT "
MT,county,Custer,Miles City,,5,Kircher School,"331 Kircher Creek Road, Miles City, MT "
MT,county,Custer,Miles City,,6,National Guard Armory,"2500 Main Street, Miles City, MT "
MT,county,Custer,Kinsey,,7,Kinsey School,"7 Mastin Road, Kinsey, MT "
MT,county,Custer,Miles City,,8,S-H School,"6281 Moon Creek Road, Miles City, MT "
MT,county,Custer,Miles City,,9,S-H School 2,"6281 Moon Creek Road, Miles City, MT "
MT,county,Custer,Miles City,,10,Volborg Store,"9744 Highway 59 S, Miles City, MT "
MT,county,Custer,Powderville,,11,Spring Creek School,"12 Krutzfeldt Road 561, Powderville, MT "
MT,county,Custer,Miles City,,12,Riverview School,"1734 Road  506, Miles City, MT "
MT,county,Custer,Ismay,,13,Knowlton School,"1533 Horse Creek Rd 403, Ismay, MT "
MT,county,Custer,Ismay,,14,Ismay Community Church,"Ismay, Ismay, MT "
MT,county,Daniels,Flaxville,,2,Flaxville School House,"201 1st Ave W, Flaxville, MT "
MT,county,Daniels,Scobey,,3,Scobey High School,"205 2nd Ave E, Scobey, MT "
MT,county,Daniels,Scobey,,5,Senior Citizens Center,"201 Main Street, Scobey, MT "
MT,county,Daniels,Scobey,,6,County Library,"203 Timmons St., Scobey, MT "
MT,county,Dawson,Glendive,,1,EPEC Center,"313 S. Merrill, Glendive, MT "
MT,county,Dawson,Glendive,,2,EPEC Center,"313 S. Merrill, Glendive, MT "
MT,county,Dawson,Glendive,,3,EPEC Center,"313 S. Merrill, Glendive, MT "
MT,county,Dawson,Glendive,,4,EPEC Center,"313 S. Merrill, Glendive, MT "
MT,county,Dawson,Richey,,5,Richey Senior Citizen Center - 5,"223 S Main Street, Richey, MT "
MT,county,Dawson,Bloomfield,,7,Bloomfield School - 7,"2285 Fas 470, Bloomfield, MT "
MT,county,Dawson,Glendive,,8,EPEC Center,"313 S. Merrill, Glendive, MT "
MT,county,Dawson,Glendive,,9,EPEC Center,"313 S. Merrill, Glendive, MT "
MT,county,Dawson,Glendive,,10,EPEC Center,"313 S. Merrill, Glendive, MT "
MT,county,Dawson,Lindsay,,6A,Lindsay Hall - 6,"30 Fas 470, Lindsay, MT "
MT,county,Dawson,Lindsay,,6B,Lindsay Hall - 6,"30 Fas 470, Lindsay, MT "
MT,county,Dawson,Lindsay,,6C,Lindsay Hall - 6,"30 Fas 470, Lindsay, MT "
MT,county,Deer Lodge,Anaconda,,1,Dwyer Intermediate 1,"1410 W Park Ave, Anaconda, MT "
MT,county,Deer Lodge,Anaconda,,2,Dwyer Intermediate 1,"1410 W Park Ave, Anaconda, MT "
MT,county,Deer Lodge,Anaconda,,3,Dwyer Intermediate 1,"1410 W Park Ave, Anaconda, MT "
MT,county,Deer Lodge,Anaconda,,4,Fred Moodry Middle School 4,"219 East Third, Anaconda, MT "
MT,county,Deer Lodge,Anaconda,,5,Fred Moodry Middle School 4,"219 East Third, Anaconda, MT "
MT,county,Deer Lodge,Anaconda,,6,Fred Moodry Middle School 4,"219 East Third, Anaconda, MT "
MT,county,Deer Lodge,Anaconda,,7,Fred Moodry Middle School 4,"219 East Third, Anaconda, MT "
MT,county,Deer Lodge,Opportunity,,8,Opportunity Community Club,"Stewart & Hauser , Opportunity, MT "
MT,county,Deer Lodge,Opportunity,,9,Opportunity Community Club,"Stewart & Hauser , Opportunity, MT "
MT,county,Deer Lodge,Wise River,,10,Ralston Ranch,"54200 Hwy 43, Wise River, MT "
MT,county,Deer Lodge,Anaconda,,01A,Dwyer Intermediate 1,"1410 W Park Ave, Anaconda, MT "
MT,county,Deer Lodge,Anaconda,,1A,Dwyer Intermediate 1,"1410 W Park Ave, Anaconda, MT "
MT,county,Deer Lodge,Anaconda,,1B,Dwyer Intermediate 1,"1410 W Park Ave, Anaconda, MT "
MT,county,Deer Lodge,Anaconda,,2A,Dwyer Intermediate 1,"1410 W Park Ave, Anaconda, MT "
MT,county,Deer Lodge,Anaconda,,3A,Dwyer Intermediate 1,"1410 W Park Ave, Anaconda, MT "
MT,county,Deer Lodge,Anaconda,,4A,Fred Moodry Middle School 4,"219 East Third, Anaconda, MT "
MT,county,Deer Lodge,Anaconda,,5A,Fred Moodry Middle School 4,"219 East Third, Anaconda, MT "
MT,county,Deer Lodge,Anaconda,,6A,Fred Moodry Middle School 4,"219 East Third, Anaconda, MT "
MT,county,Deer Lodge,Anaconda,,7A,Fred Moodry Middle School 4,"219 East Third, Anaconda, MT "
MT,county,Deer Lodge,Opportunity,,8A,Opportunity Community Club,"Stewart & Hauser , Opportunity, MT "
MT,county,Fallon,Baker,,1,PCT'S (1&2)&(PCT3) at Exhibit Hall,"3440 Highway 7, Baker, MT "
MT,county,Fallon,Baker,,2,PCT'S (1&2)&(PCT3) at Exhibit Hall,"3440 Highway 7, Baker, MT "
MT,county,Fallon,Baker,,3,PCT'S (1&2)&(PCT3) at Exhibit Hall,"3440 Highway 7, Baker, MT "
MT,county,Fallon,Plevna,,4,PREC 4 Plevna Fire Hall,"105 Callin Avenue West, Plevna, MT "
MT,county,Fallon,Willard,,7,PREC 7 Willard Hall,"20 Willard Road East, Willard, MT "
MT,county,Fallon,Baker,,8,PREC 8 Chimney Creek School,"1279 Webster Road, Baker, MT "
MT,county,Fergus,Lewistown,,2,Trade Center #02,"100 Fairgrounds Rd, Lewistown, MT "
MT,county,Fergus,Lewistown,,3,Trade Center #03,"100 Fairgrounds Rd, Lewistown, MT "
MT,county,Fergus,Denton,,4,Denton Town Hall #4,"515 Broadway St, Denton, MT "
MT,county,Fergus,Grass Range,,5,Grass Range School #5,"310 East 2nd St, Grass Range, MT "
MT,county,Fergus,Lewistown,,6,Trade Center #06,"100 Fairgrounds Rd, Lewistown, MT "
MT,county,Fergus,Lewistown,,7,Trade Center #07,"100 Fairgrounds Rd, Lewistown, MT "
MT,county,Fergus,Lewistown,,8,Trade Center #08,"100 Fairgrounds Rd, Lewistown, MT "
MT,county,Fergus,Lewistown,,9,Trade Center #09,"100 Fairgrounds Rd, Lewistown, MT "
MT,county,Fergus,Lewistown,,10,Trade Center #10,"100 Fairgrounds Rd, Lewistown, MT "
MT,county,Fergus,Lewistown,,11,Trade Center #11,"100 Fairgrounds Rd, Lewistown, MT "
MT,county,Fergus,Lewistown,,13,Trade Center #13,"100 Fairgrounds Rd, Lewistown, MT "
MT,county,Fergus,Moore,,14,Moore Fire Hall #14,"302 Fergus Ave, Moore, MT "
MT,county,Fergus,Roy,,15,Roy School #15,"500 Davis St, Roy, MT "
MT,county,Fergus,Winifred,,16,Winifred Community Center #16,"200 Main St, Winifred, MT "
MT,county,Fergus,Lewistown,,17,Trade Center #17,"100 Fairgrounds Rd, Lewistown, MT "
MT,county,Fergus,Roy,,18,Roy School #18,"500 Davis St, Roy, MT "
MT,county,Flathead,Kalispell,,1,FC Trade Center - Fairgrounds,"265 North Meridian, Kalispell, MT "
MT,county,Flathead,Kalispell,,2,FC Trade Center - Fairgrounds,"265 North Meridian, Kalispell, MT "
MT,county,Flathead,Kalispell,,3,FC Trade Center - Fairgrounds,"265 North Meridian, Kalispell, MT "
MT,county,Flathead,Kalispell,,4,FC Trade Center - Fairgrounds,"265 North Meridian, Kalispell, MT "
MT,county,Flathead,Kalispell,,6,FC Trade Center - Fairgrounds,"265 North Meridian, Kalispell, MT "
MT,county,Flathead,Kalispell,,7,Us Armed Forces Reserve Center,"2898 Us Hwy 93 N, Kalispell, MT "
MT,county,Flathead,Columbia Falls,,8,Deer Park School,"2105 Middle Road, Columbia Falls, MT "
MT,county,Flathead,Kalispell,,11,Cayuse Prairie School,"897 Lake Blaine Road, Kalispell, MT "
MT,county,Flathead,Lakeside,,13,Lakeside School Gym,"255 Adams Street, Lakeside, MT "
MT,county,Flathead,Martin City,,14,Martin City Fire-Lietz Hall,"320 Central Avenue , Martin City, MT "
MT,county,Flathead,Columbia Falls,,16,"Council Chambers, CF City Hall","130 6th Street West Room A, Columbia Falls, MT "
MT,county,Flathead,West Glacier,,17,West Glacier School,"160 Old River Bridge Road, West Glacier, MT "
MT,county,Flathead,Kalispell,,19,New Covenant Fellowship,"436 Birch Grove, Kalispell, MT "
MT,county,Flathead,Whitefish,,20,WF Senior Citizens Center,"121 East 2nd Street, Whitefish, MT "
MT,county,Flathead,Columbia Falls,,21,CF High School Foyer,"610 13th Street West, Columbia Falls, MT "
MT,county,Flathead,Kila             Lakeside,,24,"Kila Ctry Church Or
Lksde Schl Gym","Kila - 190 Cottage Ln
Lksd- 255 Adams St , Kila             Lakeside, MT "
MT,county,Flathead,Kalispell,,25,FC Trade Center - Fairgrounds,"265 North Meridian, Kalispell, MT "
MT,county,Flathead,Marion,,26,Marion Fire Hall,"180 Gopher Lane, Marion, MT "
MT,county,Flathead,Somers,,29,Somers School Gym,"315 School Addition Road, Somers, MT "
MT,county,Flathead,Kalispell,,32,FC Trade Center - Fairgrounds,"265 North Meridian, Kalispell, MT "
MT,county,Flathead,Kalispell,,33,"Central Bible Church, Kalispell","902 1st Avenue East, Kalispell, MT "
MT,county,Flathead,Kalispell,,34,"Central Bible Church, Kalispell","902 1st Avenue East, Kalispell, MT "
MT,county,Flathead,Columbia Falls,,35,CF High School Foyer,"610 13th Street West, Columbia Falls, MT "
MT,county,Flathead,Kalispell,,36,West Valley School,"2290 Farm To Market Road, Kalispell, MT "
MT,county,Flathead,Bigfork,,38,Bethany Lutheran Church,"8559 Mt Hwy 35, Bigfork, MT "
MT,county,Flathead,Olney,,39,Olney Fire Hall,"11 Olney Loop Road, Olney, MT "
MT,county,Flathead,Kalispell,,41,FC Trade Center - Fairgrounds,"265 North Meridian, Kalispell, MT "
MT,county,Flathead,Bigfork,,42,Swan River School,"1205 Swan Hwy, Bigfork, MT "
MT,county,Flathead,Kalispell,,43,Fair-Mont-Egan School,"797 Fairmont Road, Kalispell, MT "
MT,county,Flathead,Whitefish,,44,"First Baptist Church, Whitefish","6232 Us Highway 93 S, Whitefish, MT "
MT,county,Flathead,Whitefish,,45,"Moose Home, Whitefish","230 West 10th Street, Whitefish, MT "
MT,county,Flathead,Whitefish,,46,"First Baptist Church, Whitefish","6232 Us Highway 93 S, Whitefish, MT "
MT,county,Flathead,Whitefish,,47,WF Senior Citizens Center,"121 East 2nd Street, Whitefish, MT "
MT,county,Flathead,Whitefish,,48,WF Armory ,"305 Armory Rd, Whitefish, MT "
MT,county,Flathead,Whitefish,,49,United Methodist Church,"1150 Wisconsin Avenue , Whitefish, MT "
MT,county,Flathead,Kalispell,,50,FC Trade Center - Fairgrounds,"265 North Meridian, Kalispell, MT "
MT,county,Flathead,Kalispell,,89,Smith Valley Fire Hall,"3496 US Hwy 2 W, Kalispell, MT "
MT,county,Flathead,Essex,,17*,Halfway Motel,"14840 Us Highway 2 East, Essex, MT "
MT,county,Flathead,Columbia Falls,,21*,"Fire Dept. RM, Columbia Falls Fire Station","130 6th Street West Room A, Columbia Falls, MT "
MT,county,Flathead,Marion,,26*,Pleasant Valley School,"7975 Pleasant Valley Road, Marion, MT "
MT,county,Flathead,Kalispell,,30*,FC Trade Center - Fairgrounds,"265 North Meridian, Kalispell, MT "
MT,county,Flathead,Kalispell,,34*,FC Trade Center - Fairgrounds,"265 North Meridian, Kalispell, MT "
MT,county,Gallatin,West Yellowstone,,1,West Yellowstone Schl,"500 Delacy Ave, West Yellowstone, MT "
MT,county,Gallatin,Big Sky,,2,Ophir School,"45465 Gallatin Rd, Big Sky, MT "
MT,county,Gallatin,Gallatin Gateway,,3,Gallatin Gateway Comm Ctr,"145 Mill St, Gallatin Gateway, MT "
MT,county,Gallatin,Bozeman,,4,Hope Lutheran Church Gym,"2152 W Graf Street, Bozeman, MT "
MT,county,Gallatin,Bozeman,,5,Hope Lutheran Church Gym,"2152 W Graf Street, Bozeman, MT "
MT,county,Gallatin,Three Forks,,7,Three Forks School,"212 E. Neal Street, Three Forks, MT "
MT,county,Gallatin,Three Forks,,8,Three Forks High School Gym,"212 E Neal St, Three Forks, MT "
MT,county,Gallatin,Manhattan,,9,Manhattan Christian School,"8000 Churchill Rd, Manhattan, MT "
MT,county,Gallatin,Manhattan,,10,Manhattan High Schl,"200 W Fulton Ave , Manhattan, MT "
MT,county,Gallatin,Belgrade,,12,River Rock Comm Cntr,"240 North River Rock Rd, Belgrade, MT "
MT,county,Gallatin,Manhattan,,14,Manhattan High Schl,"200 W Fulton Ave, Manhattan, MT "
MT,county,Gallatin,Belgrade,,15,Pass Creek School,"3747 Pass Creek Rd, Belgrade, MT "
MT,county,Gallatin,Bozeman,,16,Sedan Community Center,"26600 Bridger Canyon Rd, Bozeman, MT "
MT,county,Gallatin,Bozeman,,17,Springhill School,"6020 Springhill Community Rd, Bozeman, MT "
MT,county,Gallatin,Belgrade,,18,Gallatin County Fairgrounds Building 2,"Tamarack & Black, Belgrade, MT "
MT,county,Gallatin,Bozeman,,19,Fairgrounds BLDG #4,"Tamarack & Black, Bozeman, MT "
MT,county,Gallatin,Bozeman,,20,Bridger Canyon Fire Sta,"8081 Bridger Canyon Rd, Bozeman, MT "
MT,county,Gallatin,Bozeman,,21,Lamotte School,"841 Bear Canyon Rd, Bozeman, MT "
MT,county,Gallatin,Bozeman,,23,Bobcat Ftball Stadium Flr 2,"11th & Kagy, Bozeman, MT "
MT,county,Gallatin,Bozeman,,24,Fairgrounds Building #1,"Tamarack & Black, Bozeman, MT "
MT,county,Gallatin,Bozeman,,25,Hope Lutheran Church Gym,"2152 W. Graf Street, Bozeman, MT "
MT,county,Gallatin,Belgrade,,26,Belgrade Specl Events Cntr,"225 Spooner Rd, Belgrade, MT "
MT,county,Gallatin,Belgrade,,27,Central Valley Fire Training Center,"95 N Davis, Belgrade, MT "
MT,county,Gallatin,Belgrade,,28,Belgrade Specl Events Cntr,"225 Spooner Rd, Belgrade, MT "
MT,county,Gallatin,Belgrade,,29,Belgrade Specl Events Cntr,"225 Spooner Rd, Belgrade, MT "
MT,county,Gallatin,Bozeman,,30,Fairgrounds Bldg #1,"Tamarack & Black, Bozeman, MT "
MT,county,Gallatin,Bozeman,,31,Fairgrounds Bldg #4,"Tamarack & Black, Bozeman, MT "
MT,county,Gallatin,Bozeman,,32,Bobcat Ftball Stadium Flr 2,"11th & Kagy, Bozeman, MT "
MT,county,Gallatin,Bozeman,,33,Bobcat Ftball Stadium Flr 2,"11th & Kagy, Bozeman, MT "
MT,county,Gallatin,Bozeman,,34,Bobcat Ftball Stadium Flr 3,"11th & Kagy, Bozeman, MT "
MT,county,Gallatin,Bozeman,,37,Bobcat Ftball Stadium Flr 3,"11th & Kagy, Bozeman, MT "
MT,county,Gallatin,Bozeman,,38,Fairgrounds Bldg #1,"Tamarack & Black, Bozeman, MT "
MT,county,Gallatin,Bozeman,,40,Fairgrounds Bldg #3,"Tamarack & Black, Bozeman, MT "
MT,county,Gallatin,Bozeman,,41,Fairgrounds Bldg #1,"Tamarack & Black, Bozeman, MT "
MT,county,Gallatin,Bozeman,,42,Fairgrounds Bldg #1,"Tamarack & Black, Bozeman, MT "
MT,county,Gallatin,Bozeman,,43,Fairgrounds Bldg #2,"Tamarack & Black, Bozeman, MT "
MT,county,Gallatin,Bozeman,,44,Fairgrounds Bldg #3,"Tamarack & Black, Bozeman, MT "
MT,county,Gallatin,Bozeman,,45,Fairgrounds Bldg #2,"Tamarack & Black, Bozeman, MT "
MT,county,Garfield,Jordan,,1,Court House,"352 Leavitt Ave, Jordan, MT "
MT,county,Garfield,Jordan,,5,Van Norman - Community Hall,"379 Van Norman Road, Jordan, MT "
MT,county,Garfield,Cohagen,,7,Cohagen - Community Hall,"19 3rd Street E, Cohagen, MT "
MT,county,Garfield,Angela,,8,Tree Coulee,"14 U All Road, Angela, MT "
MT,county,Garfield,Mosby,,13,Mosby,"5 Rowton Road, Mosby, MT "
MT,county,Garfield,Sand Springs,,14,Sandsprings School,"3194 Highway 200 W, Sand Springs, MT "
MT,county,Garfield,Brusett,,19,Brusett - Community Hall,"2071 Edwards Road, Brusett, MT "
MT,county,Glacier,Cut Bank,,1,CB Voting Center 01,"913 E. Railroad, Cut Bank, MT "
MT,county,Glacier,Cut Bank,,2,CB Voting Center 02,"913 E. Railroad, Cut Bank, MT "
MT,county,Glacier,Cut Bank,,3,CB Voting Center 03,"913 E. Railroad, Cut Bank, MT "
MT,county,Glacier,Cut Bank,,4,CB Voting Center 04,"913 E. Railroad, Cut Bank, MT "
MT,county,Glacier,Cut Bank,,5,GE Warehouse 05,"48 Santa Rita Highway, Cut Bank, MT "
MT,county,Glacier,Cut Bank,,6,GC Courthse 06,"512 East Main, Cut Bank, MT "
MT,county,Glacier,Browning,,8,CCD Center 08,"De LaSalle School, Browning, MT "
MT,county,Glacier,Browning,,9,CCD Center 09,"De LaSalle School, Browning, MT "
MT,county,Glacier,East Glacier,,10,EGP Womens Club 10,"East Glacier, East Glacier, MT "
MT,county,Glacier,Browning,,11,Dolores Salois Residence 11,"Blackfoot, Browning, MT "
MT,county,Glacier,Browning,,12,CCD Center 12,"De LaSalle School, Browning, MT "
MT,county,Glacier,Browning,,13,CCD Center 13,"De LaSalle School, Browning, MT "
MT,county,Glacier,Cut Bank,,14,Court House Justice Lobby,"512 E. Main, Cut Bank, MT "
MT,county,Glacier,Babb,,15,Babb School 15,"Babb, Babb, MT "
MT,county,Glacier,Browning,,19,CCD Center 19,"De LaSalle School, Browning, MT "
MT,county,Glacier,Browning,,21C,CCD Center 21,"De LaSalle School, Browning, MT "
MT,county,Golden Valley,Ryegate,,Ryegate,Ryegate Court House,"107 Kemp, Ryegate, MT "
MT,county,Golden Valley,Lavina,,Lavina,Lavina Senior Center,"117 Main Street, Lavina, MT "
MT,county,Granite,Philipsburg,,1,Granite Museum,"135 South Sansome , Philipsburg, MT "
MT,county,Granite,Philipsburg,,2,Granite Museum,"135 South Sansome , Philipsburg, MT "
MT,county,Granite,Hall,,9,Hall School,"8 Farm To Market Road, Hall, MT "
MT,county,Granite,Drummond,,10,Community Hall,"54 East Broad Street, Drummond, MT "
MT,county,Hill,Havre,,1,Havre High School Gym,"900 18th St, Havre, MT "
MT,county,Hill,Havre,,2,Lincoln-McKinley School Gym,"801 4th St, Havre, MT "
MT,county,Hill,Havre,,3,Havre Middle School Gym,"1441 11th St W, Havre, MT "
MT,county,Hill,Havre,,4,Havre Middle School Gym,"1441 11th St W, Havre, MT "
MT,county,Hill,Havre,,7,Havre High School Gym,"900 18th St, Havre, MT "
MT,county,Hill,Havre,,8,Havre High School Gym,"900 18th St, Havre, MT "
MT,county,Hill,Havre,,9,Havre High School Gym,"900 18th St, Havre, MT "
MT,county,Hill,Havre,,10,Lincoln-McKinley School Gym,"801 4th St, Havre, MT "
MT,county,Hill,Havre,,13,Havre Middle School Gym,"1441 11th St W, Havre, MT "
MT,county,Hill,Havre,,14,H.R.D.C.-Human Res Dev Council,"2229 5th Ave, Havre, MT "
MT,county,Hill,Havre,,15,Hill Co Elec Hosp. Room,"2121 Hwy 2 West, Havre, MT "
MT,county,Hill,Havre,,16,US Bank,"235 1st Street, Havre, MT "
MT,county,Hill,Box Elder,,18,Box Elder School Rear Ent,"205 Main Street, Box Elder, MT "
MT,county,Hill,Hingham,,20,Hi-Line Comm Cnt,"502 5th Street, Hingham, MT "
MT,county,Hill,Hingham,,21,Hi-Line Comm Cnt,"503 5th Street, Hingham, MT "
MT,county,Hill,Hingham,,22,Hi-Line Comm Cnt,"504 5th Street, Hingham, MT "
MT,county,Hill,Havre,,25,H.R.D.C.-Human Res Dev Council,"2229 5th Ave, Havre, MT "
MT,county,Hill,Rocky Boy,,28,Chippewa Cree Wellness Center,"646 Clinic Road East, Rocky Boy, MT "
MT,county,Jefferson, Clancy,,1,Clancy Museum,"9 North Main St,  Clancy, MT "
MT,county,Jefferson, Jefferson City,,2,Jefferson City Community Hall ,"21 Spring St,  Jefferson City, MT "
MT,county,Jefferson, Boulder,,3,Volunteer Hall-Fairgrounds-Boulder ,"27 N. Whitetail Rd, Jefferson County Fairgrounds,  Boulder, MT "
MT,county,Jefferson, Whitehall,,4,Community Hall - Whitehall ,"9 N. Division ,  Whitehall, MT "
MT,county,Jefferson, Whitehall,,5,Community Hall - Whitehall ,"9 N. Division ,  Whitehall, MT "
MT,county,Jefferson, Whitehall,,6,Community Hall - Whitehall ,"9 N. Division ,  Whitehall, MT "
MT,county,Jefferson, Boulder,,7,Volunteer Hall-Fairgrounds-Boulder ,"27 N. Whitetail Rd, Jefferson County Fairgrounds,  Boulder, MT "
MT,county,Jefferson, Whitehall,,8,Community Hall - Whitehall ,"9 N. Division ,  Whitehall, MT "
MT,county,Jefferson, Whitehall,,9,Community Hall - Whitehall ,"9 N. Division ,  Whitehall, MT "
MT,county,Jefferson,Basin,,12,Basin School ,"30 N. Quartz St., Basin, MT "
MT,county,Jefferson, Elk Park,,15,Elk Park Fire Hall ,"309 East Elk Park Rd ,  Elk Park, MT "
MT,county,Jefferson, Clancy,,20,Museum - Clancy,"9 North Main St,  Clancy, MT "
MT,county,Jefferson, Mt City,,26,Montana City School ,"11 McClellan Creek Road ,  Mt City, MT "
MT,county,Jefferson, Mt City,,27,Montana City School ,"11 McClellan Creek Road ,  Mt City, MT "
MT,county,Judith Basin,Raynesford,,1,Raynesford School,"104 2nd Avenue East, Raynesford, MT "
MT,county,Judith Basin,Geyser,,2,Geyser Sr. Citizens,"105 East Railroad Avenue, Geyser, MT "
MT,county,Judith Basin,Stanford,,3,Stanford City Hall,"102 Central Avenue, Stanford, MT "
MT,county,Judith Basin,Hobson,,4,Hobson Sr. Citizens,"102 2nd Street West, Hobson, MT "
MT,county,Lake,Dayton,,1,PREC 1 Dayton Church,"43578 B St, Dayton, MT "
MT,county,Lake,Polson,,2,Polson Linderman Gymnasium,"411 2nd St E, Polson, MT "
MT,county,Lake,Polson,,3,Polson Linderman Gymnasium,"411 2nd St E, Polson, MT "
MT,county,Lake,Polson,,4,Polson Linderman Gymnasium,"411 2nd St E, Polson, MT "
MT,county,Lake,Polson,,5,Polson Linderman Gymnasium,"411 2nd St E, Polson, MT "
MT,county,Lake,Polson,,6,Polson Linderman Gymnasium,"411 2nd St E, Polson, MT "
MT,county,Lake,Polson,,7,Polson Linderman Gymnasium,"411 2nd St E, Polson, MT "
MT,county,Lake,Ronan,,8,PREC 8 Ronan Community Center,"300 3rd Ave NW, Ronan, MT "
MT,county,Lake,Ronan,,9,PREC 9 Ronan Community Center,"300 3rd Ave NW, Ronan, MT "
MT,county,Lake,Charlo,,10, PREC 10 Charlo School Gym,"404 1st Ave W, Charlo, MT "
MT,county,Lake,St Ignatius,,11,St Ignatius School Gymnasium,"76 3rd Ave, St Ignatius, MT "
MT,county,Lake,St Ignatius,,12,St Ignatius School Gymnasium,"76 3rd Ave, St Ignatius, MT "
MT,county,Lake,Bigfork,,13, PREC 13 Ferndale Club House,"857 South Ferndale Dr, Bigfork, MT "
MT,county,Lake,Bigfork,,14,PREC 14 Bear Dance Club House,"19269 MT Hwy 35, Bigfork, MT "
MT,county,Lake,Swan Lake,,15, PREC 15 Swan River St Forest H,"34925 Mt Hwy 83, Swan Lake, MT "
MT,county,Lake,Polson,,16,Polson Linderman Gymnasium,"411 2nd St E, Polson, MT "
MT,county,Lake,Swan Lake,,17, Swan River St Forest H,"34925 Mt Hwy 83, Swan Lake, MT "
MT,county,Lake,Polson,,18,Polson Linderman Gymnasium,"411 2nd St E, Polson, MT "
MT,county,Lake,Ronan,,19, PREC 19 Ronan Community Center,"300 3rd Ave NW, Ronan, MT "
MT,county,Lake,Ronan,,20, PREC 20 Ronan Community Center,"300 3rd Ave NW, Ronan, MT "
MT,county,Lake,St Ignatius,,21,St Ignatius School Gymnasium,"76 3rd Ave, St Ignatius, MT "
MT,county,Lake,Arlee,,22, PREC 22 Arlee Senior Center,"34532 Wessinger St, Arlee, MT "
MT,county,Lewis & Clark,Helena,,1,Lewis And Clark Library,"120 S Last Chance Gulch, Helena, MT "
MT,county,Lewis & Clark,Helena,,2,Civic Center Ballroom,"340 Neill, Helena, MT "
MT,county,Lewis & Clark,Helena,,3,Kessler School,"2420 Choteau, Helena, MT "
MT,county,Lewis & Clark,Helena,,4,Civic Center Ballroom,"340 Neill, Helena, MT "
MT,county,Lewis & Clark,Helena,,5,Lewis And Clark Library,"120 South Last Chance Gulch, Helena, MT "
MT,county,Lewis & Clark,Helena,,6,Civic Center Ballroom,"340 Neill, Helena, MT "
MT,county,Lewis & Clark,Helena,,7,Civic Center Ballroom,"340 Neill, Helena, MT "
MT,county,Lewis & Clark,Helena,,8,Civic Center Ballroom,"340 Neill, Helena, MT "
MT,county,Lewis & Clark,Helena,,9,Civic Center Ballroom,"340 Neill, Helena, MT "
MT,county,Lewis & Clark,Helena,,10,Civic Center Ballroom,"340 Neill, Helena, MT "
MT,county,Lewis & Clark,Helena,,11,Civic Center Ballroom,"340 Neill, Helena, MT "
MT,county,Lewis & Clark,Helena,,12,Exhibit BLDG - Entry Hall - Fairgrounds,"98 West Custer Ave, Helena, MT "
MT,county,Lewis & Clark,Helena,,13,Helena Middle School Auditorium,"1025 North Rodney St, Helena, MT "
MT,county,Lewis & Clark,Helena,,14,Helena Middle School Auditorium,"1025 North Rodney St, Helena, MT "
MT,county,Lewis & Clark,Helena,,15,Exhibit BLDG - Entry Hall - Fairgrounds,"98 West Custer Ave, Helena, MT "
MT,county,Lewis & Clark,Helena,,16,Assembly Of God Activity Cntr,"2210 Dodge Ave, Helena, MT "
MT,county,Lewis & Clark,Helena,,17,Assembly Of God Activity Cntr,"2210 Dodge Ave, Helena, MT "
MT,county,Lewis & Clark,Helena,,18,Eagles Manor,"715 N Fee, Helena, MT "
MT,county,Lewis & Clark,Helena,,19,Covenant United Methodist Church,"2330 Broadway, Helena, MT "
MT,county,Lewis & Clark,Helena,,20,Smith School,"2320 Fifth, Helena, MT "
MT,county,Lewis & Clark,Helena,,21,Touchmark on Saddle Drive,"915 Saddle Drive, Helena, MT "
MT,county,Lewis & Clark,Helena,,22,Touchmark on Saddle Drive,"915 Saddle Drive, Helena, MT "
MT,county,Lewis & Clark,Helena        Helena,,23          23A,Hunters Pointe            Touchmark on Saddle Drive,"2801 Colonial Dr                                  915 Saddle Drive, Helena        Helena, MT "
MT,county,Lewis & Clark,Helena,,24,Mt Dept Of Transportation,"2701 Prospect Ave, Helena, MT "
MT,county,Lewis & Clark,Helena,,25,Kessler School,"2420 Choteau, Helena, MT "
MT,county,Lewis & Clark,Helena,,26,Kessler School,"2420 Choteau, Helena, MT "
MT,county,Lewis & Clark,Helena,,27,Birdseye Community Center,"5215 Birdseye Road, Helena, MT "
MT,county,Lewis & Clark,Helena,,28,Jim Darcy School,"900 Lincoln Road  W, Helena, MT "
MT,county,Lewis & Clark,Helena,,29,Exhibit BLDG - Entry Hall - Fairgrounds,"98 West Custer, Helena, MT "
MT,county,Lewis & Clark,Helena,,30,Exhibit BLDG - Entry Hall - Fairgrounds,"98 West Custer, Helena, MT "
MT,county,Lewis & Clark,Helena,,31,Rossiter School,"1497 Sierra Rd E, Helena, MT "
MT,county,Lewis & Clark,Helena,,32,Rossiter School,"1497 Sierra Rd E, Helena, MT "
MT,county,Lewis & Clark,Helena,,33,West Valley Fire Hall,"1165 Forestvale Road, Helena, MT "
MT,county,Lewis & Clark,Helena,,34,Helena Valley Community Center,"2605 York Rd, Helena, MT "
MT,county,Lewis & Clark,Helena,,35,Warren School,"2690 York Rd, Helena, MT "
MT,county,Lewis & Clark,Helena,,36,Rossiter School,"1497 Sierra Rd  E, Helena, MT "
MT,county,Lewis & Clark,Helena,,37,Jim Darcy School,"900 Lincoln Rd  W, Helena, MT "
MT,county,Lewis & Clark,Helena,,38,Jim Darcy School,"900 Lincoln Rd  W, Helena, MT "
MT,county,Lewis & Clark,Helena,,39,Birdseye Community Center,"5215 Birdseye Road, Helena, MT "
MT,county,Lewis & Clark,Canyon Creek,,40,Canyon Creek School,"7435 Duffy Lane, Canyon Creek, MT "
MT,county,Lewis & Clark,Lincoln,,41,Lincoln Community Hall,"404 Main Street, Lincoln, MT "
MT,county,Lewis & Clark,Wolf Creek  Wolf Creek,,42         42a,Wolf Creek School       Dearborn Community Cntr,"150 Walsh Street                             5400 Hwy 434, Wolf Creek  Wolf Creek, MT "
MT,county,Lewis & Clark,Wolf Creek,,43,Craig School,"375 Augusta Street, Wolf Creek, MT "
MT,county,Lewis & Clark,Lincoln,,44,Lincoln Community Hall,"404 Main Street, Lincoln, MT "
MT,county,Lewis & Clark,Augusta,,45,Augusta Youth Center,"123 Main Street, Augusta, MT "
MT,county,Lewis & Clark,Wolf Creek,,46,Dearborn Community Cntr,"5400 Hwy 434, Wolf Creek, MT "
MT,county,Lewis & Clark,Helena,,47,York Community Center,"6040 Nelson Road, Helena, MT "
MT,county,Lewis & Clark,Helena,,48,Yacht Basin Restaurant,"7035 Canyon Ferry Rd, Helena, MT "
MT,county,Lewis & Clark,Helena,,49,Lakeside Fire Hall,"5290 York Rd, Helena, MT "
MT,county,Lewis & Clark,Helena,,50,Warren School,"2690 York Rd, Helena, MT "
MT,county,Lewis & Clark,East Helena,,51,East Valley Middle School,"401 Kalispell, East Helena, MT "
MT,county,Lewis & Clark,East Helena,,52,East Valley Middle School,"401 Kalispell, East Helena, MT "
MT,county,Lewis & Clark,East Helena,,53,East Helena City Hall,"306 East Main Street, East Helena, MT "
MT,county,Lewis & Clark,Helena,,54,Mt Dept Of Transportation,"2701 Prospect Ave, Helena, MT "
MT,county,Liberty,Chester,,1,ELE Gym,"511 Main Street, Chester, MT "
MT,county,Liberty,Chester,,2,ELE Gym,"511 Main Street, Chester, MT "
MT,county,Liberty,Chester,,3,ELE Gym,"511 Main Street, Chester, MT "
MT,county,Liberty,Joplin,,4,Community Hall,"105 2nd Street East, Joplin, MT "
MT,county,Lincoln,Fortine,,1,Fortine Schoolhouse,"290 Main Street, Fortine, MT "
MT,county,Lincoln,Trego,,2,Trego Schoolhouse,"56 Loon Lake Road, Trego, MT "
MT,county,Lincoln,Eureka,,3,Eureka Baptist Church,"935 9th Street East, Eureka, MT "
MT,county,Lincoln,Eureka,,4,Tobacco Valley Sr Center,"310 1st Avenue East, Eureka, MT "
MT,county,Lincoln,Troy,,5,Yaak Rod & Gun Club,"202 Shooting Range Road, Troy, MT "
MT,county,Lincoln,Troy,,6,Mc Cormick School,"1564 Old Highway 2 North, Troy, MT "
MT,county,Lincoln,Troy,,7,Kootenai Senior Citizen's Cntr,"306 3rd Street, Troy, MT "
MT,county,Lincoln,Troy,,8,Kootenai Sr Citizen's Center,"306 3rd Street , Troy, MT "
MT,county,Lincoln,Libby,,9,Libby City Hall,"952 East Spruce St, Libby, MT "
MT,county,Lincoln,Libby,,10,VFW Building,"108 West 2nd Street, Libby, MT "
MT,county,Lincoln,Libby,,11,VFW Building,"108 West 2nd Street, Libby, MT "
MT,county,Lincoln,Libby,,12,Pioneer Center,"407 West Balsam Street, Libby, MT "
MT,county,Lincoln,Libby,,13,Plummer School Gym,"247 Indian Head Road, Libby, MT "
MT,county,Lincoln,Libby,,14,Fisher River Fire Building,"70 West Camp Road, Libby, MT "
MT,county,Madison,Sheridan,,5,Sheridan Library,"109 East Hamilton, Sheridan, MT "
MT,county,Madison,Twin Bridges,,7,Twin Bridges School,"216 W 6th Ave, Twin Bridges, MT "
MT,county,Madison,Ennis,,20,Ennis Rural Fire Hall,"5037 Us Highway 287 North, Ennis, MT "
MT,county,Madison,Ennis,,21,Ennis Town Hall,"328 East Main Street, Ennis, MT "
MT,county,Madison,Virginia City,,1-1,Heritage Commission Rehearsal Hall,"Idaho Street, Virginia City, MT "
MT,county,Madison,Alder,,1-2,Alder Community Center,"Alder, Alder, MT "
MT,county,Madison,Cardwell,,15-1,Cardwell School,"80 Mt Highway 359, Cardwell, MT "
MT,county,Madison,Harrison,,15-2,Harrison School,"120 Harrison Street, Harrison, MT "
MT,county,McCone,Circle,,4,Country Market Banquet Room,"101 Tenth Street, Circle, MT "
MT,county,McCone,Circle,,8,Comm. / Sr. Center,"212 Main Street, Circle, MT "
MT,county,McCone,Vida,,27,Vida School,"200 Shell Street, Vida, MT "
MT,county,Meagher,White Sulphur Springs,,5,Grade School - A,"209 Central Avenue, White Sulphur Springs, MT "
MT,county,Mineral,Alberton,,22,Alberton,"133 Railroad Ave, Alberton, MT "
MT,county,Mineral,Superior,,24,Superior,"301 2nd Ave E, Superior, MT "
MT,county,Mineral,Superior,,25,Superior,"201 River Street, Superior, MT "
MT,county,Mineral,St Regis,,26,St. Regis,"230 Lobo Loop, St Regis, MT "
MT,county,Mineral,Deborgia,,27,Deborgia,"218 Thompson Deborgia Rd, Deborgia, MT "
MT,county,Mineral,Superior,,30,Superior,"410 Arizona Ave , Superior, MT "
MT,county,Missoula,Bonner,,BONN 1 ,Bonner School,"9045 Highway 200 East, Bonner, MT "
MT,county,Missoula,Bonner,,BONN 2 ,Bonner School,"9045 Highway 200 East, Bonner, MT "
MT,county,Missoula,Missoula,,CHIE 1 ,Chief Charlo School,"5600 Longview , Missoula, MT "
MT,county,Missoula,Clinton,,CLIN 1 ,Clinton School,"19075 East Mullan Road , Clinton, MT "
MT,county,Missoula,Missoula,,COLD 1 ,Cold Springs School,"2625 Briggs , Missoula, MT "
MT,county,Missoula,Missoula,,COLD 2 ,Cold Springs School,"2625 Briggs , Missoula, MT "
MT,county,Missoula,Missoula,,COLD 3 ,Cold Springs School,"2625 Briggs , Missoula, MT "
MT,county,Missoula,Missoula,,CSPO 1 ,C S Porter School,"2510 Central Avenue , Missoula, MT "
MT,county,Missoula,Missoula,,CSPO 2 ,C S Porter School,"2510 Central Avenue , Missoula, MT "
MT,county,Missoula,Missoula,,EAST 1 ,East Missoula Community Center,"326 Montana Avenue , Missoula, MT "
MT,county,Missoula,Missoula,,EVAR 1 ,Evaro Fire Station,"6900 Grooms Road , Missoula, MT "
MT,county,Missoula,Missoula,,EVAR 2 ,Evaro Fire Station,"6900 Grooms Road , Missoula, MT "
MT,county,Missoula,Missoula,,FRAN 1 ,Franklin School,"1901 South 10th Street West , Missoula, MT "
MT,county,Missoula,Frenchtown,,FREN 1 ,Frenchtown Fire Station,"16875 Marion, Frenchtown, MT "
MT,county,Missoula,Frenchtown,,FREN 2 ,Frenchtown Fire Station,"16875 Marion, Frenchtown, MT "
MT,county,Missoula,Missoula,,HAWT 1 ,Hawthorne School,"2835 South 3rd Street West , Missoula, MT "
MT,county,Missoula,Missoula,,HAWT 2 ,Hawthorne School,"2835 South 3rd Street West , Missoula, MT "
MT,county,Missoula,Missoula,,HELG 1 ,Hellgate Elementary School,"2385 Flynn Lane , Missoula, MT "
MT,county,Missoula,Missoula,,HELG 2 ,Hellgate Elementary School,"2385 Flynn Lane , Missoula, MT "
MT,county,Missoula,Missoula,,HELG 3 ,Hellgate Elementary School,"2385 Flynn Lane , Missoula, MT "
MT,county,Missoula,Missoula,,LEWI 1 ,Lewis & Clark School,"2901 Park  , Missoula, MT "
MT,county,Missoula,Missoula,,LEWI 2 ,Lewis & Clark School,"2901 Park  , Missoula, MT "
MT,county,Missoula,Missoula,,LEWI 3 ,Lewis & Clark School,"2901 Park  , Missoula, MT "
MT,county,Missoula,Missoula,,LIBR 1 ,Library,"301 East Main , Missoula, MT "
MT,county,Missoula,Missoula,,LIBR 2 ,Library,"301 East Main , Missoula, MT "
MT,county,Missoula,Lolo,,LOLO 1 ,Lolo Elementary School,"11395 Highway 93 South, Lolo, MT "
MT,county,Missoula,Lolo,,LOLO 2 ,Lolo Elementary School,"11395 Highway 93 South, Lolo, MT "
MT,county,Missoula,Missoula,,LOWE 1 ,Lowell School,"1200 Sherwood , Missoula, MT "
MT,county,Missoula,Missoula,,LOWE 2 ,Lowell School,"1200 Sherwood , Missoula, MT "
MT,county,Missoula,Missoula,,MEAD 1 ,Meadow Hill School,"4210 South Reserve Street , Missoula, MT "
MT,county,Missoula,Missoula,,PAXS 1 ,Paxson School,"101 Evans  , Missoula, MT "
MT,county,Missoula,Alberton,,PETT 1 ,Petty Creek Fire Station,"995 Terrace View Drive, Alberton, MT "
MT,county,Missoula,Alberton,,PETT 2 ,Petty Creek Fire Station,"995 Terrace View Drive, Alberton, MT "
MT,county,Missoula,Bonner,,POTO 1 ,Greenough Potomac Community Center,"27950 Potomac Road, Bonner, MT "
MT,county,Missoula,Bonner,,POTO 2 ,Greenough Potomac Community Center,"27950 Potomac Road, Bonner, MT "
MT,county,Missoula,Missoula,,RATT 1 ,Rattlesnake School,"1220 Pineview Drive, Missoula, MT "
MT,county,Missoula,Missoula,,RUSS 1 ,Russell School,"3216 Russell , Missoula, MT "
MT,county,Missoula,Missoula,,RUSS 2 ,Russell School,"3216 Russell , Missoula, MT "
MT,county,Missoula,Seeley Lake,,SEEL 1 ,Seeley Lake Elementary School,"200 School Lane, Seeley Lake, MT "
MT,county,Missoula,Missoula,,SENI 1 ,Senior Citizens Center,"705 South Higgins , Missoula, MT "
MT,county,Missoula,Missoula,,SPMW 1 ,Spring Meadows Fire Station,"9350 Ladyslipper  , Missoula, MT "
MT,county,Missoula,Missoula,,SPMW 2 ,Spring Meadows Fire Station,"9350 Ladyslipper  , Missoula, MT "
MT,county,Missoula,Missoula,,STJO 1 ,St Joseph School,"503 Edith , Missoula, MT "
MT,county,Missoula,Missoula,,STJO 2 ,St Joseph School,"503 Edith , Missoula, MT "
MT,county,Missoula,Missoula,,STJO 3 ,St Joseph School,"503 Edith , Missoula, MT "
MT,county,Missoula,Condon,,SWAN 1 ,Swan Valley School,"6423 Highway 83 North , Condon, MT "
MT,county,Missoula,Condon,,SWAN 2 ,Swan Valley School,"6423 Highway 83 North , Condon, MT "
MT,county,Missoula,Missoula,,TARG 1 ,Target Range School,"4095 South Avenue West , Missoula, MT "
MT,county,Missoula,Missoula,,TARG 2 ,Target Range School,"4095 South Avenue West , Missoula, MT "
MT,county,Missoula,Missoula,,TARG 3 ,Target Range School,"4095 South Avenue West , Missoula, MT "
MT,county,Missoula,Missoula,,UCCE 1 ,U C Center,"1000 East Beckwith Avenue , Missoula, MT "
MT,county,Musselshell,Roundup,,1,Roundup Community Center,"700 Third Street West , Roundup, MT "
MT,county,Musselshell,Roundup,,3,Roundup Community Center,"700 Third Street West , Roundup, MT "
MT,county,Musselshell,Roundup,,5,Roundup Community Center,"700 Third Street West , Roundup, MT "
MT,county,Musselshell,Roundup,,6,Roundup Community Center,"700 Third Street West , Roundup, MT "
MT,county,Musselshell,Melstone,,7,Melstone Community Center,"500 Fergus, Melstone, MT "
MT,county,Musselshell,Musselshell,,8,Musselshell School,"100 South Musselshell Road , Musselshell, MT "
MT,county,Park,Livingston,,2,Livingston Fairgrounds,"46 View Vista Dr, Livingston, MT "
MT,county,Park,Livingston,,3,Livingston Fairgrounds,"46 View Vista Dr, Livingston, MT "
MT,county,Park,Livingston,,4,Livingston Fairgrounds,"46 View Vista Dr, Livingston, MT "
MT,county,Park,Livingston,,1 HD61,Livingston Fairgrounds,"46 View Vista Dr, Livingston, MT "
MT,county,Park,Livingston,,1 HD62,Livingston Fairgrounds,"46 View Vista Dr, Livingston, MT "
MT,county,Park,Livingston,,2B,Livingston Fairgrounds,"46 View Vista Dr, Livingston, MT "
MT,county,Park,Emigrant,,5A,Emigrant Hall,"101 Story Road, Emigrant, MT "
MT,county,Park,Gardiner,,5B,Gardiner School,"510 Stone Street, Gardiner, MT "
MT,county,Park,Gardiner,,5C,Gardiner School,"510 Stone Street, Gardiner, MT "
MT,county,Park,Livingston,,5D,Livingston Fairgrounds,"46 View Vista Dr, Livingston, MT "
MT,county,Park,Emigrant,,6A,Emigrant Hall,"101 Story Road, Emigrant, MT "
MT,county,Park,Livingston,,6B,Livingston Fairgrounds,"46 View Vista Dr, Livingston, MT "
MT,county,Park,Livingston,,7A,Livingston Fairgrounds,"46 View Vista Dr, Livingston, MT "
MT,county,Park,Livingston,,7B,Livingston Fairgrounds,"46 View Vista Dr, Livingston, MT "
MT,county,Park,Clyde Park,,7C,Shields Valley Community Center,"409 Miles Ave., Clyde Park, MT "
MT,county,Park,Clyde Park,,7D,Shields Valley Community Center,"409 Miles Ave., Clyde Park, MT "
MT,county,Petroleum,Winnett,,1,Petroleum County Courthouse,"302 East Main, Winnett, MT "
MT,county,Phillips,Zortman,,5,Zortman School,"376 Thompson St, Zortman, MT "
MT,county,Phillips,Landusky,,6,Landusky School,"245 Ore Street, Landusky, MT "
MT,county,Phillips,Loring,,7,Loring Hall,"92 1st St E, Loring, MT "
MT,county,Phillips,Malta,,11,First Creek Hall,"31283 Regina Rd, Malta, MT "
MT,county,Phillips,Whitewater,,16,Whitewater School,"117 1st Ave W, Whitewater, MT "
MT,county,Phillips,Dodson,,2-N,Dodson School,"2nd St W, Dodson, MT "
MT,county,Phillips,Dodson,,2-S,Dodson School,"2nd St W, Dodson, MT "
MT,county,Phillips,Saco,,8-N,Saco School,"321 Highway 243, Saco, MT "
MT,county,Phillips,Saco,,8-S,Saco School,"321 Highway 243, Saco, MT "
MT,county,Phillips,Malta,,9-1,City Hall/9-1 Left,"39 S 2nd St E, Malta, MT "
MT,county,Phillips,Malta,,9-2,City Hall/9-2 Right,"39 S 2nd St E, Malta, MT "
MT,county,Phillips,Malta,,12-N,Malta City Hall,"39 S 2nd St E, Malta, MT "
MT,county,Phillips,Malta,,12-S,Malta City Hall,"39 S 2nd St E, Malta, MT "
MT,county,Pondera,Brady,,19,Brady Community Center,"303 Central Avenue, Brady, MT "
MT,county,Pondera,Heart Butte,,20,Heart Butte High School,"Heart Butte School Road, Heart Butte, MT "
MT,county,Pondera,Dupuyer,,23,Dupuyer Community Center,"201 Gillette Ave E, Dupuyer, MT "
MT,county,Pondera,Conrad,,24,Pondera Center,"311 S Virginia St, Conrad, MT "
MT,county,Pondera,Conrad,,27,Pondera Center,"311 S Virginia St, Conrad, MT "
MT,county,Pondera,Conrad,,28,Pondera Center,"311 S Virginia St, Conrad, MT "
MT,county,Pondera,Valier,,34,Valier Civic Center,"514 Montana St, Valier, MT "
MT,county,Pondera,Valier,,35,Valier Civic Center,"514 Montana St, Valier, MT "
MT,county,Powder River,Powderville,,1,Powderville Hall,"362 W.t Powderville Road, Powderville, MT "
MT,county,Powder River,Volborg,,3,Coalwood School,"10 Riley Road, Volborg, MT "
MT,county,Powder River,Volborg,,4,Stacey Memorial Hall,"5 Liscomb Road, Volborg, MT "
MT,county,Powder River,Ashland,,5,Treco Building,"2435 Highway 212, Ashland, MT "
MT,county,Powder River,Otter,,7,Billup School,"905 Sayle Road, Otter, MT "
MT,county,Powder River,Biddle,,9,Biddle Heritage Center,"212 South State Highway 59, Biddle, MT "
MT,county,Powder River,Broadus,,11,Courthouse Lobby,"1 Courthouse Square, Broadus, MT "
MT,county,Powder River,Broadus,,12,Courthouse Election Room,"1 Courthouse Square, Broadus, MT "
MT,county,Powell,Avon,,1,Avon Community Center,"208 Main St, Avon, MT "
MT,county,Powell,Deer Lodge,,3,Community Center-3,"416 Cottonwood, Deer Lodge, MT "
MT,county,Powell,Deer Lodge,,4,Community Center-4,"416 Cottonwood, Deer Lodge, MT "
MT,county,Powell,Deer Lodge,,5,Community Center-5,"416 Cottonwood , Deer Lodge, MT "
MT,county,Powell,Deer Lodge,,6,Community Center-6,"416 Cottonwood, Deer Lodge, MT "
MT,county,Powell,Deer Lodge,,7,Community Center-7,"416 Cottonwood, Deer Lodge, MT "
MT,county,Powell,Elliston,,8,Elliston School Gym,"205 West Main Street, Elliston, MT "
MT,county,Powell,Garrison,,10,Garrison School,"33 School House Rd, Garrison, MT "
MT,county,Powell,Gold Creek,,11,Gold Creek Community Center,"653 Gold Creek Road, Gold Creek, MT "
MT,county,Powell,Helmville,,12,Helmville Community Center,"105 Main Street, Helmville, MT "
MT,county,Powell,Ovando,,14,Ovando Community Center,"108 Birch Street, Ovando, MT "
MT,county,Powell,Deer Lodge,,16,Racetrack Community Hass,"6887 S Frontage Rd, Deer Lodge, MT "
MT,county,Powell,Helmville,,12_84,Helmville Community Center,"105 Main Street, Helmville, MT "
MT,county,Powell,Ovando,,14_84,Ovando Community Center,"108 Birch Street, Ovando, MT "
MT,county,Powell,Deer Lodge,,16_84,Racetrack Community Hass,"6887 S Frontage Rd, Deer Lodge, MT "
MT,county,Powell,Deer Lodge,,3_84,Community Center-3,"416 Cottonwood, Deer Lodge, MT "
MT,county,Prairie,Terry,,1,Terry High School,"215 W Park, Terry, MT "
MT,county,Prairie,Terry,,2,Terry High School,"215 W Park, Terry, MT "
MT,county,Prairie,Fallon,,3,Fallon Coffee Shop,"518 N Railway Ave, Fallon, MT "
MT,county,Prairie,Terry,,4,Terry High School,"518 N Railway Ave, Terry, MT "
MT,county,Ravalli,Sula,,1,Sula Clubhouse,"405 East Fork Road, Sula, MT "
MT,county,Ravalli,Darby,,2,Conner Church,"4674 Hwy 93, Darby, MT "
MT,county,Ravalli,Darby,,3,Darby Clubhouse,"110 Main Street, Darby, MT "
MT,county,Ravalli,Darby,,4,Darby Clubhouse,"110 Main Street, Darby, MT "
MT,county,Ravalli,Hamilton,,5,Charlos Community Church,"1700 Hwy 93, Hamilton, MT "
MT,county,Ravalli,Hamilton,,6,Hamilton High School Gym,"327 Fairgrounds Road, Hamilton, MT "
MT,county,Ravalli,Hamilton,,7,Hamilton High School Gym,"327 Fairgrounds Road, Hamilton, MT "
MT,county,Ravalli,Hamilton,,8,Hamilton High School Gym,"327 Fairgrounds Road, Hamilton, MT "
MT,county,Ravalli,Hamilton,,9,Hamilton High School Gym,"327 Fairgrounds Road, Hamilton, MT "
MT,county,Ravalli,Corvallis,,10,Corvallis High School Gym,"1045 Main Street, Corvallis, MT "
MT,county,Ravalli,Corvallis,,11,Corvallis High School Gym,"1045 Main Street, Corvallis, MT "
MT,county,Ravalli,Corvallis,,12,Corvallis High School Gym,"1045 Main Street, Corvallis, MT "
MT,county,Ravalli,Pinesdale,,13,Pinesdale Town Hall,"Downtown Pinesdale, Pinesdale, MT "
MT,county,Ravalli,Victor,,14,Victor School Gym,"424 4th Avenue, Victor, MT "
MT,county,Ravalli,Victor,,15,Victor School Gym,"424 4th Avenue, Victor, MT "
MT,county,Ravalli,Stevensville,,16,St Mary's Family Center,"333 Charlos Street , Stevensville, MT "
MT,county,Ravalli,Stevensville,,17,St Mary's Family Center,"333 Charlos Street , Stevensville, MT "
MT,county,Ravalli,Stevensville,,18,St Mary's Family Center,"333 Charlos Street , Stevensville, MT "
MT,county,Ravalli,Stevensville,,19,Lone Rock School,"1112 Three Mile Road, Stevensville, MT "
MT,county,Ravalli,Stevensville,,20,Lone Rock School,"1112 Three Mile Road, Stevensville, MT "
MT,county,Ravalli,Florence,,21,Florence Carlton School Gym,"5602 Old Highway 93, Florence, MT "
MT,county,Ravalli,Florence,,22,Florence Carlton School Gym,"5602 Old Highway 93, Florence, MT "
MT,county,Richland,Sidney,,1,Assembly Of God Multipurpose Room,"414 East Main Street, Sidney, MT "
MT,county,Richland,Sidney,,2,Assembly Of God Multipurpose Room,"414 East Main Street, Sidney, MT "
MT,county,Richland,Sidney,,3,Assembly Of God Multipurpose Room,"414 East Main Street, Sidney, MT "
MT,county,Richland,Sidney,,4,Assembly Of God Multipurpose Room,"414 East Main Street, Sidney, MT "
MT,county,Richland,Savage,,5,Savage Senior Center,"164 Main Street, Savage, MT "
MT,county,Richland,Sidney,,8,Assembly Of God Multipurpose Room,"414 East Main Street, Sidney, MT "
MT,county,Richland,Sidney,,9,Assembly Of God Multipurpose Room,"414 East Main Street, Sidney, MT "
MT,county,Richland,Sidney,,17,Girard Hall,"13610 County Road 338, Sidney, MT "
MT,county,Richland,Brockton,,19,Elmdale Hall,"32108 County 139, Brockton, MT "
MT,county,Richland,Sidney,,22,Assembly Of God Multipurpose Room,"414 East Main Street, Sidney, MT "
MT,county,Richland,Sidney,,23,Assembly Of God Multipurpose Room,"414 East Main Street, Sidney, MT "
MT,county,Richland,Fairview,,12a,St Catherine's Church,"317 West 7th Street, Fairview, MT "
MT,county,Richland,Fairview,,12b,St Catherine's Church,"317 West 7th Street, Fairview, MT "
MT,county,Richland,Lambert,,7a,Lamber School Old Gym,"121 3rd Ave N, Lambert, MT "
MT,county,Richland,Lambert,,7b,Lamber School Old Gym,"121 3rd Ave N, Lambert, MT "
MT,county,Roosevelt,Bainville,,2,Bainville School 2,"409 Tubman, Bainville, MT "
MT,county,Roosevelt,Froid,,10,Froid Community Center,"103 2nd Street North, Froid, MT "
MT,county,Roosevelt,Culbertson,,12,Culbertson School 12,"423 1st Avenue West, Culbertson, MT "
MT,county,Roosevelt,Brockton,,15,Brockton School District Office 15,"529 5th Street, Brockton, MT "
MT,county,Roosevelt,Poplar,,16,Poplar Middle School 16,"408 D Street West, Poplar, MT "
MT,county,Roosevelt,Brockton,,17,Faith Lutheran Church 17,"4703 Highway 344 W, Brockton, MT "
MT,county,Roosevelt,Poplar,,18,Poplar Middle School 18,"408 D Street West, Poplar, MT "
MT,county,Roosevelt,Wolf Point,,20,County Services Bldg Conference Room 20,"124 Custer Street, Wolf Point, MT "
MT,county,Roosevelt,Wolf Point,,22,County Services Bldg Conference Room 22,"124 Custer Street, Wolf Point, MT "
MT,county,Roosevelt,Wolf Point,,24,County Services Bldg Sr Center 24,"124 Custer Street, Wolf Point, MT "
MT,county,Roosevelt,Wolf Point,,26,County Services Bldg Sr Center 26,"124 Custer Street, Wolf Point, MT "
MT,county,Roosevelt,Wolf Point,,27,County Services Building Sr Center 27,"124 Custer Street, Wolf Point, MT "
MT,county,Roosevelt,Wolf Point,,28,County Services Bldg Sr Center 28,"124 Custer Street, Wolf Point, MT "
MT,county,Rosebud,Forsyth,,3,Courthouse,"1200 Main Street, Forsyth, MT "
MT,county,Rosebud,Forsyth,,6,Forsyth High School,"917 Park Street, Forsyth, MT "
MT,county,Rosebud,Birney,,7,Birney School,"201 Commercial Street, Birney, MT "
MT,county,Rosebud,Rosebud,,10,Rosebud School,"601 Main Street, Rosebud, MT "
MT,county,Rosebud,Rosebud,,11,Rosebud School,"601 Main Street, Rosebud, MT "
MT,county,Rosebud,Lame Deer,,15,Northern Cheyenne Tribal Building,"100 Cheyenne Avenue, Lame Deer, MT "
MT,county,Rosebud,Ashland,,17,Ashland Public School,"8 Old Mission Road, Ashland, MT "
MT,county,Rosebud,Forsyth,,20,Forsyth City Hall,"247 North 9th Avenue, Forsyth, MT "
MT,county,Rosebud,Forsyth,,21,Forsyth City Hall,"247 North 9th Avenue, Forsyth, MT "
MT,county,Rosebud,Ingomar,,26,Ingomar School,"400 1st Avenue , Ingomar, MT "
MT,county,Rosebud,Colstrip,,30,Isabelle Bills Learning Center,"520 Poplar Drive, Colstrip, MT "
MT,county,Rosebud,Colstrip,,32,Isabelle Bills Learning Center,"520 Poplar Drive, Colstrip, MT "
MT,county,Sanders,Heron,,1,Heron Community Center,"6 Upper River Road , Heron, MT "
MT,county,Sanders,Noxon,,2,Noxon Community Ambulance Services Bldg,"311 Noxon Ave, Noxon, MT "
MT,county,Sanders,Trout Creek,,3,Trout Creek School,"4 School Lane, Trout Creek, MT "
MT,county,Sanders,Trout Creek,,4,Whitepine Grange,"9 Faro Lane, Trout Creek, MT "
MT,county,Sanders,Thompson Falls,,5,Thompson Falls Comm. Center,"410 Golf St, Thompson Falls, MT "
MT,county,Sanders,Plains,,6,Plains School,"412 Rittenour St , Plains, MT "
MT,county,Sanders,Hot Springs,,7,Hot Springs Senior Citizens,"101 Main St, Hot Springs, MT "
MT,county,Sanders,Hot Springs,,9,Hot Springs Senior Citizen's,"101 Main St, Hot Springs, MT "
MT,county,Sanders,Dixon,,10,Dixon Senior Citizens Center,"35 3rd St, Dixon, MT "
MT,county,Sanders,Paradise,,8HD13,Memorial Hall,"411 N Ave , Paradise, MT "
MT,county,Sanders,Paradise,,8HD14,Memorial Hall,"411 N Ave , Paradise, MT "
MT,county,Sheridan,Westby,,1,Westby Community Hall,"208 Main St, Westby, MT "
MT,county,Sheridan,Medicine Lake,,2,Medicine Lake Fire Station,"106 Main St, Medicine Lake, MT "
MT,county,Sheridan,Plentywood,,3,PCT 3 Civic Center,"4262 C Hwy 16 S, Plentywood, MT "
MT,county,Sheridan,Plentywood,,4,PCT 4 Civic Center,"4262 C Hwy 16 S, Plentywood, MT "
MT,county,Sheridan,Plentywood,,5,PCT 5 Civic Center,"4262 C Hwy 16 S, Plentywood, MT "
MT,county,Sheridan,Plentywood,,6,PCT 6 Civic Center,"4262 C Hwy 16 S, Plentywood, MT "
MT,county,Silver Bow,Butte,,10E,Civic Center,"1340 Harrison Ave, Butte, MT "
MT,county,Silver Bow,Butte,,10N,Civic Center,"1340 Harrison Ave, Butte, MT "
MT,county,Silver Bow,Butte,,10S,Civic Center,"1340 Harrison Ave, Butte, MT "
MT,county,Silver Bow,Butte,,11C ,Civic Center,"1340 Harrison Ave, Butte, MT "
MT,county,Silver Bow,Butte,,12C ,Civic Center,"1340 Harrison Ave, Butte, MT "
MT,county,Silver Bow,Butte,,13N,Civic Center,"1340 Harrison Ave, Butte, MT "
MT,county,Silver Bow,Butte,,13S,Civic Center,"1340 Harrison Ave, Butte, MT "
MT,county,Silver Bow,Butte,,14C ,Civic Center,"1340 Harrison Ave, Butte, MT "
MT,county,Silver Bow,Butte,,15N,Civic Center,"1340 Harrison Ave, Butte, MT "
MT,county,Silver Bow,Butte,,15S,Civic Center,"1340 Harrison Ave, Butte, MT "
MT,county,Silver Bow,Butte,,16E,Civic Center,"1340 Harrison Ave, Butte, MT "
MT,county,Silver Bow,Butte,,16W,Civic Center,"1340 Harrison Ave, Butte, MT "
MT,county,Silver Bow,Butte,,17C ,Civic Center,"1340 Harrison Ave, Butte, MT "
MT,county,Silver Bow,Butte,,18C ,Civic Center,"1340 Harrison Ave, Butte, MT "
MT,county,Silver Bow,Butte,,19N,Civic Center,"1340 Harrison Ave, Butte, MT "
MT,county,Silver Bow,Butte,,19S,Civic Center,"1340 Harrison Ave, Butte, MT "
MT,county,Silver Bow,Butte,,1C ,Civic Center,"1340 Harrison Ave, Butte, MT "
MT,county,Silver Bow,Butte,,20N,Civic Center,"1340 Harrison Ave, Butte, MT "
MT,county,Silver Bow,Butte,,20S,Civic Center,"1340 Harrison Ave, Butte, MT "
MT,county,Silver Bow,Butte,,21C,Civic Center,"1340 Harrison Ave, Butte, MT "
MT,county,Silver Bow,Butte,,22C ,Civic Center,"1340 Harrison Ave, Butte, MT "
MT,county,Silver Bow,Butte,,23N,Civic Center,"1340 Harrison Ave, Butte, MT "
MT,county,Silver Bow,Butte,,23S,Civic Center,"1340 Harrison Ave, Butte, MT "
MT,county,Silver Bow,Butte,,24N,Civic Center,"1340 Harrison Ave, Butte, MT "
MT,county,Silver Bow,Butte,,24S,Civic Center,"1340 Harrison Ave, Butte, MT "
MT,county,Silver Bow,Butte,,25C ,Civic Center,"1340 Harrison Ave, Butte, MT "
MT,county,Silver Bow,Butte,,26E,Rocker Fire Hall,"1110 Grizzly Trail, Butte, MT "
MT,county,Silver Bow,Butte,,26W,Rocker Fire Hall,"1110 Grizzly Trail, Butte, MT "
MT,county,Silver Bow,Ramsay,,27N,Ramsay School,"3 Russell, Ramsay, MT "
MT,county,Silver Bow,Ramsay,,27S,Ramsay School,"3 Russell, Ramsay, MT "
MT,county,Silver Bow,Divide,,28C ,Divide Grange Hall,"105 School House Rd, Divide, MT "
MT,county,Silver Bow,Melrose,,29C ,Melrose School,"377 Hecla Street, Melrose, MT "
MT,county,Silver Bow,Butte,,2C ,Civic Center,"1340 Harrison Ave, Butte, MT "
MT,county,Silver Bow,Butte,,3C ,Civic Center,"1340 Harrison Ave, Butte, MT "
MT,county,Silver Bow,Butte,,4C ,Civic Center,"1340 Harrison Ave, Butte, MT "
MT,county,Silver Bow,Butte,,5C ,Civic Center,"1340 Harrison Ave, Butte, MT "
MT,county,Silver Bow,Butte,,6C ,Civic Center,"1340 Harrison Ave, Butte, MT "
MT,county,Silver Bow,Butte,,7N,Civic Center,"1340 Harrison Ave, Butte, MT "
MT,county,Silver Bow,Butte,,7S,Civic Center,"1340 Harrison Ave, Butte, MT "
MT,county,Silver Bow,Butte,,8E,Civic Center,"1340 Harrison Ave, Butte, MT "
MT,county,Silver Bow,Butte,,8W,Civic Center,"1340 Harrison Ave, Butte, MT "
MT,county,Silver Bow,Butte,,9E,Civic Center,"1340 Harrison Ave, Butte, MT "
MT,county,Silver Bow,Butte,,9N,Civic Center,"1340 Harrison Ave, Butte, MT "
MT,county,Silver Bow,Butte,,9W,Civic Center,"1340 Harrison Ave, Butte, MT "
MT,county,Stillwater, Columbus,,1,Stillwater Pavilion,"328 E 5th Avenue ,  Columbus, MT "
MT,county,Stillwater, Park City,,2,Park City Civic Center,"19 2nd Ave. SW,  Park City, MT "
MT,county,Stillwater, Reed Point,,4,Reed Point High School Library,"308 Central Avenue SW,  Reed Point, MT "
MT,county,Stillwater, Molt,,7,Molt School,"214 Lake Ave.,  Molt, MT "
MT,county,Stillwater, Rapelje,,9,Rapelje High School,"714 Main,  Rapelje, MT "
MT,county,Stillwater, Nye,,10,Nye Fire Hall,"2033 Nye Road,  Nye, MT "
MT,county,Stillwater, Fishtail,,11,Fishtail Community Center,"21 West Main Street,  Fishtail, MT "
MT,county,Stillwater, Absarokee,,13,Absarokee Elem School Gym,"327 S. Woodard Ave.,  Absarokee, MT "
MT,county,Sweet Grass,Big Timber,,1,Civic Center,"301 Hooper St, Big Timber, MT "
MT,county,Sweet Grass,Big Timber,,2,Civic Center,"301 Hooper St, Big Timber, MT "
MT,county,Sweet Grass,Big Timber,,3,Civic Center,"301 Hooper St, Big Timber, MT "
MT,county,Sweet Grass,Big Timber,,4,Civic Center,"301 Hooper St, Big Timber, MT "
MT,county,Sweet Grass,Big Timber,,5,Civic Center,"301 Hooper St, Big Timber, MT "
MT,county,Teton,Choteau,,1,Choteau Elementary School,"114 7th Ave NW, Choteau, MT "
MT,county,Teton,Power,,6,Power Public School,"402 Teton, Power, MT "
MT,county,Teton,Fairfield,,7,Fairfield Town Hall,"603 Central, Fairfield, MT "
MT,county,Teton,Pendroy,,11,Pendroy Fire Department,"119 Main Ave , Pendroy, MT "
MT,county,Teton,Dutton,,17,Dutton American Legion,"201 Main Street East, Dutton, MT "
MT,county,Toole,Galata,,DG4,Gal Hall (Galata Hall),"4 Division Street, Galata, MT "
MT,county,Toole,Galata,,DG4HD27,Gal Hall (Galata Hall),"4 Division Street, Galata, MT "
MT,county,Toole,Kevin,,KE1,K Depot (Kevin Depot Center),"4 North 1st Street, Kevin, MT "
MT,county,Toole,Kevin,,KE3,K Depot (Kevin Depot Center),"4 North 1st Street, Kevin, MT "
MT,county,Toole,Shelby,,SH1,Civic Cnt,"669 Park Ave, Shelby, MT "
MT,county,Toole,Shelby,,SH6,Civic Cnt,"669 Park Ave, Shelby, MT "
MT,county,Toole,Shelby,,SH6HD27,Civic Cnt,"669 Park Ave, Shelby, MT "
MT,county,Toole,Sunburst,,SU1,Elem Sch (Sunburst Elementary School),"220 1st Street South, Sunburst, MT "
MT,county,Toole,Sunburst,,SU3,Elem Sch (Sunburst Elementary School),"220 1st Street South, Sunburst, MT "
MT,county,Toole,Sunburst,,SU3HD16,Elem Sch (Sunburst Elementary School),"220 1st Street South, Sunburst, MT "
MT,county,Treasure,Hysham,,3,T.C. Community Center (PCT.3),"306 Rapelje, Hysham, MT "
MT,county,Treasure,Hysham,,4,Courthouse,"307 Rapelje, Hysham, MT "
MT,county,Treasure,Hysham,,6,T.C. Community Center (PCT.6),"306 Rapelje, Hysham, MT "
MT,county,Valley,Glasgow,,1,Glasgow Civic Center 1,"319 3rd St S, Glasgow, MT "
MT,county,Valley,Glasgow,,2,Glasgow Civic Center 1,"319 3rd St S, Glasgow, MT "
MT,county,Valley,Glasgow,,3,Glasgow Civic Center 1,"319 3rd St S, Glasgow, MT "
MT,county,Valley,Nashua,,4,Nashua Senior Citizens Center,"709 Front St, Nashua, MT "
MT,county,Valley,Fort Peck,,5,Fort Peck Rec Hall,"125 Missouri Ave, Fort Peck, MT "
MT,county,Valley,Glasgow,,6,Courthouse 1,"501 3rd Ave S, Glasgow, MT "
MT,county,Valley,Glasgow,,7,Courthouse 1,"501 3rd Ave S, Glasgow, MT "
MT,county,Valley,Hinsdale,,8,Hinsdale Legion Hall,"124 Montana St, Hinsdale, MT "
MT,county,Valley,Opheim,,9,Opheim Northern Electric Bldg,"75 Main St, Opheim, MT "
MT,county,Valley,Frazer,,10,Luster Grade School,"282 Lustre Rd, Frazer, MT "
MT,county,Valley,Frazer,,11,Frazer New Community Hall,"400 Moccasin Ave, Frazer, MT "
MT,county,Wheatland,Two Dot,,1,PREC 1 Community Club,"Two Dot Highway, Two Dot, MT "
MT,county,Wheatland,Harlowton,,2,PREC 2 Harlowton High School,"304 E. Division, Harlowton, MT "
MT,county,Wheatland,Shawmut,,3,PREC 3 Shawmut School,"1 East 3rd Ave, Shawmut, MT "
MT,county,Wheatland,Judith Gap,,4,PREC 4 City Complex,"601 Meagher St, Judith Gap, MT "
MT,county,Wheatland,Harlowton,,9,PREC 9 Harlowton High School,"304 E Division , Harlowton, MT "
MT,county,Wibaux,Wibaux,,1,Courtroom 1,"203 Wibaux St S, Wibaux, MT "
MT,county,Yellowstone,Billings,,42A,Lockwood School,"1932 Us Hwy 87, Billings, MT "
MT,county,Yellowstone,Huntley,,43A,Yellowstone Valley Elec. Co-Op,"150 Cooperative Way, Huntley, MT "
MT,county,Yellowstone,Worden,,43B,Huntley Project Elem. Gym,"1477 Ash Street, Worden, MT "
MT,county,Yellowstone,Custer,,43C,Custer School Gym,"210 2nd Avenue, Custer, MT "
MT,county,Yellowstone,Billings,,44A,Blue Creek School,"3652 Blue Creek Road, Billings, MT "
MT,county,Yellowstone,Billings,,44B,Lockwood School,"1932 Us Hwy 87, Billings, MT "
MT,county,Yellowstone,Huntley,,44C,Yellowstone Valley Elec. Co-Op,"150 Cooperative Way, Huntley, MT "
MT,county,Yellowstone,Shepherd,,45A,Shepherd H.S.,"7842 Shepherd Road, Shepherd, MT "
MT,county,Yellowstone,Shepherd,,46A,Shepherd H.S.,"7842 Shepherd Road, Shepherd, MT "
MT,county,Yellowstone,Billings,,46B,Pioneer School,"1937 Dover Road, Billings, MT "
MT,county,Yellowstone,Billings,,46C,Independent School,"2907 Roundup Road, Billings, MT "
MT,county,Yellowstone,Broadview,,46D,Broadview Community Center,"13725 5th Street, Broadview, MT "
MT,county,Yellowstone,Billings,,46E,Metrapark,"308 6th Avenue North, Billings, MT "
MT,county,Yellowstone,Billings,,46F,Metrapark,"308 6th Avenue North, Billings, MT "
MT,county,Yellowstone,Billings,,46G,Elder Grove School,"1532 South 64th Street West, Billings, MT "
MT,county,Yellowstone,Billings,,46H,Metrapark,"308 6th Avenue North, Billings, MT "
MT,county,Yellowstone,Billings,,46I,Metrapark,"308 6th Avenue North, Billings, MT "
MT,county,Yellowstone,Billings,,47A,Metrapark,"308 6th Avenue North, Billings, MT "
MT,county,Yellowstone,Billings,,47B,Metrapark,"308 6th Avenue North, Billings, MT "
MT,county,Yellowstone,Billings,,48A,Metrapark,"308 6th Avenue North, Billings, MT "
MT,county,Yellowstone,Billings,,48B,Metrapark,"308 6th Avenue North, Billings, MT "
MT,county,Yellowstone,Billings,,49A,Metrapark,"308 6th Avenue North, Billings, MT "
MT,county,Yellowstone,Billings,,49B,Metrapark,"308 6th Avenue North, Billings, MT "
MT,county,Yellowstone,Billings,,50A,Metrapark,"308 6th Avenue North, Billings, MT "
MT,county,Yellowstone,Billings,,50B,Metrapark,"308 6th Avenue North, Billings, MT "
MT,county,Yellowstone,Billings,,51A,Metrapark,"308 6th Avenue North, Billings, MT "
MT,county,Yellowstone,Billings,,51B,Metrapark,"308 6th Avenue North, Billings, MT "
MT,county,Yellowstone,Billings,,51C,Metrapark,"308 6th Avenue North, Billings, MT "
MT,county,Yellowstone,Billings,,52A,Metrapark,"308 6th Avenue North, Billings, MT "
MT,county,Yellowstone,Billings,,52B,Metrapark,"308 6th Avenue North, Billings, MT "
MT,county,Yellowstone,Billings,,52C,Metrapark,"308 6th Avenue North, Billings, MT "
MT,county,Yellowstone,Billings,,53A,Metrapark,"308 6th Avenue North, Billings, MT "
MT,county,Yellowstone,Billings,,53B,Metrapark,"308 6th Avenue North, Billings, MT "
MT,county,Yellowstone,Billings,,53C,Metrapark,"308 6th Avenue North, Billings, MT "
MT,county,Yellowstone,Billings,,54A,Metrapark,"308 6th Avenue North, Billings, MT "
MT,county,Yellowstone,Billings,,54B,Elysian School,"6416 Elysian Road, Billings, MT "
MT,county,Yellowstone,Billings,,54C,Metrapark,"308 6th Avenue North, Billings, MT "
MT,county,Yellowstone,Billings,,55A,Metrapark,"308 6th Avenue North, Billings, MT "
MT,county,Yellowstone,Billings,,55B,Metrapark,"308 6th Avenue North, Billings, MT "
MT,county,Yellowstone,Billings,,57A,Metrapark,"308 6th Avenue North, Billings, MT "
MT,county,Yellowstone,Billings,,57B,Elder Grove School,"1532 South 64th Street West, Billings, MT "
MT,county,Yellowstone,Laurel,,57C,Laurel H.S.,"203 East 8th, Laurel, MT "
MT,county,Yellowstone,Billings,,57D,Canyon Creek School,"3139 Duck Creek Road, Billings, MT "
MT,county,Yellowstone,Billings,,57E,Blue Creek School,"3652 Blue Creek Road, Billings, MT "
MT,county,Yellowstone,Laurel,,58A,Laurel H.S.,"203 East 8th, Laurel, MT "
MT,county,Yellowstone,Laurel,,58B,Laurel H.S.,"203 East 8th, Laurel, MT "
MT,county,Yellowstone,Laurel,,58C,Laurel H.S.,"203 East 8th, Laurel, MT "
MT,county,Yellowstone,Laurel,,58D,Laurel H.S.,"203 East 8th, Laurel, MT "
MT,county,Yellowstone,Laurel,,58E,Laurel H.S.,"203 East 8th, Laurel, MT "
MT,county,Yellowstone,Billings,,A56,Metrapark,"308 6th Avenue North, Billings, MT "
MT,county,Yellowstone,Billings,,B56,Metrapark,"308 6th Avenue North, Billings, MT "
